ZIP,COUNTY,CITY,STATE
93230,KINGS,HANFORD,CA
91362,VENTURA,WESTLAKE VILAGE,CA
90023,LOS ANGELES,LOS ANGELES,CA
90028,LOS ANGELES,HOLLYWOOD,CA
91706,LOS ANGELES,BALDWIN PARK,CA
90712,LOS ANGELES,LAKEWOOD,CA
91016,LOS ANGELES,MONROVIA,CA
91754,LOS ANGELES,MONTEREY PARK,CA
90505,LOS ANGELES,TORRANCE,CA
92879,RIVERSIDE,CORONA,CA
96101,MODOC,ALTURAS,CA
93901,MONTEREY,SALINAS,CA
78414,NUECES,CORPUS CHRISTI,TX
92866,ORANGE,ORANGE,CA
92680,ORANGE,TUSTIN,CA
92621,ORANGE,BREA,CA
92683,ORANGE,WESTMINSTER,CA
93277,TULARE,VISALIA,CA
31537,CHARLTON,FOLKSTON,GA
70563,IBERIA,NEW IBERIA,LA
77954,HOUSTON,CROCKETT,TX
71360,RAPIDES,PINEVILLE,LA
71222,UNION,BERNICE,LA
71241,UNION,FARMERVILLE,LA
71373,CONCORDIA,VIDALIA,LA
71418,CALDWELL,COLUMBIA,LA
30662,FRANKLIN,ROYSTON,GA
90806,LOS ANGELES,LONG BEACH,CA
94577,ALAMEDA,SAN LEANDRO,CA
90723,LOS ANGELES,PARAMOUNT,CA
90650,LOS ANGELES,NORWALK,CA
62274,PERRY,PINCKNEYVILLE,IL
31419,CHATHAM,SAVANNAH,GA
30165,FLOYD,ROME,GA
30286,UPSON,THOMASTON,GA
31719,SUMTER,AMERICUS,GA
31830,MERIWETHER,WARM SPRINGS,GA
30265,COWETA,NEWNAN,GA
54311,BROWN,GREEN BAY,WI
53226,MILWAUKEE,WAUWATOSA,WI
71301,RAPIDES,ALEXANDRIA,LA
70394,LAFOURCHE,RACELAND,LA
70748,EAST FELICIANA,JACKSON,LA
70056,JEFFERSON,GRETNA,LA
54971,FOND DU LAC,RIPON,WI
54660,MONROE,TOMAH,WI
54452,LINCOLN,MERRILL,WI
96001,SHASTA,REDDING,CA
93436,SANTA BARBARA,LOMPOC,CA
31825,STEWART,RICHLAND,GA
91761,SAN BERNARDINO,ONTARIO,CA
92354,SAN BERNARDINO,LOMA LINDA,CA
92404,SAN BERNARDINO,SAN BERNARDINO,CA
92120,SAN DIEGO,SAN DIEGO,CA
92037,SAN DIEGO,LA JOLLA,CA
92024,SAN DIEGO,ENCINITAS,CA
92123,SAN DIEGO,SAN DIEGO,CA
92103,SAN DIEGO,SAN DIEGO,CA
94118,SAN FRANCISCO,SAN FRANCISCO,CA
94115,SAN FRANCISCO,SAN FRANCISCO,CA
94117,SAN FRANCISCO,SAN FRANCISCO,CA
95403,SONOMA,SANTA ROSA,CA
94590,SOLANO,VALLEJO,CA
95695,YOLO,WOODLAND,CA
94609,ALAMEDA,OAKLAND,CA
94578,ALAMEDA,SAN LEANDRO,CA
94545,ALAMEDA,HAYWARD,CA
95204,SAN JOAQUIN,STOCKTON,CA
91741,LOS ANGELES,GLENDORA,CA
91204,LOS ANGELES,GLENDALE,CA
90027,LOS ANGELES,LOS ANGELES,CA
91402,LOS ANGELES,PANORAMA CITY,CA
91356,LOS ANGELES,TARZANA,CA
90020,LOS ANGELES,LOS ANGELES,CA
90716,LOS ANGELES,HAWAIIAN GARDENS,CA
95422,LAKE,CLEARLAKE,CA
93638,MADERA,MADERA,CA
92270,RIVERSIDE,RANCHO MIRAGE,CA
95124,SANTA CLARA,SAN JOSE,CA
95051,SANTA CLARA,SANTA CLARA,CA
94304,SANTA CLARA,PALO ALTO,CA
94063,SAN MATEO,REDWOOD CITY,CA
94520,CONTRA COSTA,CONCORD,CA
94509,CONTRA COSTA,ANTIOCH,CA
95825,SACRAMENTO,SACRAMENTO,CA
95945,NEVADA,GRASS VALLEY,CA
90623,ORANGE,LA PALMA,CA
92673,ORANGE,SAN CLEMENTE,CA
95991,SUTTER,YUBA CITY,CA
30143,PICKENS,JASPER,GA
30606,CLARKE,ATHENS,GA
30080,COBB,SMYRNA,GA
53715,DANE,MADISON,WI
53213,MILWAUKEE,WAUWATOSA,WI
53097,OZAUKEE,MEQUON,WI
54923,GREEN LAKE,BERLIN,WI
72758,BENTON,ROGERS,AR
54024,POLK,SAINT CROIX FALLS,WI
54017,ST. CROIX,NEW RICHMOND,WI
53081,SHEBOYGAN,SHEBOYGAN,WI
54665,VERNON,VIROQUA,WI
90241,LOS ANGELES,DOWNEY,CA
90503,LOS ANGELES,TORRANCE,CA
54904,WINNEBAGO,OSHKOSH,WI
20007,DISTRICT OF COLUMBIA,WASHINGTON,DC
33525,PASCO,DADE CITY,FL
33484,PALM BEACH,DELRAY BEACH,FL
34758,OSCEOLA,KISSIMMEE,FL
32068,CLAY,MIDDLEBURG,FL
34471,MARION,OCALA,FL
34997,MARTIN,STUART,FL
42728,ADAIR,COLUMBIA,KY
50144,DECATUR,LEON,IA
66032,ANDERSON,GARNETT,KS
67860,KEARNY,LAKIN,KS
67467,OTTAWA,MINNEAPOLIS,KS
72903,SEBASTIAN,FORT SMITH,AR
72901,SEBASTIAN,FORT SMITH,AR
72143,WHITE,SEARCY,AR
72834,YELL,DARDANELLE,AR
71923,CLARK,ARKADELPHIA,AR
72616,CARROLL,BERRYVILLE,AR
72632,CARROLL,EUREKA SPRINGS,AR
71653,CHICOT,LAKE VILLAGE,AR
71671,BRADLEY,WARREN,AR
72455,RANDOLPH,POCAHONTAS,AR
71742,DALLAS,FORDYCE,AR
72301,CRITTENDEN,WEST MEMPHIS,AR
71701,OUACHITA,CAMDEN,AR
72601,BOONE,HARRISON,AR
72560,STONE,MOUNTAIN VIEW,AR
72454,CLAY,PIGGOTT,AR
72543,CLEBURNE,HEBER SPRINGS,AR
72110,CONWAY,MORRILTON,AR
72205,PULASKI,LITTLE ROCK,AR
72117,PULASKI,LITTLE ROCK,AR
72113,PULASKI,MAUMELLE,AR
71901,GARLAND,HOT SPRINGS,AR
71913,GARLAND,HOT SPRINGS,AR
72104,HOT SPRING,MALVERN,AR
71603,JEFFERSON,PINE BLUFF,AR
72703,WASHINGTON,FAYETTEVILLE,AR
31404,CHATHAM,SAVANNAH,GA
72762,WASHINGTON,SPRINGDALE,AR
54915,OUTAGAMIE,APPLETON,WI
71953,POLK,MENA,AR
72927,LOGAN,BOONEVILLE,AR
72855,LOGAN,PARIS,AR
72396,CROSS,WYNNE,AR
53211,MILWAUKEE,MILWAUKEE,WI
85622,PIMA,GREEN VALLEY,AZ
72160,ARKANSAS,STUTTGART,AR
42539,CASEY,LIBERTY,KY
40336,ESTILL,IRVINE,KY
41653,FLOYD,PRESTONSBURG,KY
40207,JEFFERSON,LOUISVILLE,KY
40215,JEFFERSON,LOUISVILLE,KY
40031,OLDHAM,LAGRANGE,KY
48624,GLADWIN,GLADWIN,MI
49868,LUCE,NEWBERRY,MI
49862,ALGER,MUNISING,MI
48843,LIVINGSTON,HOWELL,MI
49242,HILLSDALE,HILLSDALE,MI
48071,OAKLAND,MADISON HEIGHTS,MI
49098,BERRIEN,WATERVLIET,MI
48858,ISABELLA,MOUNT PLEASANT,MI
49431,MASON,LUDINGTON,MI
49079,VAN BUREN,PAW PAW,MI
48427,SANILAC,DECKERVILLE,MI
48202,WAYNE,DETROIT,MI
56007,FREEBORN,ALBERT LEA,MN
55009,GOODHUE,CANNON FALLS,MN
56031,MARTIN,FAIRMONT,MN
56087,BROWN,SPRINGFIELD,MN
65201,BOONE,COLUMBIA,MO
58554,MORTON,MANDAN,ND
58533,GRANT,ELGIN,ND
46011,MADISON,ANDERSON,IN
46601,ST. JOSEPH,SOUTH BEND,IN
89128,CLARK,LAS VEGAS,NV
89119,CLARK,LAS VEGAS,NV
19124,PHILADELPHIA,PHILADELPHIA,PA
19107,PHILADELPHIA,PHILADELPHIA,PA
19104,PHILADELPHIA,PHILADELPHIA,PA
19130,PHILADELPHIA,PHILADELPHIA,PA
17822,MONTOUR,DANVILLE,PA
30115,CHEROKEE,CANTON,GA
31620,COOK,ADEL,GA
59501,HILL,HAVRE,MT
29425,CHARLESTON,CHARLESTON,SC
30346,DEKALB,ATLANTA,GA
22835,PAGE,LURAY,VA
44266,PORTAGE,RAVENNA,OH
78746,TRAVIS,AUSTIN,TX
76104,TARRANT,FORT WORTH,TX
98356,LEWIS,MORTON,WA
46032,HAMILTON,CARMEL,IN
53045,WAUKESHA,BROOKFIELD,WI
53132,MILWAUKEE,FRANKLIN,WI
53210,MILWAUKEE,MILWAUKEE,WI
54476,MARATHON,WESTON,WI
53215,MILWAUKEE,MILWAUKEE,WI
54501,ONEIDA,RHINELANDER,WI
45409,MONTGOMERY,DAYTON,OH
54481,PORTAGE,STEVENS POINT,WI
54495,WOOD,WISCONSIN RAPIDS,WI
54401,MARATHON,WAUSAU,WI
53121,WALWORTH,ELKHORN,WI
53027,WASHINGTON,HARTFORD,WI
53142,KENOSHA,KENOSHA,WI
54241,MANITOWOC,TWO RIVERS,WI
46176,SHELBY,SHELBYVILLE,IN
79410,LUBBOCK,LUBBOCK,TX
46992,WABASH,WABASH,IN
46307,LAKE,CROWN POINT,IN
47586,PERRY,TELL CITY,IN
44481,TRUMBULL,WARREN,OH
44482,TRUMBULL,WARREN,OH
97031,HOOD RIVER,HOOD RIVER,OR
60901,KANKAKEE,KANKAKEE,IL
97845,GRANT,JOHN DAY,OR
12601,DUTCHESS,POUGHKEEPSIE,NY
14215,ERIE,BUFFALO,NY
14607,MONROE,ROCHESTER,NY
11030,NASSAU,MANHASSET,NY
44221,SUMMIT,CUYAHOGA FALLS,OH
11554,NASSAU,EAST MEADOW,NY
11510,NASSAU,OCEANSIDE,NY
13210,ONONDAGA,SYRACUSE,NY
12550,ORANGE,NEWBURGH,NY
10924,ORANGE,MIDDLETOWN,NY
12180,RENSSELAER,TROY,NY
13676,ST. LAWRENCE,POTSDAM,NY
98250,SAN JUAN,FRIDAY HARBOR,WA
10960,ROCKLAND,NYACK,NY
12866,SARATOGA,SARATOGA,NY
60035,LAKE,HIGHLAND PARK,IL
60048,LAKE,LIBERTYVILLE,IL
60010,LAKE,BARRINGTON,IL
61401,KNOX,GALESBURG,IL
60099,LAKE,ZION,IL
21205,BALTIMORE CITY,BALTIMORE,MD
21202,BALTIMORE CITY,BALTIMORE,MD
21215,BALTIMORE CITY,BALTIMORE,MD
21201,BALTIMORE CITY,BALTIMORE,MD
14843,STEUBEN,HORNELL,NY
21224,BALTIMORE CITY,BALTIMORE,MD
11968,SUFFOLK,SOUTHAMPTON,NY
11901,SUFFOLK,GREENPORT,NY
11743,SUFFOLK,HUNTINGTON,NY
11706,SUFFOLK,BAY SHORE,NY
40504,FAYETTE,LEXINGTON,KY
40502,FAYETTE,LEXINGTON,KY
10901,SUFFOLK,WEST ISLIP,NY
12401,ULSTER,KINGSTON,NY
12428,ULSTER,ELLENVILLE,NY
14513,WAYNE,NEWARK,NY
10522,WESTCHESTER,DOBBS FERRY,NY
10591,WESTCHESTER,SLEEPY HOLLOW,NY
42754,GRAYSON,LEITCHFIELD,KY
41101,GREENUP,ASHLAND,KY
10595,WESTCHESTER,VALHALLA,NY
62650,MORGAN,JACKSONVILLE,IL
21740,WASHINGTON,HAGERSTOWN,MD
40444,GARRARD,LANCASTER,KY
10532,WESTCHESTER,VALHALLA,NY
10466,BRONX,BRONX,NY
40601,FRANKLIN,FRANKFORT,KY
10467,BRONX,BRONX,NY
21742,WASHINGTON,HAGERSTOWN,MD
11212,KINGS,BROOKLYN,NY
11201,KINGS,BROOKLYN,NY
10461,BRONX,BRONX,NY
11203,KINGS,BROOKLYN,NY
11235,KINGS,BROOKLYN,NY
11209,KINGS,BROOKLYN,NY
10036,BRONX,BRONX,NY
11215,KINGS,BROOKLYN,NY
10003,NEW YORK,NEW YORK,NY
10032,NEW YORK,NEW YORK,NY
10019,NEW YORK,NEW YORK,NY
11373,QUEENS,ELMHURST,NY
11414,QUEENS,JAMAICA,NY
60942,VERMILION,HOOPESTON,IL
61832,VERMILION,DANVILLE,IL
42101,WARREN,BOWLING GREEN,KY
11355,QUEENS,FLUSHING,NY
67037,SEDGWICK,DERBY,KS
11542,NASSAU,GLEN COVE,NY
40484,LINCOLN,STANFORD,KY
42078,LIVINGSTON,SALEM,KY
10802,WESTCHESTER,NEW ROCHELLE,NY
11234,KINGS,BROOKLYN,NY
10605,WESTCHESTER,WHITE PLAINS,NY
10037,NEW YORK,NEW YORK,NY
10035,NEW YORK,NEW YORK,NY
10457,BRONX,BRONX,NY
14810,STEUBEN,BATH,NY
12010,MONTGOMERY,AMSTERDAM,NY
60450,GRUNDY,MORRIS,IL
61104,WINNEBAGO,ROCKFORD,IL
61101,WINNEBAGO,ROCKFORD,IL
12901,CLINTON,PLATTSBURGH,NY
20910,MONTGOMERY,SILVER SPRING,MD
60451,WILL,NEW LENOX,IL
60440,WILL,BOLINGBROOK,IL
20744,PRINCE GEORGE'S,FORT WASHINGTON,MD
10025,NEW YORK,NEW YORK,NY
10021,NEW YORK,NEW YORK,NY
14420,MONROE,BROCKPORT,NY
14222,ERIE,BUFFALO,NY
11501,NASSAU,MINEOLA,NY
14701,CHAUTAUQUA,JAMESTOWN,NY
10703,WESTCHESTER,YONKERS,NY
14424,ONTARIO,CANANDAIGUA,NY
10536,WESTCHESTER,KATONAH,NY
42420,HENDERSON,HENDERSON,KY
62864,JEFFERSON,MOUNT VERNON,IL
60504,KANE,AURORA,IL
60134,KANE,GENEVA,IL
60506,KANE,AURORA,IL
40383,WOODFORD,VERSAILLES,KY
10468,BRONX,BRONX,NY
76825,MCCULLOCH,BRADY,TX
77957,JACKSON,EDNA,TX
76936,SCHLEICHER,ELDORADO,TX
42718,TAYLOR,CAMPBELLSVILLE,KY
79346,COCHRAN,MORTON,TX
21502,ALLEGANY,CUMBERLAND,MD
21401,ANNE ARUNDEL,ANNAPOLIS,MD
61856,PIATT,MONTICELLO,IL
61603,PEORIA,PEORIA,IL
62363,PIKE,PITTSFIELD,IL
74447,OKMULGEE,OKMULGEE,OK
62301,ADAMS,QUINCY,IL
73102,OKLAHOMA,OKLAHOMA CITY,OK
61606,PEORIA,PEORIA,IL
60611,COOK,CHICAGO,IL
60130,COOK,FOREST  PARK,IL
60076,COOK,SKOKIE,IL
60304,COOK,OAK PARK,IL
60525,COOK,LA GRANGE,IL
60160,COOK,MELROSE PARK,IL
75494,WOOD,WINNSBORO,TX
77995,LAVACA,YOAKUM,TX
60644,COOK,CHICAGO,IL
60637,COOK,CHICAGO,IL
79007,HUTCHINSON,BORGER,TX
60613,COOK,CHICAGO,IL
60612,COOK,CHICAGO,IL
60616,COOK,CHICAGO,IL
60805,COOK,EVERGREEN PARK,IL
60657,COOK,CHICAGO,IL
60640,COOK,CHICAGO,IL
60453,COOK,OAK LAWN,IL
60068,COOK,PARK RIDGE,IL
60005,COOK,ARLINGTON HEIGHTS,IL
60007,COOK,ELK GROVE VILLAGE,IL
60169,COOK,HOFFMAN ESTATES,IL
60615,COOK,CHICAGO,IL
42642,RUSSELL,RUSSELL SPRINGS,KY
25801,RALEIGH,BECKLEY,WV
40456,ROCKCASTLE,MT VERNON,KY
21921,CECIL,ELKTON,MD
40202,JEFFERSON,LOUISVILLE,KY
40204,JEFFERSON,LOUISVILLE,KY
40205,JEFFERSON,LOUISVILLE,KY
41240,JOHNSON,PAINTSVILLE,KY
25438,JEFFERSON,RANSON,WV
25901,FAYETTE,OAK HILL,WV
26147,CALHOUN,GRANTSVILLE,WV
25701,CABELL,HUNTINGTON,WV
24740,MERCER,PRINCETON,WV
25550,MASON,POINT PLEASANT,WV
25130,BOONE,MADISON,WV
24924,POCAHONTAS,BUCKEYE,WV
26537,PRESTON,KINGWOOD,WV
26452,LEWIS,WESTON,WV
66160,WYANDOTTE,KANSAS CITY,KS
26201,UPSHUR,BUCKHANNON,WV
25401,BERKELEY,MARTINSBURG,WV
26506,MONONGALIA,MORGANTOWN,WV
26038,MARSHALL,GLEN DALE,WV
62401,EFFINGHAM,EFFINGHAM,IL
41056,MASON,MAYSVILLE,KY
41042,BOONE,FLORENCE,KY
40977,BELL,PINEVILLE,KY
61282,ROCK ISLAND,SILVIS,IL
61201,ROCK ISLAND,ROCK ISLAND,IL
62702,SANGAMON,SPRINGFIELD,IL
40422,BOYLE,DANVILLE,KY
61801,CHAMPAIGN,URBANA,IL
54801,WASHBURN,SPOONER,WI
40033,MARION,LEBANON,KY
42345,MUHLENBERG,GREENVILLE,KY
42445,CALDWELL,PRINCETON,KY
42141,BARREN,GLASGOW,KY
74820,PONTOTOC,ADA,OK
73737,MAJOR,FAIRVIEW,OK
74578,LATIMER,WILBURTON,OK
62644,MASON,HAVANA,IL
42240,CHRISTIAN,HOPKINSVILLE,KY
41501,PIKE,PIKEVILLE,KY
73104,OKLAHOMA,OKLAHOMA CITY,OK
57567,HAAKON,PHILIP,SD
74501,PITTSBURG,MCALESTER,OK
73134,OKLAHOMA,OKLAHOMA CITY,OK
61701,MCLEAN,BLOOMINGTON,IL
41701,PERRY,HAZARD,KY
41503,PIKE,SOUTH WILLIAMSON,KY
62526,MACON,DECATUR,IL
60050,MCHENRY,MCHENRY,IL
61761,MCLEAN,NORMAL,IL
74344,DELAWARE,GROVE,OK
21613,DORCHESTER,CAMBRIDGE,MD
73702,GARFIELD,ENID,OK
73521,JACKSON,ALTUS,OK
74462,HASKELL,STIGLER,OK
60521,DUPAGE,HINSDALE,IL
60126,DUPAGE,ELMHURST,IL
60190,DUPAGE,WINFIELD,IL
60139,DUPAGE,GLENDALE HEIGHTS,IL
73801,WOODWARD,WOODWARD,OK
41018,KENTON,ERLANGER,KY
73505,COMANCHE,LAWTON,OK
74030,CREEK,DRUMRIGHT,OK
74074,PAYNE,STILLWATER,OK
74743,CHOCTAW,HUGO,OK
73069,CLEVELAND,NORMAN,OK
74868,SEMINOLE,SEMINOLE,OK
74133,TULSA,TULSA,OK
74104,TULSA,TULSA,OK
73401,CARTER,ARDMORE,OK
73438,CARTER,HEALDTON,OK
53024,OZAUKEE,GRAFTON,WI
74136,TULSA,TULSA,OK
74017,ROGERS,CLAREMORE,OK
73644,BECKHAM,ELK CITY,OK
74467,WAGONER,WAGONER,OK
54143,MARINETTE,MARINETTE,WI
53066,WAUKESHA,SUMMIT,WI
53083,SHEBOYGAN,SHEBOYGAN,WI
73534,STEPHENS,DUNCAN,OK
73542,TILLMAN,FREDERICK,OK
37331,MCMINN,ETOWAH,TN
62056,MONTGOMERY,LITCHFIELD,IL
61462,WARREN,MONMOUTH,IL
61270,WHITESIDE,MORRISON,IL
62681,SCHUYLER,RUSHVILLE,IL
62656,LOGAN,LINCOLN,IL
62960,MASSAC,METROPOLIS,IL
61944,EDGAR,PARIS,IL
99669,KENAI PENINSULA,SOLDOTNA,AK
30033,DEKALB,DECATUR,GA
42303,DAVIESS,OWENSBORO,KY
99701,FAIRBANKS NORTH STAR,FAIRBANKS,AK
99645,MATANUSKA-SUSITNA,PALMER,AK
99686,VALDEZ-CORDOVA,VALDEZ,AK
99752,NORTHWEST ARCTIC,KOTZEBUE,AK
99835,SITKA,SITKA,AK
38562,JACKSON,GAINESBORO,TN
38401,MAURY,COLUMBIA,TN
38305,MADISON,JACKSON,TN
59405,CASCADE,GREAT FALLS,MT
82931,UINTA,EVANSTON,WY
38242,HENRY,PARIS,TN
40330,MERCER,HARRODSBURG,KY
37830,ANDERSON,OAK RIDGE,TN
37367,BLEDSOE,PIKEVILLE,TN
37371,MCMINN,ATHENS,TN
37207,DAVIDSON,NASHVILLE,TN
37402,HAMILTON,CHATTANOOGA,TN
37403,HAMILTON,CHATTANOOGA,TN
37172,ROBERTSON,SPRINGFIELD,TN
37762,CAMPBELL,JELLICO,TN
37604,WASHINGTON,JOHNSON CITY,TN
37067,WILLIAMSON,FRANKLIN,TN
71306,RAPIDES,ALEXANDRIA,LA
37321,RHEA,DAYTON,TN
37130,RUTHERFORD,MURFREESBORO,TN
37917,KNOX,KNOXVILLE,TN
37620,SULLIVAN,BRISTOL,TN
37869,HANCOCK,SNEEDVILLE,TN
37660,SULLIVAN,KINGSPORT,TN
66839,COFFEY,BURLINGTON,KS
10305,RICHMOND,STATEN ISLAND,NY
70121,JEFFERSON,JEFFERSON,LA
67005,COWLEY,ARKANSAS CITY,KS
66757,WILSON,NEODESHA,KS
67530,BARTON,GREAT BEND,KS
66521,POTTAWATOMIE,ONAGA,KS
70605,CALCASIEU,LAKE CHARLES,LA
77515,BRAZORIA,ANGLETON,TX
78705,TRAVIS,AUSTIN,TX
76015,TARRANT,ARLINGTON,TX
76020,TARRANT,AZLE,TX
77521,HARRIS,BAYTOWN,TX
77401,HARRIS,BELLAIRE,TX
77514,CHAMBERS,ANAHUAC,TX
78758,TRAVIS,AUSTIN,TX
62801,MARION,CENTRALIA,IL
32026,UNION,RAIFORD,FL
32806,ORANGE,ORLANDO,FL
32514,ESCAMBIA,PENSACOLA,FL
33607,HILLSBOROUGH,TAMPA,FL
76448,EASTLAND,EASTLAND,TX
79938,EL PASO,EL PASO,TX
75840,FREESTONE,FAIRFIELD,TX
78114,WILSON,FLORESVILLE,TX
75034,COLLIN,FRISCO,TX
76240,COOKE,GAINESVILLE,TX
78624,GILLESPIE,FREDERICKSBURG,TX
75401,HUNT,GREENVILLE,TX
78629,GONZALES,GRAPEVINE,TX
76450,YOUNG,GRAPEVINE,TX
77964,LAVACA,HARLINGEN,TX
78861,MEDINA,HOUSTON,TX
77030,HARRIS,GRANBURY,TX
77091,HARRIS,HUMBLE,TX
75951,JASPER,JASPER,TX
76849,KIMBLE,JUNCTION,TX
77494,HARRIS,KATY,TX
78028,KERR,KERRVILLE,TX
78640,HAYS,KYLE,TX
79336,HOCKLEY,LEVELLAND,TX
78643,LLANO,LLANO,TX
75601,GREGG,LONGVIEW,TX
75070,COLLIN,MCKINNEY,TX
78572,HIDALGO,MISSION,TX
75455,TITUS,MOUNT PLEASANT,TX
77058,HARRIS,NASSAU BAY,TX
75965,NACOGDOCHES,NACOGDOCHES,TX
62002,MADISON,ALTON,IL
79761,ECTOR,ODESSA,TX
75801,ANDERSON,PALESTINE,TX
75460,LAMAR,PARIS,TX
75563,CASS,LINDEN,TX
79065,GRAY,PAMPA,TX
77504,HARRIS,PASADENA,TX
77505,HARRIS,PASADENA,TX
79072,HALE,PLAINVIEW,TX
79772,REEVES,PECOS,TX
75093,COLLIN,PLANO,TX
78061,FRIO,PEARSALL,TX
75080,DALLAS,RICHARDSON,TX
77469,FORT BEND,RICHMOND,TX
78665,WILLIAMSON,ROUND ROCK,TX
75088,ROCKWALL,ROWLETT,TX
60548,DEKALB,SANDWICH,IL
78224,BEXAR,SAN ANTONIO,TX
78240,BEXAR,SAN ANTONIO,TX
78258,BEXAR,SAN ANTONIO,TX
78201,BEXAR,SAN ANTONIO,TX
42431,HOPKINS,MADISONVILLE,KY
20850,MONTGOMERY,ROCKVILLE,MD
75092,GRAYSON,SHERMAN,TX
77479,FORT BEND,SUGAR LAND,TX
77380,MONTGOMERY,THE WOODLANDS,TX
77375,HARRIS,TOMBALL,TX
75862,TRINITY,TRINITY,TX
78801,UVALDE,UVALDE,TX
76702,MCLENNAN,WACO,TX
77598,HARRIS,WEBSTER,TX
79096,WHEELER,WHEELER,TX
79567,RUNNELS,WINTERS,TX
75204,DALLAS,DALLAS,TX
75071,COLLIN,MCKINNEY,TX
77094,HARRIS,HOUSTON,TX
87505,SANTA FE,SANTA FE,NM
77070,HARRIS,HOUSTON,TX
75381,DALLAS,DALLAS,TX
75160,KAUFMAN,TERRELL,TX
78613,WILLIAMSON,CEDAR PARK,TX
78738,TRAVIS,AUSTIN,TX
76712,MCLENNAN,WACO,TX
76244,TARRANT,FORT WORTH,TX
78626,WILLIAMSON,GEORGETOWN,TX
78229,BEXAR,SAN ANTONIO,TX
77026,HARRIS,HOUSTON,TX
77015,HARRIS,HOUSTON,TX
77584,BRAZORIA,PEARLAND,TX
78654,BURNET,MARBLE FALLS,TX
79720,HOWARD,BIG SPRING,TX
75075,COLLIN,PLANO,TX
78154,COMAL,SCHERTZ,TX
78130,COMAL,NEW BRAUNFELS,TX
75231,DALLAS,DALLAS,TX
44484,TRUMBULL,WARREN,OH
44501,MAHONING,YOUNGSTOWN,OH
45863,VAN WERT,MIDDLE POINT,OH
75165,ELLIS,WAXAHACHIE,TX
79731,NUECES,CORPUS CHRISTI,TX
77004,HARRIS,HOUSTON,TX
97741,JEFFERSON,MADRAS,OR
76458,JACK,JACKSBORO,TX
78410,NUECES,CORPUS CHRISTI,TX
76932,REAGAN,BIG LAKE,TX
76177,TARRANT,FORT WORTH,TX
24211,WASHINGTON,ABINGDON,VA
83702,ADA,BOISE,ID
83340,BLAINE,KETCHUM,ID
46254,MARION,INDIANAPOLIS,IN
76048,HOOD,GREENVILLE,TX
76642,LIMESTONE,HAMLIN,TX
23708,PORTSMOUTH,PORTSMOUTH,VA
79339,LAMB,LITTLEFIELD,TX
55455,HENNEPIN,MINNEAPOLIS,MN
60585,WILL,PLAINFIELD,IL
75032,ROCKWALL,ROCKWALL,TX
64128,JACKSON,KANSAS CITY,MO
73507,COMANCHE,LAWTON,OK
68105,DOUGLAS,OMAHA,NE
78465,DENTON,CORINTH,TX
77065,HARRIS,HOUSTON,TX
77338,HARRIS,HUMBLE,TX
78648,CALDWELL,LULING,TX
77477,FORT BEND,STAFFORD,TX
77904,VICTORIA,VICTORIA,TX
76502,BELL,TEMPLE,TX
79706,MIDLAND,MIDLAND,TX
53223,MILWAUKEE,MILWAUKEE,WI
78550,CAMERON,HARLINGEN,TX
78205,BEXAR,SAN ANTONIO,TX
96731,HONOLULU,KAHUKU,HI
77339,HARRIS,KINGWOOD,TX
79408,LUBBOCK,LUBBOCK,TX
78745,TRAVIS,AUSTIN,TX
75115,DALLAS,DE SOTO,TX
78539,HIDALGO,EDINBURG,TX
79106,POTTER,AMARILLO,TX
75701,SMITH,TYLER,TX
96743,HAWAII,KAMUELA,HI
77802,BRAZOS,BRYAN,TX
75230,DALLAS,DALLAS,TX
76102,TARRANT,FORT WORTH,TX
76132,TARRANT,FORT WORTH,TX
76302,WICHITA,WICHITA FALLS,TX
75022,DENTON,FLOWER MOUND,TX
75247,DALLAS,DALLAS,TX
79902,EL PASO,EL PASO,TX
75020,GRAYSON,DENISON,TX
78041,WEBB,LAREDO,TX
79124,POTTER,AMARILLO,TX
78731,TRAVIS,AUSTIN,TX
76017,TARRANT,ARLINGTON,TX
79416,LUBBOCK,LUBBOCK,TX
75226,DALLAS,DALLAS,TX
78249,BEXAR,SAN ANTONIO,TX
78503,HIDALGO,MCALLEN,TX
35007,SHELBY,ALABASTER,AL
36301,HOUSTON,DOTHAN,AL
36027,BARBOUR,EUFAULA,AL
36451,CLARKE,GROVE HILL,AL
36502,ESCAMBIA,ATMORE,AL
35570,MARION,HAMILTON,AL
35601,MORGAN,DECATUR,AL
35903,ETOWAH,GADSDEN,AL
96826,HONOLULU,HONOLULU,HI
51632,PAGE,CLARINDA,IA
51502,POTTAWATTAMIE,COUNCIL BLUFFS,IA
83221,BINGHAM,BLACKFOOT,ID
83404,BONNEVILLE,IDAHO FALLS,ID
83201,BANNOCK,POCATELLO,ID
61231,MERCER,ALEDO,IL
60406,COOK,BLUE ISLAND,IL
60622,COOK,CHICAGO,IL
60617,COOK,CHICAGO,IL
60016,COOK,DES PLAINES,IL
60033,MCHENRY,HARVARD,IL
92252,SAN BERNARDINO,JOSHUA TREE,CA
92071,SAN DIEGO,SANTEE,CA
93423,SAN LUIS OBISPO,ATASCADERO,CA
95448,SONOMA,HEALDSBURG,CA
93551,LOS ANGELES,PALMDALE,CA
91773,LOS ANGELES,SAN DIMAS,CA
91776,LOS ANGELES,SAN GABRIEL,CA
92585,RIVERSIDE,SUN CITY,CA
92503,RIVERSIDE,RIVERSIDE,CA
95661,PLACER,ROSEVILLE,CA
93720,FRESNO,FRESNO,CA
95542,HUMBOLDT,GARBERVILLE,CA
93546,MONO,MAMMOTH LAKES,CA
92669,ORANGE,ORANGE,CA
92708,ORANGE,FOUNTAIN VALLEY,CA
95355,STANISLAUS,MODESTO,CA
93258,TULARE,PORTERVILLE,CA
30078,GWINNETT,SNELLVILLE,GA
30439,CANDLER,METTER,GA
30308,FULTON,ATLANTA,GA
31024,PUTNAM,EATONTON,GA
31768,COLQUITT,MOULTRIE,GA
30417,EVANS,CLAXTON,GA
70001,JEFFERSON,METAIRIE,LA
31737,MILLER,COLQUITT,GA
30012,ROCKDALE,CONYERS,GA
30434,JEFFERSON,LOUISVILLE,GA
31539,JEFF DAVIS,HAZLEHURST,GA
30512,UNION,BLAIRSVILLE,GA
30442,JENKINS,MILLEN,GA
46202,MARION,INDIANAPOLIS,IN
70112,ORLEANS,NEW ORLEANS,LA
70737,ASCENSION,GONZALES,LA
70538,ST. MARY,FRANKLIN,LA
70360,TERREBONNE,HOUMA,LA
70548,VERMILION,KAPLAN,LA
70071,ST. JAMES,LUTCHER,LA
71220,MOREHOUSE,BASTROP,LA
71254,EAST CARROLL,LAKE PROVIDENCE,LA
71111,BOSSIER,BOSSIER CITY,LA
71465,LA SALLE,OLLA,LA
71351,AVOYELLES,MARKSVILLE,LA
70433,ST. TAMMANY,COVINGTON,LA
70422,TANGIPAHOA,AMITE,LA
70816,EAST BATON ROUGE,BATON ROUGE,LA
53188,WAUKESHA,WAUKESHA,WI
95926,BUTTE,CHICO,CA
92363,SAN BERNARDINO,NEEDLES,CA
91942,SAN DIEGO,LA MESA,CA
92104,SAN DIEGO,SAN DIEGO,CA
92050,SAN DIEGO,NATIONAL CITY,CA
94116,SAN FRANCISCO,SAN FRANCISCO,CA
71052,DE SOTO,MANSFIELD,LA
70535,ST. LANDRY,EUNICE,LA
94143,SAN FRANCISCO,SAN FRANCISCO,CA
94122,SAN FRANCISCO,SAN FRANCISCO,CA
90255,LOS ANGELES,HUNTINGTON PARK,CA
91342,LOS ANGELES,SYLMAR,CA
90036,LOS ANGELES,LOS ANGELES,CA
90012,LOS ANGELES,LOS ANGELES,CA
91307,LOS ANGELES,WEST HILLS,CA
95023,SAN BENITO,HOLLISTER,CA
92882,RIVERSIDE,CORONA,CA
94914,MARIN,KENTFIELD,CA
96104,MODOC,CEDARVILLE,CA
93710,FRESNO,FRESNO,CA
96093,TRINITY,WEAVERVILLE,CA
92804,ORANGE,ANAHEIM,CA
92643,ORANGE,GARDEN GROVE,CA
95361,STANISLAUS,OAKDALE,CA
30327,FULTON,ATLANTA,GA
30135,DOUGLAS,DOUGLASVILLE,GA
27962,WASHINGTON,PLYMOUTH,NC
71446,VERNON,LEESVILLE,LA
70444,TANGIPAHOA,KENTWOOD,LA
70633,CALCASIEU,DEQUINCY,LA
94110,SAN FRANCISCO,SAN FRANCISCO,CA
90067,LOS ANGELES,LOS ANGELES,CA
91401,LOS ANGELES,VAN NUYS,CA
93210,FRESNO,COALINGA,CA
96028,SHASTA,FALL RIVER MILLS,CA
90404,LOS ANGELES,SANTA MONICA,CA
95062,SANTA CRUZ,SANTA CRUZ,CA
93060,VENTURA,SANTA PAULA,CA
31909,MUSCOGEE,COLUMBUS,GA
31217,BIBB,MACON,GA
30546,TOWNS,HIAWASSEE,GA
31412,CHATHAM,SAVANNAH,GA
30705,MURRAY,CHATSWORTH,GA
30117,CARROLL,CARROLLTON,GA
30214,FAYETTE,FAYETTEVILLE,GA
30274,CLAYTON,RIVERDALE,GA
30329,DEKALB,ATLANTA,GA
54961,OUTAGAMIE,NEW LONDON,WI
53110,MILWAUKEE,CUDAHY,WI
53228,MILWAUKEE,GREENFIELD,WI
53227,MILWAUKEE,WEST ALLIS,WI
54002,ST. CROIX,BALDWIN,WI
54153,OCONTO,OCONTO,WI
95242,SAN JOAQUIN,LODI,CA
92835,ORANGE,FULLERTON,CA
22939,AUGUSTA,FISHERSVILLE,VA
80218,DENVER,DENVER,CO
53578,SAUK,PRAIRIE DU SAC,WI
54956,WINNEBAGO,NEENAH,WI
95370,TUOLUMNE,SONORA,CA
93102,SANTA BARBARA,SANTA BARBARA,CA
32535,ESCAMBIA,CENTURY,FL
85255,MARICOPA,SCOTTSDALE,AZ
51555,HARRISON,MISSOURI VALLEY,IA
49091,ST. JOSEPH,STURGIS,MI
49058,BARRY,HASTINGS,MI
48708,BAY,BAY CITY,MI
48198,WASHTENAW,YPSILANTI,MI
49503,KENT,GRAND RAPIDS,MI
49913,HOUGHTON,LAURIUM,MI
49801,DICKINSON,IRON MOUNTAIN,MI
66736,WILSON,FREDONIA,KS
49953,ONTONAGON,ONTONAGON,MI
49735,OTSEGO,GAYLORD,MI
48604,SAGINAW,SAGINAW,MI
56265,CHIPPEWA,MONTEVIDEO,MN
55912,MOWER,AUSTIN,MN
64804,NEWTON,JOPLIN,MO
65807,GREENE,SPRINGFIELD,MO
65802,GREENE,SPRINGFIELD,MO
64118,CLAY,KANSAS CITY,MO
64429,CLINTON,CAMERON,MO
64057,JACKSON,INDEPENDENCE,MO
64134,JACKSON,KANSAS CITY,MO
64132,JACKSON,KANSAS CITY,MO
64130,JACKSON,KANSAS CITY,MO
64139,JACKSON,KANSAS CITY,MO
64772,VERNON,NEVADA,MO
64446,ATCHISON,FAIRFAX,MO
64730,BATES,BUTLER,MO
64502,BUCHANAN,ST. JOSEPH,MO
64012,CASS,BELTON,MO
64850,NEWTON,NEOSHO,MO
63017,ST. LOUIS,CHESTERFIELD,MO
63141,ST. LOUIS,CREVE COEUR,MO
63043,ST. LOUIS,MARYLAND HEIGHTS,MO
63136,ST. LOUIS,ST. LOUIS,MO
63670,STE. GENEVIEVE,STE GENEVIEVE,MO
63628,ST. FRANCOIS,BONNE TERRE,MO
63935,RIPLEY,DONIPHAN,MO
63301,ST. CHARLES,ST. CHARLES,MO
63385,ST. CHARLES,WENTZVILLE,MO
63367,ST. CHARLES,LAKE ST. LOUIS,MO
63304,ST. CHARLES,ST. CHARLES,MO
63376,ST. CHARLES,ST. PETERS,MO
65340,SALINE,MARSHALL,MO
64683,GRUNDY,TRENTON,MO
63090,FRANKLIN,WASHINGTON,MO
65041,GASCONADE,HERMANN,MO
63663,IRON,PILOT KNOB,MO
65560,DENT,SULLIVAN,MO
63664,WASHINGTON,POTOSI,MO
63556,SULLIVAN,MILAN,MO
63565,PUTNAM,UNIONVILLE,MO
65401,PHELPS,ROLLA,MO
63703,CAPE GIRARDEAU,CAPE GIRARDEAU,MO
63775,PERRY,PERRYVILLE,MO
65483,TEXAS,HOUSTON,MO
64724,ST. CLAIR,APPLETON CITY,MO
65360,HENRY,WINDSOR,MO
64067,LAFAYETTE,LEXINGTON,MO
65625,BARRY,CASSVILLE,MO
64085,RAY,RICHMOND,MO
64601,LIVINGSTON,CHILLICOTHE,MO
65065,CAMDEN,OSAGE BEACH,MO
65721,GREENE,OZARK,MO
65804,GREENE,SPRINGFIELD,MO
64744,CEDAR,EL DORADO SPRINGS,MO
63128,ST. LOUIS,ST. LOUIS,MO
39730,MONROE,ABERDEEN,MS
28078,MECKLENBURG,HUNTERSVILLE,NC
28106,MECKLENBURG,MATTHEWS,NC
28207,MECKLENBURG,CHARLOTTE,NC
28144,ROWAN,SALISBURY,NC
28337,BLADEN,ELIZABETHTOWN,NC
27906,PASQUOTANK,ELIZABETH CITY,NC
39303,LAUDERDALE,MERIDIAN,MS
39042,RANKIN,BRANDON,MS
39475,LAMAR,PURVIS,MS
39193,RANKIN,WHITFIELD,MS
28086,CLEVELAND,KINGS MOUNTAIN,NC
28349,DUPLIN,KENANSVILLE,NC
27103,FORSYTH,WINSTON-SALEM,NC
27577,JOHNSTON,SMITHFIELD,NC
28752,MCDOWELL,MARION,NC
28791,HENDERSON,HENDERSONVILLE,NC
28721,HAYWOOD,CLYDE,NC
27874,HALIFAX,SCOTLAND NECK,NC
28687,IREDELL,STATESVILLE,NC
28677,IREDELL,STATESVILLE,NC
27910,HERTFORD,AHOSKIE,NC
27261,GUILFORD,HIGH POINT,NC
27573,PERSON,ROXBORO,NC
27344,CHATHAM,SILER CITY,NC
28906,CHEROKEE,MURPHY,NC
28359,ROBESON,LUMBERTON,NC
28646,AVERY,LINVILLE,NC
28461,BRUNSWICK,SOUTHPORT,NC
28813,BUNCOMBE,ASHEVILLE,NC
28655,BURKE,MORGANTON,NC
28302,CUMBERLAND,FAYETTEVILLE,NC
28170,ANSON,WADESBORO,NC
28025,CABARRUS,CONCORD,NC
28376,HOKE,RAEFORD,NC
27401,GUILFORD,GREENSBORO,NC
58784,MOUNTRAIL,STANLEY,ND
58474,DICKEY,OAKES,ND
58402,STUTSMAN,JAMESTOWN,ND
58324,TOWNER,CANDO,ND
58257,TRAILL,MAYVILLE,ND
58367,ROLETTE,ROLLA,ND
58801,WILLIAMS,WILLISTON,ND
70806,EAST BATON ROUGE,BATON ROUGE,LA
32821,ORANGE,ORLANDO,FL
68729,KNOX,CREIGHTON,NE
32803,ORANGE,ORLANDO,FL
32822,ORANGE,ORLANDO,FL
34761,ORANGE,OCOEE,FL
34769,OSCEOLA,SAINT CLOUD,FL
33435,PALM BEACH,BOYNTON BEACH,FL
33401,PALM BEACH,WEST PALM BEACH,FL
33407,PALM BEACH,WEST PALM BEACH,FL
33418,PALM BEACH,RIVIERA BEACH,FL
33428,PALM BEACH,BOCA RATON,FL
33410,PALM BEACH,WEST PALM BEACH,FL
34689,PINELLAS,TARPON SPRINGS,FL
33756,PINELLAS,CLEARWATER,FL
33710,PINELLAS,SAINT PETERSBURG,FL
33872,HIGHLANDS,SEBRING,FL
97301,MARION,NE SALEM,OR
33613,HILLSBOROUGH,TAMPA,FL
33612,HILLSBOROUGH,TAMPA,FL
33563,HILLSBOROUGH,PLANT CITY,FL
33558,HILLSBOROUGH,LUTZ,FL
34609,HERNANDO,BROOKSVILLE,FL
32054,UNION,LAKE BUTLER,FL
34233,SARASOTA,SARASOTA,FL
33990,LEE,CAPE CORAL,FL
32721,VOLUSIA,DELAND,FL
32176,VOLUSIA,ORMOND BEACH,FL
32117,VOLUSIA,DAYTONA BEACH,FL
33853,POLK,LAKE WALES,FL
32931,BREVARD,COCOA BEACH,FL
32955,BREVARD,ROCKLEDGE,FL
33308,BROWARD,FORT LAUDERDALE,FL
33029,BROWARD,MIRAMAR,FL
33040,MONROE,KEY WEST,FL
33317,BROWARD,PLANTATION,FL
33321,BROWARD,TAMARAC,FL
33070,MONROE,TAVERNIER,FL
33150,MIAMI-DADE,MIAMI,FL
33034,MIAMI-DADE,FLORIDA CITY,FL
33143,MIAMI-DADE,MIAMI,FL
34474,MARION,OCALA,FL
34208,MANATEE,BRADENTON,FL
35611,LIMESTONE,ATHENS,AL
35259,JEFFERSON,BIRMINGHAM,AL
35233,JEFFERSON,BIRMINGHAM,AL
35261,SHELBY,BIRMINGHAM,AL
35213,JEFFERSON,BIRMINGHAM,AL
36427,ESCAMBIA,BREWTON,AL
36726,WILCOX,CAMDEN,AL
36518,WASHINGTON,CHATOM,AL
36732,MARENGO,DEMOPOLIS,AL
36330,COFFEE,ENTERPRISE,AL
36401,CONECUH,EVERGREEN,AL
35555,FAYETTE,FAYETTE,AL
35904,ETOWAH,GADSDEN,AL
45701,ATHENS,ATHENS,OH
35801,MADISON,HUNTSVILLE,AL
35806,MADISON,HUNTSVILLE,AL
45056,BUTLER,OXFORD,OH
36265,CALHOUN,JACKSONVILLE,AL
35502,WALKER,JASPER,AL
50801,UNION,CRESTON,IA
45504,CLARK,SPRINGFIELD,OH
36116,MONTGOMERY,MONTGOMERY,AL
36106,MONTGOMERY,MONTGOMERY,AL
35650,LAWRENCE,MOULTON,AL
43812,COSHOCTON,COSHOCTON,OH
35476,TUSCALOOSA,NORTHPORT,AL
36467,COVINGTON,OPP,AL
36360,DALE,OZARK,AL
44820,CRAWFORD,BUCYRUS,OH
44833,CRAWFORD,GALION,OH
35582,FRANKLIN,RED BAY,AL
35660,COLBERT,SHEFFIELD,AL
44111,CUYAHOGA,CLEVELAND,OH
35150,TALLADEGA,SYLACAUGA,AL
35161,TALLADEGA,TALLADEGA,AL
35401,TUSCALOOSA,TUSCALOOSA,AL
36089,BULLOCK,UNION SPRINGS,AL
36092,ELMORE,WETUMPKA,AL
44106,CUYAHOGA,CLEVELAND,OH
44195,CUYAHOGA,CLEVELAND,OH
44122,CUYAHOGA,BEACHWOOD,OH
44129,CUYAHOGA,PARMA,OH
45331,DARKE,GREENVILLE,OH
17701,LYCOMING,WILLIAMSPORT,PA
82609,NATRONA,CASPER,WY
35402,TUSCALOOSA,TUSCALOOSA,AL
43015,DELAWARE,DELAWARE,OH
17403,YORK,YORK,PA
43016,FRANKLIN,DUBLIN,OH
51104,WOODBURY,SIOUX CITY,IA
43725,GUERNSEY,CAMBRIDGE,OH
45224,HAMILTON,CINCINNATI,OH
45236,HAMILTON,CINCINNATI,OH
45219,HAMILTON,CINCINNATI,OH
45220,HAMILTON,CINCINNATI,OH
85712,PIMA,TUCSON,AZ
43616,LUCAS,OREGON,OH
43560,LUCAS,SYLVANIA,OH
43623,LUCAS,TOLEDO,OH
87571,TAOS,TAOS,NM
54305,BROWN,GREEN BAY,WI
88401,QUAY,TUCUMCARI,NM
85295,MARICOPA,GILBERT,AZ
87740,COLFAX,RATON,NM
78734,TRAVIS,LAKEWAY,TX
89431,WASHOE,SPARKS,NV
54301,BROWN,GREEN BAY,WI
89102,CLARK,LAS VEGAS,NV
89106,CLARK,LAS VEGAS,NV
45417,MONTGOMERY,DAYTON,OH
46761,LAGRANGE,LAGRANGE,IN
45342,MONTGOMERY,MIAMISBURG,OH
89121,CLARK,LAS VEGAS,NV
45406,MONTGOMERY,DAYTON,OH
43338,MORROW,MOUNT GILEAD,OH
20032,DISTRICT OF COLUMBIA,WASHINGTON,DC
20002,DISTRICT OF COLUMBIA,WASHINGTON,DC
89103,CLARK,LAS VEGAS,NV
44875,RICHLAND,SHELBY,OH
45601,ROSS,CHILLICOTHE,OH
85206,MARICOPA,MESA,AZ
32446,JACKSON,MARIANNA,FL
46825,ALLEN,FORT WAYNE,IN
46845,ALLEN,FORT WAYNE,IN
89429,LYON,SILVER SPRINGS,NV
89148,CLARK,LAS VEGAS,NV
89146,CLARK,LAS VEGAS,NV
47006,RIPLEY,BATESVILLE,IN
47025,DEARBORN,LAWRENCEBURG,IN
52806,SCOTT,DAVENPORT,IA
47501,DAVIESS,WASHINGTON,IN
46755,NOBLE,KENDALLVILLE,IN
89521,WASHOE,RENO,NV
44883,SENECA,TIFFIN,OH
47747,VANDERBURGH,EVANSVILLE,IN
47714,VANDERBURGH,EVANSVILLE,IN
47804,VIGO,TERRE HAUTE,IN
21223,BALTIMORE CITY,BALTIMORE,MD
84097,UTAH,OREM,UT
84751,BEAVER,MILFORD,UT
84095,SALT LAKE,SOUTH JORDAN,UT
21228,BALTIMORE,CATONSVILLE,MD
99762,NOME,NOME,AK
46514,ELKHART,ELKHART,IN
46527,ELKHART,GOSHEN,IN
47303,DELAWARE,MUNCIE,IN
46151,MORGAN,MARTINSVILLE,IN
47630,WARRICK,NEWBURGH,IN
46321,LAKE,MUNSTER,IN
46402,LAKE,GARY,IN
47905,TIPPECANOE,LAFAYETTE,IN
50703,BLACK HAWK,WATERLOO,IA
46143,JOHNSON,GREENWOOD,IN
46072,TIPTON,TIPTON,IN
47904,TIPPECANOE,LAFAYETTE,IN
46952,GRANT,MARION,IN
46506,MARSHALL,BREMEN,IN
46750,HUNTINGTON,HUNTINGTON,IN
44203,SUMMIT,BARBERTON,OH
44310,SUMMIT,AKRON,OH
47331,FAYETTE,CONNERSVILLE,IN
47960,WHITE,MONTICELLO,IN
46222,MARION,INDIANAPOLIS,IN
85012,MARICOPA,PHOENIX,AZ
85260,MARICOPA,SCOTTSDALE,AZ
85032,MARICOPA,PHOENIX,AZ
47150,FLOYD,NEW ALBANY,IN
86004,COCONINO,FLAGSTAFF,AZ
32539,OKALOOSA,CRESTVIEW,FL
32025,COLUMBIA,LAKE CITY,FL
32570,SANTA ROSA,MILTON,FL
32308,LEON,TALLAHASSEE,FL
32501,ESCAMBIA,PENSACOLA,FL
32258,DUVAL,JACKSONVILLE,FL
32216,DUVAL,JACKSONVILLE,FL
32207,DUVAL,JACKSONVILLE,FL
32401,BAY,PANAMA CITY,FL
32405,BAY,PANAMA CITY,FL
32435,WALTON,DEFUNIAK SPRINGS,FL
89703,CARSON CITY,CARSON CITY,NV
19390,CHESTER,WEST GROVE,PA
63110,ST. LOUIS CITY,ST. LOUIS,MO
16407,ERIE,CORRY,PA
85635,COCHISE,SIERRA VISTA,AZ
53511,ROCK,BELOIT,WI
46016,MADISON,ANDERSON,IN
60302,COOK,OAK PARK,IL
55060,STEELE,OWATONNA,MN
55102,RAMSEY,ST PAUL,MN
55422,HENNEPIN,GOLDEN VALLEY,MN
83706,ADA,BOISE,ID
83814,KOOTENAI,COEUR D'ALENE,ID
11790,SUFFOLK,STONY BROOK,NY
42437,UNION,MORGANFIELD,KY
83501,NEZ PERCE,LEWISTON,ID
79322,CRANE,CRANE,TX
77429,CROSBY,CROSBYTON,TX
40065,SHELBY,SHELBYVILLE,KY
42134,SIMPSON,FRANKLIN,KY
76365,CLAY,HENRIETTA,TX
79745,WINKLER,KERMIT,TX
77575,LIBERTY,LIBERTY,TX
79241,FLOYD,LOCKNEY,TX
21701,FREDERICK,FREDERICK,MD
60464,COOK,PALOS HEIGHTS,IL
60628,COOK,CHICAGO,IL
54615,JACKSON,BLACK RIVER FALLS,WI
25309,KANAWHA,SOUTH CHARLESTON,WV
26330,HARRISON,BRIDGEPORT,WV
54840,BURNETT,GRANTSBURG,WI
53925,COLUMBIA,COLUMBUS,WI
25304,KANAWHA,CHARLESTON,WV
62450,RICHLAND,OLNEY,IL
74432,MCINTOSH,EUFAULA,OK
42241,CHRISTIAN,HOPKINSVILLE,KY
25301,KANAWHA,CHARLESTON,WV
26003,OHIO,WHEELING,WV
62062,MADISON,MARYVILLE,IL
74401,MUSKOGEE,MUSKOGEE,OK
73701,GARFIELD,ENID,OK
43202,DAVIESS,OWENSBORO,KY
73070,CLEVELAND,NORMAN,OK
73750,KINGFISHER,KINGFISHER,OK
62049,MONTGOMERY,HILLSBORO,IL
62966,JACKSON,MURPHYSBORO,IL
62863,WABASH,MOUNT CARMEL,IL
99546,ALEUTIANS WEST,ADAK,AK
53051,WAUKESHA,MENOMONEE FALLS,WI
53821,CRAWFORD,PRAIRIE DU CHIEN,WI
54829,BARRON,CUMBERLAND,WI
53901,COLUMBIA,PORTAGE,WI
54235,DOOR,STURGEON BAY,WI
53534,ROCK,EDGERTON,WI
67226,SEDGWICK,WICHITA,KS
66967,SMITH,SMITH CENTER,KS
66604,SHAWNEE,TOPEKA,KS
96819,HONOLULU,HONOLULU,HI
79601,TAYLOR,ABILENE,TX
75751,HENDERSON,ATHENS,TX
79175,POTTER,AMARILLO,TX
77726,JEFFERSON,BEAUMONT,TX
77418,AUSTIN,BELLVILLE,TX
78523,CAMERON,BROWNSVILLE,TX
60621,COOK,CHICAGO,IL
76804,BROWN,BROWNWOOD,TX
75633,PANOLA,CARTHAGE,TX
79201,CHILDRESS,CHILDRESS,TX
77842,BRAZOS,COLLEGE STATION,TX
77304,MONTGOMERY,CONROE,TX
78412,NUECES,CORPUS CHRISTI,TX
78404,NUECES,CORPUS CHRISTI,TX
75246,HARRIS,CYPRESS,TX
75390,DALLAS,DALLAS,TX
33950,CHARLOTTE,PUNTA GORDA,FL
33469,MARTIN,TEQUESTA,FL
76201,DENTON,DENTON,TX
79029,MOORE,DUMAS,TX
78852,MAVERICK,EAGLE PASS,TX
34950,ST. LUCIE,FORT PIERCE,FL
79998,EL PASO,EL PASO,TX
75119,ELLIS,ENNIS,TX
76101,TARRANT,FORT WORTH,TX
76115,TARRANT,FORT WORTH,TX
75042,DALLAS,GARLAND,TX
76051,TARRANT,GROESBECK,TX
78551,CAMERON,HARLINGEN,TX
76645,HILL,HILLSBORO,TX
77054,HARRIS,HOUSTON,TX
79744,PECOS,IRAAN,TX
75061,DALLAS,IRVING,TX
78364,KLEBERG,KINGSVILLE,TX
78945,FAYETTE,LA GRANGE,TX
78044,WEBB,LAREDO,TX
75057,DENTON,LEWISVILLE,TX
75607,GREGG,LONGVIEW,TX
79415,LUBBOCK,LUBBOCK,TX
75904,ANGELINA,LUFKIN,TX
52742,CLINTON,DEWITT,IA
50201,STORY,NEVADA,IA
51246,LYON,ROCK RAPIDS,IA
76063,TARRANT,MANSFIELD,TX
76661,FALLS,MARLIN,TX
75671,HARRISON,MARSHALL,TX
75149,DALLAS,MESQUITE,TX
79701,MIDLAND,MIDLAND,TX
76067,PALO PINTO,MINERAL WELLS,TX
75961,NACOGDOCHES,NACOGDOCHES,TX
76255,MONTAGUE,NOCONA,TX
60540,DUPAGE,NAPERVILLE,IL
79760,ECTOR,ODESSA,TX
60201,COOK,EVANSTON,IL
75457,FRANKLIN,MOUNT VERNON,TX
79070,OCHILTREE,PERRYTON,TX
77640,JEFFERSON,PORT ARTHUR,TX
62703,SANGAMON,SPRINGFIELD,IL
76902,TOM GREEN,SAN ANGELO,TX
76904,TOM GREEN,SAN ANGELO,TX
75972,SAN AUGUSTINE,SAN AUGUSTINE,TX
78666,HAYS,SAN MARCOS,TX
78155,GUADALUPE,SEGUIN,TX
76380,BAYLOR,SEYMOUR,TX
78957,BASTROP,SMITHVILLE,TX
20876,MONTGOMERY,GERMANTOWN,MD
20912,MONTGOMERY,TAKOMA PARK,MD
76401,ERATH,STEPHENVILLE,TX
75182,DALLAS,SUNNYVALE,TX
76508,BELL,TEMPLE,TX
77478,FORT BEND,SUGAR LAND,TX
75504,BOWIE,TEXARKANA,TX
75711,SMITH,TYLER,TX
77901,VICTORIA,VICTORIA,TX
77902,VICTORIA,VICTORIA,TX
76086,PARKER,WEATHERFORD,TX
78599,HIDALGO,WESLACO,TX
76310,WICHITA,WICHITA FALLS,TX
75237,DALLAS,DALLAS,TX
75218,DALLAS,DALLAS,TX
75265,DALLAS,DALLAS,TX
78332,JIM WELLS,ALICE,TX
77090,HARRIS,HOUSTON,TX
78217,BEXAR,SAN ANTONIO,TX
77642,JEFFERSON,PORT ARTHUR,TX
12742,SULLIVAN,HARRIS,NY
43160,FAYETTE,WASHINGTON CH,OH
43205,FRANKLIN,COLUMBUS,OH
43223,FRANKLIN,COLUMBUS,OH
76834,COLEMAN,COLEMAN,TX
45420,MONTGOMERY,DAYTON,OH
79925,EL PASO,EL PASO,TX
45229,HAMILTON,CINCINNATI,OH
43537,LUCAS,MAUMEE,OH
75224,DALLAS,DALLAS,TX
79022,DEWITT,CUERO,TX
77520,HARRIS,BAYTOWN,TX
43230,FRANKLIN,COLUMBUS,OH
45404,MONTGOMERY,DAYTON,OH
54880,DOUGLAS,SUPERIOR,WI
54552,PRICE,PARK FALLS,WI
54935,FOND DU LAC,FOND DU LAC,WI
83642,ADA,MERIDIAN,ID
83252,ONEIDA,MALAD CITY,ID
46250,MARION,INDIANAPOLIS,IN
46947,CASS,LOGANSPORT,IN
68410,OTOE,NEBRASKA CITY,NE
77550,GALVESTON,GALVESTON,TX
53538,JEFFERSON,FORT ATKINSON,WI
77074,HARRIS,HOUSTON,TX
58538,SIOUX,FORT YATES,ND
57770,SHANNON,PINE RIDGE,SD
68071,THURSTON,WINNEBAGO,NE
66536,POTTAWATOMIE,ST MARYS,KS
67572,NESS,RANSOM,KS
67070,BARBER,KIOWA,KS
39350,NESHOBA,CHOCTAW,MS
53143,KENOSHA,KENOSHA,WI
53158,KENOSHA,PLEASANT PRAIRIE,WI
53813,GRANT,LANCASTER,WI
73503,COMANCHE,FORT SILL,OK
53805,GRANT,BOSCOBEL,WI
59417,GLACIER,BROWNING,MT
29206,RICHLAND,FORT JACKSON,SC
77864,MADISON,MADISONVILLE,TX
84148,SALT LAKE,SALT LAKE CITY,UT
15215,ALLEGHENY,PITTSBURGH,PA
67871,SCOTT,SCOTT CITY,KS
82001,LARAMIE,CHEYENNE,WY
82801,SHERIDAN,SHERIDAN,WY
98661,CLARK,VANCOUVER,WA
23225,RICHMOND CITY,RICHMOND,VA
75010,DALLAS,CARROLLTON,TX
83616,ADA,EAGLE,ID
75783,WOOD,QUITMAN,TX
79252,HARDEMAN,QUANAH,TX
78681,WILLIAMSON,ROUND ROCK,TX
79360,GAINES,SEMINOLE,TX
79079,WHEELER,SHAMROCK,TX
79905,EL PASO,EL PASO,TX
77530,HARRIS,CHANNELVIEW,TX
75090,GRAYSON,SHERMAN,TX
76574,WILLIAMSON,TAYLOR,TX
75483,HOPKINS,SULPHUR SPRINGS,TX
75708,SMITH,TYLER,TX
76301,WICHITA,WICHITA FALLS,TX
77627,JEFFERSON,NEDERLAND,TX
78520,CAMERON,BROWNSVILLE,TX
77379,HARRIS,SPRING,TX
77081,HARRIS,HOUSTON,TX
77043,HARRIS,HOUSTON,TX
78744,TRAVIS,AUSTIN,TX
78411,NUECES,CORPUS CHRISTI,TX
76549,BELL,KILLEEN,TX
77076,HARRIS,HOUSTON,TX
78102,BEE,BEEVILLE,TX
78251,BEXAR,SAN ANTONIO,TX
96750,HAWAII,KEALAKEKUA,HI
96817,HONOLULU,HONOLULU,HI
77080,HARRIS,HOUSTON,TX
77573,GALVESTON,LEAGUE CITY,TX
76901,TOM GREEN,SAN ANGELO,TX
78259,BEXAR,SAN ANTONIO,TX
77301,MONTGOMERY,CONROE,TX
76123,TARRANT,FORT WORTH,TX
75902,ANGELINA,LUFKIN,TX
77035,HARRIS,HOUSTON,TX
78754,TRAVIS,AUSTIN,TX
54601,LA CROSSE,LA CROSSE,WI
96748,MAUI,KAUNAKAKAI,HI
96701,HONOLULU,AIEA,HI
78701,TRAVIS,AUSTIN,TX
79936,EL PASO,EL PASO,TX
79707,MIDLAND,MIDLAND,TX
35055,CULLMAN,CULLMAN,AL
78247,BEXAR,SAN ANTONIO,TX
78751,TRAVIS,AUSTIN,TX
76012,TARRANT,ARLINGTON,TX
77707,JEFFERSON,BEAUMONT,TX
78413,NUECES,CORPUS CHRISTI,TX
85711,PIMA,TUCSON,AZ
35631,LAUDERDALE,FLORENCE,AL
54634,VERNON,HILLSBORO,WI
35976,MARSHALL,GUNTERSVILLE,AL
36109,MONTGOMERY,MONTGOMERY,AL
36302,HOUSTON,DOTHAN,AL
35968,DEKALB,FORT PAYNE,AL
35010,TALLAPOOSA,ALEXANDER CITY,AL
35243,JEFFERSON,BIRMINGHAM,AL
96786,HONOLULU,WAHIAWA,HI
96706,HONOLULU,EWA BEACH,HI
35021,JEFFERSON,BESSEMER,AL
96720,HAWAII,HILO,HI
51012,CHEROKEE,CHEROKEE,IA
51201,O'BRIEN,SHELDON,IA
52732,CLINTON,CLINTON,IA
52043,CLAYTON,ELKADER,IA
52301,IOWA,MARENGO,IA
50401,CERRO GORDO,MASON CITY,IA
52641,HENRY,MOUNT PLEASANT,IA
83254,BEAR LAKE,MONTPELIER,ID
83854,KOOTENAI,POST FALLS,ID
54773,TREMPEALEAU,WHITEHALL,WI
83704,ADA,BOISE,ID
68130,DOUGLAS,OMAHA,NE
62906,UNION,ANNA,IL
60402,COOK,BERWYN,IL
60634,COOK,CHICAGO,IL
91801,LOS ANGELES,ALHAMBRA,CA
94583,CONTRA COSTA,SAN RAMON,CA
70812,EAST BATON ROUGE,BATON ROUGE,LA
70809,EAST BATON ROUGE,BATON ROUGE,LA
93246,KINGS,LEMOORE,CA
90232,LOS ANGELES,CULVER CITY,CA
92373,SAN BERNARDINO,REDLANDS,CA
92118,SAN DIEGO,CORONADO,CA
94112,SAN FRANCISCO,SAN FRANCISCO,CA
93401,SAN LUIS OBISPO,SAN LUIS OBISPO,CA
94025,SAN MATEO,MENLO PARK,CA
93003,VENTURA,VENTURA,CA
93023,VENTURA,OJAI,CA
95405,SONOMA,SANTA ROSA,CA
95404,SONOMA,SANTA ROSA,CA
93463,SANTA BARBARA,SOLVANG,CA
94574,NAPA,ST. HELENA,CA
94705,ALAMEDA,BERKELEY,CA
94588,ALAMEDA,PLEASANTON,CA
95203,SAN JOAQUIN,STOCKTON,CA
96130,LASSEN,SUSANVILLE,CA
91010,LOS ANGELES,DUARTE,CA
91206,LOS ANGELES,GLENDALE,CA
91364,LOS ANGELES,WOODLAND HILLS,CA
93637,MADERA,MADERA,CA
94040,SANTA CLARA,MOUNTAIN VIEW,CA
95020,SANTA CLARA,GILROY,CA
95065,SANTA CRUZ,SANTA CRUZ,CA
95076,SANTA CRUZ,WATSONVILLE,CA
94010,SAN MATEO,BURLINGAME,CA
94062,SAN MATEO,REDWOOD CITY,CA
94015,SAN MATEO,DALY CITY,CA
94038,SAN MATEO,MOSS BEACH,CA
94945,MARIN,NOVATO,CA
93721,FRESNO,FRESNO,CA
94804,CONTRA COSTA,RICHMOND,CA
94596,CONTRA COSTA,WALNUT CREEK,CA
94531,CONTRA COSTA,ANTIOCH,CA
93301,KERN,BAKERSFIELD,CA
93555,KERN,RIDGECREST,CA
95819,SACRAMENTO,SACRAMENTO,CA
95817,SACRAMENTO,SACRAMENTO,CA
95501,HUMBOLDT,EUREKA,CA
92718,ORANGE,IRVINE,CA
92663,ORANGE,NEWPORT BEACH,CA
92618,ORANGE,IRVINE,CA
92868,ORANGE,ORANGE,CA
30045,GWINNETT,LAWRENCEVILLE,GA
30097,FULTON,JOHNS CREEK,GA
31064,JASPER,MONTICELLO,GA
30030,DEKALB,DECATUR,GA
71263,WEST CARROLL,OAK GROVE,LA
70525,ACADIA,CHURCH POINT,LA
70461,ST. TAMMANY,SLIDELL,LA
70546,JEFFERSON DAVIS,JENNINGS,LA
70517,ST. MARTIN,BREAUX BRIDGE,LA
71103,CADDO,SHREVEPORT,LA
54701,EAU CLAIRE,EAU CLAIRE,WI
53533,IOWA,DODGEVILLE,WI
53581,RICHLAND,RICHLAND CENTER,WI
53095,WASHINGTON,WEST BEND,WI
54984,WAUSHARA,WILD ROSE,WI
91763,SAN BERNARDINO,MONTCLAIR,CA
91208,LOS ANGELES,GLENDALE,CA
30342,FULTON,ATLANTA,GA
20010,DISTRICT OF COLUMBIA,WASHINGTON,DC
20037,DISTRICT OF COLUMBIA,WASHINGTON,DC
54843,SAWYER,HAYWARD,WI
33472,PALM BEACH,BOYNTON BEACH,FL
34601,HERNANDO,BROOKSVILLE,FL
32542,OKALOOSA,EGLIN AFB,FL
80129,DOUGLAS,HIGHLANDS RANCH,CO
33012,MIAMI-DADE,HIALEAH,FL
32209,DUVAL,JACKSONVILLE,FL
34748,LAKE,LEESBURG,FL
51334,EMMET,ESTHERVILLE,IA
52040,DUBUQUE,DYERSVILLE,IA
50616,FLOYD,CHARLES CITY,IA
32808,ORANGE,ORLANDO,FL
33578,HILLSBOROUGH,RIVERVIEW,FL
33544,PASCO,WESLEY CHAPEL,FL
33136,MIAMI-DADE,MIAMI,FL
33543,PASCO,WESLEY CHAPEL,FL
33880,POLK,WINTER HAVEN,FL
52627,LEE,FORT MADISON,IA
50248,STORY,STORY CITY,IA
50501,WEBSTER,FORT DODGE,IA
50126,HARDIN,IOWA FALLS,IA
52205,JONES,ANAMOSA,IA
50219,MARION,PELLA,IA
51250,SIOUX,SIOUX CENTER,IA
83276,CARIBOU,SODA SPRINGS,ID
83647,ELMORE,MOUNTAIN HOME,ID
67526,BARTON,ELLINWOOD,KS
66439,BROWN,HORTON,KS
67068,KINGMAN,KINGMAN,KS
66112,WYANDOTTE,KANSAS CITY,KS
67951,STEVENS,HUGOTON,KS
67042,BUTLER,EL DORADO,KS
21287,BALTIMORE CITY,BALTIMORE,MD
71832,SEVIER,DE QUEEN,AR
72923,SEBASTIAN,BARLING,AR
54221,MANITOWOC,MANITOWOC,WI
72019,SALINE,BENTON,AR
72401,CRAIGHEAD,JONESBORO,AR
71635,ASHLEY,CROSSETT,AR
72315,MISSISSIPPI,BLYTHEVILLE,AR
54568,ONEIDA,WOODRUFF,WI
71822,LITTLE RIVER,ASHDOWN,AR
54154,OCONTO,OCONTO FALLS,WI
85741,PIMA,TUCSON,AZ
42041,FULTON,FULTON,KY
42701,HARDIN,ELIZABETHTOWN,KY
41017,KENTON,EDGEWOOD,KY
42347,OHIO,HARTFORD,KY
81050,OTERO,LA JUNTA,CO
80909,EL PASO,COLORADO SPRINGS,CO
21207,BALTIMORE CITY,BALTIMORE,MD
21014,HARFORD,BEL AIR,MD
21817,SOMERSET,CRISFIELD,MD
21801,WICOMICO,SALISBURY,MD
49037,CALHOUN,BATTLE CREEK,MI
48884,MONTCALM,SHERIDAN,MI
49781,MACKINAC,SAINT IGNACE,MI
49221,LENAWEE,ADRIAN,MI
48915,INGHAM,LANSING,MI
48658,ARENAC,STANDISH,MI
49417,OTTAWA,GRAND HAVEN,MI
48033,OAKLAND,SOUTHFIELD,MI
48075,OAKLAND,SOUTHFIELD,MI
49085,BERRIEN,ST JOSEPH,MI
49120,BERRIEN,NILES,MI
49036,BRANCH,COLDWATER,MI
49017,CALHOUN,BATTLE CREEK,MI
48867,SHIAWASSEE,OWOSSO,MI
48726,TUSCOLA,CASS CITY,MI
48106,WASHTENAW,ANN ARBOR,MI
48118,WASHTENAW,CHELSEA,MI
48910,INGHAM,LANSING,MI
48124,WAYNE,DEARBORN,MI
48235,WAYNE,DETROIT,MI
48230,WAYNE,GROSSE POINTE,MI
48201,WAYNE,DETROIT,MI
49519,KENT,WYOMING,MI
49935,IRON,IRON RIVER,MI
49849,MARQUETTE,ISHPEMING,MI
48374,OAKLAND,NOVI,MI
48234,WAYNE,DETROIT,MI
55604,COOK,GRAND MARAIS,MN
49770,EMMET,PETOSKEY,MI
38851,CHICKASAW,HOUSTON,MS
56307,STEARNS,ALBANY,MN
56636,ITASCA,DEER RIVER,MN
56308,DOUGLAS,ALEXANDRIA,MN
55103,RAMSEY,ST PAUL,MN
55109,RAMSEY,ST PAUL,MN
55063,PINE,PINE CITY,MN
56762,MARSHALL,WARREN,MN
56701,PENNINTON,THIEF RIVER FALLS,MN
56187,NOBLES,WORTHINGTON,MN
56101,COTTONWOOD,WINDOM,MN
64801,JASPER,JOPLIN,MO
64131,JACKSON,KANSAS CITY,MO
64133,JACKSON,KANSAS CITY,MO
64506,BUCHANAN,ST. JOSEPH,MO
63125,ST. LOUIS,ST. LOUIS,MO
64735,HENRY,CLINTON,MO
60625,COOK,CHICAGO,IL
65233,COOPER,BOONVILLE,MO
63044,ST. LOUIS,BRIDGETON,MO
63133,ST. LOUIS,ST. LOUIS,MO
86336,YAVAPAI,SEDONA,AZ
61446,CLAY,NORTH KANSAS CITY,MO
59101,YELLOWSTONE,BILLINGS,MT
19963,SUSSEX,MILFORD,DE
39194,YAZOO,YAZOO CITY,MS
39653,FRANKLIN,MEADVILLE,MS
96859,HONOLULU,HONOLULU,HI
54871,WASHBURN,SHELL LAKE,WI
54020,POLK,OSCEOLA,WI
53185,RACINE,WATERFORD,WI
54303,BROWN,GREEN BAY,WI
54449,WOOD,MARSHFIELD,WI
54868,BARRON,RICE LAKE,WI
38935,LEFLORE,GREENWOOD,MS
49016,CALHOUN,BATTLE CREEK,MI
59644,BROADWATER,TOWNSEND,MT
38701,WASHINGTON,GREENVILLE,MS
39735,CHOCTAW,ACKERMAN,MS
39631,WILKINSON,CENTREVILLE,MS
39466,PEARL RIVER,PICAYUNE,MS
28233,MECKLENBURG,CHARLOTTE,NC
27889,BEAUFORT,WASHINGTON,NC
28690,BURKE,VALDESE,NC
27886,EDGECOMBE,TARBORO,NC
28256,MECKLENBURG,CHARLOTTE,NC
28335,HARNETT,DUNN,NC
27870,HALIFAX,ROANOKE RAPIDS,NC
27611,WAKE,RALEIGH,NC
28557,CARTERET,MOREHEAD CITY,NC
28601,CATAWBA,HICKORY,NC
27511,WAKE,CARY,NC
28139,RUTHERFORD,RUTHERFORDTON,NC
28329,SAMPSON,CLINTON,NC
28645,CALDWELL,LENOIR,NC
27028,DAVIE,MOCKSVILLE,NC
28301,CUMBERLAND,FAYETTEVILLE,NC
27293,DAVIDSON,LEXINGTON,NC
28561,CRAVEN,NEW BERN,NC
28002,STANLY,ALBEMARLE,NC
58540,MCLEAN,GARRISON,ND
58575,MCLEAN,TURTLE LAKE,ND
58206,GRAND FORKS,GRAND FORKS,ND
58730,DIVIDE,CROSBY,ND
58270,WALSH,PARK RIVER,ND
58254,NELSON,MCVILLE,ND
34972,OKEECHOBEE,OKEECHOBEE,FL
32703,ORANGE,APOPKA,FL
45679,ADAMS,SEAMAN,OH
34747,OSCEOLA,CELEBRATION,FL
34741,OSCEOLA,KISSIMMEE,FL
58054,RANSOM,LISBON,ND
32960,INDIAN RIVER,VERO BEACH,FL
33774,PINELLAS,LARGO,FL
34698,PINELLAS,DUNEDIN,FL
33707,PINELLAS,SAINT PETERSBURG,FL
33764,PINELLAS,CLEARWATER,FL
33852,HIGHLANDS,LAKE PLACID,FL
33870,HIGHLANDS,SEBRING,FL
33611,HILLSBOROUGH,TAMPA,FL
33609,HILLSBOROUGH,TAMPA,FL
97232,MULTNOMAH,PORTLAND,OR
33606,HILLSBOROUGH,TAMPA,FL
33440,HENDRY,CLEWISTON,FL
45801,ALLEN,LIMA,OH
33615,HILLSBOROUGH,TAMPA,FL
34240,SARASOTA,SARASOTA,FL
34239,SARASOTA,SARASOTA,FL
32771,SEMINOLE,SANFORD,FL
32750,SEMINOLE,LONGWOOD,FL
33908,LEE,FORT MYERS,FL
33901,LEE,FORT MYERS,FL
32114,VOLUSIA,DAYTONA BEACH,FL
32127,VOLUSIA,PORT ORANGE,FL
34667,PASCO,HUDSON,FL
33837,POLK,DAVENPORT,FL
33805,POLK,LAKELAND,FL
33881,POLK,WINTER HAVEN,FL
32901,BREVARD,MELBOURNE,FL
32796,BREVARD,TITUSVILLE,FL
33065,BROWARD,CORAL SPRINGS,FL
33064,BROWARD,POMPANO BEACH,FL
33326,BROWARD,WESTON,FL
33301,BROWARD,FORT LAUDERDALE,FL
33028,BROWARD,PEMBROKE PINES,FL
33021,BROWARD,HOLLYWOOD,FL
33063,BROWARD,MARGATE,FL
33025,BROWARD,PEMBROKE PINES,FL
33311,BROWARD,LAUDERDALE LAKES,FL
34452,CITRUS,INVERNESS,FL
33180,MIAMI-DADE,AVENTURA,FL
33146,MIAMI-DADE,CORAL GABLES,FL
33033,MIAMI-DADE,HOMESTEAD,FL
33169,MIAMI-DADE,NORTH MIAMI BEACH,FL
33134,MIAMI-DADE,CORAL GABLES,FL
33140,MIAMI-DADE,MIAMI BEACH,FL
33155,MIAMI-DADE,MIAMI,FL
36201,CALHOUN,ANNISTON,AL
36251,CLAY,ASHLAND,AL
35447,PICKENS,CARROLLTON,AL
97239,MULTNOMAH,PORTLAND,OR
45885,AUGLAIZE,SAINT MARYS,OH
50536,PALO ALTO,EMMETSBURG,IA
45103,CLERMONT,BATAVIA,OH
36124,MONTGOMERY,MONTGOMERY,AL
44460,COLUMBIANA,SALEM,OH
35121,BLOUNT,ONEONTA,AL
36067,AUTAUGA,PRATTVILLE,AL
36701,DALLAS,SELMA,AL
36925,SUMTER,YORK,AL
51040,MONONA,ONAWA,IA
44119,CUYAHOGA,EUCLID,OH
43526,DEFIANCE,HICKSVILLE,OH
43054,FRANKLIN,NEW ALBANY,OH
43081,FRANKLIN,WESTERVILLE,OH
88201,CHAVES,ROSWELL,NM
63552,MACON,MACON,MO
84078,UINTAH,VERNAL,UT
50314,POLK,DES MOINES,IA
50310,POLK,DES MOINES,IA
89015,CLARK,HENDERSON,NV
52803,SCOTT,DAVENPORT,IA
50049,LUCAS,CHARITON,IA
47546,DUBOIS,JASPER,IN
46706,DEKALB,AUBURN,IN
46580,KOSCIUSKO,WARSAW,IN
44710,STARK,CANTON,OH
57551,BENNETT,MARTIN,SD
57369,CHARLES MIX,PLATTE,SD
47250,JEFFERSON,MADISON,IN
57362,HAND,MILLER,SD
89512,WASHOE,RENO,NV
15666,WESTMORELAND,MOUNT PLEASANT,PA
89434,WASHOE,SPARKS,NV
56085,BROWN,SLEEPY EYE,MN
15221,ALLEGHENY,PITTSBURGH,PA
16214,CLARION,CLARION,PA
17901,SCHUYLKILL,POTTSVILLE,PA
19139,PHILADELPHIA,PHILADELPHIA,PA
19111,PHILADELPHIA,PHILADELPHIA,PA
19143,PHILADELPHIA,PHILADELPHIA,PA
15801,CLEARFIELD,DUBOIS,PA
69033,CHASE,IMPERIAL,NE
68333,SALINE,CRETE,NE
68787,WAYNE,WAYNE,NE
64068,CLAY,LIBERTY,MO
17837,UNION,LEWISBURG,PA
18764,LUZERNE,WILKES-BARRE,PA
18104,LEHIGH,ALLENTOWN,PA
18103,LEHIGH,ALLENTOWN,PA
17866,NORTHUMBERLAND,COAL TOWNSHIP,PA
19046,MONTGOMERY,MEADOWBROOK,PA
19464,MONTGOMERY,POTTSTOWN,PA
19401,MONTGOMERY,NORRISTOWN,PA
19001,MONTGOMERY,ABINGTON,PA
18501,LACKAWANNA,SCRANTON,PA
85132,PINAL,FLORENCE,AZ
68352,JEFFERSON,FAIRBURY,NE
47111,CLARK,CHARLESTOWN,IN
85739,PIMA,TUCSON,AZ
17011,CUMBERLAND,CAMP HILL,PA
19026,DELAWARE,DREXEL HILL,PA
16505,ERIE,ERIE,PA
46804,ALLEN,FORT WAYNE,IN
85607,COCHISE,DOUGLAS,AZ
46996,PULASKI,WINAMAC,IN
45255,HAMILTON,CINCINNATI,OH
19605,BERKS,READING,PA
85305,MARICOPA,GLENDALE,AZ
16947,BRADFORD,TROY,PA
85634,PIMA,SELLS,AZ
31639,BERRIEN,NASHVILLE,GA
47167,WASHINGTON,SALEM,IN
46342,LAKE,HOBART,IN
31901,MUSCOGEE,COLUMBUS,GA
85338,MARICOPA,GOODYEAR,AZ
45690,PIKE,WAVERLY,OH
30525,RABUN,CLAYTON,GA
39823,EARLY,BLAKELY,GA
30125,POLK,CEDARTOWN,GA
57078,YANKTON,YANKTON,SD
86042,NAVAJO,POLACCA,AZ
85941,NAVAJO,WHITERIVER,AZ
57783,LAWRENCE,SPEARFISH,SD
57049,UNION,DAKOTA DUNES,SD
47265,JENNINGS,NORTH VERNON,IN
57701,PENNINGTON,RAPID CITY,SD
23805,PETERSBURG,PETERSBURG,VA
43543,WILLIAMS,MONTPELIER,OH
56334,POPE,GLENWOOD,MN
57105,MINNEHAHA,SIOUX FALLS,SD
97471,DOUGLAS,ROSEBURG,OR
83422,TETON,DRIGGS,ID
14905,CHEMUNG,ELMIRA,NY
83330,GOODING,GOODING,ID
83617,GEM,EMMETT,ID
83263,FRANKLIN,PRESTON,ID
24115,MARTINSVILLE,MARTINSVILLE,VA
23188,YORK,WILLIAMSBURG,VA
13856,DELAWARE,WALTON,NY
22306,FAIRFAX,ALEXANDRIA,VA
22560,ESSEX,TAPPAHANNOCK,VA
23922,NOTTOWAY,BURKEVILLE,VA
16830,CLEARFIELD,CLEARFIELD,PA
38008,HARDEMAN,BOLIVAR,TN
22401,STAUNTON,STAUNTON,VA
29560,FLORENCE,LAKE CITY,SC
29556,WILLIAMSBURG,KINGSTREE,SC
29812,BARNWELL,BARNWELL,SC
29466,CHARLESTON,MOUNT PLEASANT,SC
29485,DORCHESTER,SUMMERVILLE,SC
29204,RICHLAND,COLUMBIA,SC
29401,CHARLESTON,MT PLEASANT,SC
29650,GREENVILLE,GREER,SC
29340,CHEROKEE,GAFFNEY,SC
29615,GREENVILLE,GREENVILLE,SC
45408,MONTGOMERY,DAYTON,OH
29646,GREENWOOD,GREENWOOD,SC
54848,RUSK,LADYSMITH,WI
77082,HARRIS,HOUSTON,TX
29520,CHESTERFIELD,CHERAW,SC
54456,CLARK,NEILLSVILLE,WI
54724,CHIPPEWA,BLOOMER,WI
44307,SUMMIT,AKRON,OH
54758,TREMPEALEAU,OSSEO,WI
76374,YOUNG,OLNEY,TX
75686,CAMP,PITTSBURG,TX
54812,BARRON,BARRON,WI
76567,MILAM,ROCKDALE,TX
25302,KANAWHA,CHARLESTON,WV
41339,BREATHITT,JACKSON,KY
61362,BUREAU,SPRING VALLEY,IL
40143,BRECKINRIDGE,HARDINSBURG,KY
42276,LOGAN,RUSSELLVILLE,KY
41075,CAMPBELL,FT. THOMAS,KY
42003,MCCRACKEN,PADUCAH,KY
60623,COOK,CHICAGO,IL
62837,WAYNE,FAIRFIELD,IL
81201,CHAFFEE,SALIDA,CO
63131,ST LOUIS,ST. LOUIS,MO
92324,SAN BERNARDINO,COLTON,CA
92411,SAN BERNARDINO,SAN BERNARDINO,CA
92315,SAN BERNARDINO,BIG BEAR LAKE,CA
91710,SAN BERNARDINO,CHINO,CA
92352,SAN BERNARDINO,LAKE ARROWHEAD,CA
92369,SAN BERNARDINO,PATTON,CA
92025,SAN DIEGO,ESCONDIDO,CA
93405,SAN LUIS OBISPO,SAN LUIS OBISPO,CA
91361,VENTURA,THOUSAND OAKS,CA
96118,SIERRA,LOYALTON,CA
94558,NAPA,NAPA,CA
80807,KIT CARSON,BURLINGTON,CO
95202,SAN JOAQUIN,STOCKTON,CA
95231,SAN JOAQUIN,FRENCH CAMP,CA
91107,LOS ANGELES,PASADENA,CA
91770,LOS ANGELES,ROSEMEAD,CA
90805,LOS ANGELES,LONG BEACH,CA
90247,LOS ANGELES,GARDENA,CA
90095,LOS ANGELES,LOS ANGELES,CA
90026,LOS ANGELES,LOS ANGELES,CA
90605,LOS ANGELES,WHITTIER,CA
93545,INYO,LONE PINE,CA
80534,LARIMER,JOHNSTOWN,CO
95437,MENDOCINO,FORT BRAGG,CA
95667,EL DORADO,PLACERVILLE,CA
93308,KERN,BAKERSFIELD,CA
95608,SACRAMENTO,CARMICHAEL,CA
95823,SACRAMENTO,SACRAMENTO,CA
80821,LINCOLN,HUGO,CO
80012,ARAPAHOE,AURORA,CO
39503,HARRISON,GULFPORT,MS
30331,FULTON,ATLANTA,GA
31076,TAYLOR,REYNOLDS,GA
31794,TIFT,TIFTON,GA
30120,BARTOW,CARTERSVILLE,GA
30281,HENRY,STOCKBRIDGE,GA
30338,DEKALB,DUNWOODY,GA
30306,DEKALB,ATLANTA,GA
30034,DEKALB,DECATUR,GA
27892,MARTIN,WILLIAMSTON,NC
46013,MADISON,ANDERSON,IN
80758,YUMA,WRAY,CO
30655,WALTON,MONROE,GA
28801,BUNCOMBE,ASHEVILLE,NC
70507,LAFAYETTE,LAFAYETTE,LA
70301,LAFOURCHE,THIBODAUX,LA
70006,JEFFERSON,METAIRIE,LA
70115,ORLEANS,NEW ORLEANS,LA
70560,IBERIA,NEW IBERIA,LA
71457,NATCHITOCHES,NATCHITOCHES,LA
60631,COOK,CHICAGO,IL
71251,JACKSON,JONESBORO,LA
71483,WINN,WINNFIELD,LA
71342,LA SALLE,JENA,LA
70427,WASHINGTON,BOGALUSA,LA
70438,WASHINGTON,FRANKLINTON,LA
70760,POINTE COUPEE,NEW ROADS,LA
71055,WEBSTER,MINDEN,LA
70458,ST. TAMMANY,SLIDELL,LA
70403,TANGIPAHOA,HAMMOND,LA
70443,TANGIPAHOA,INDEPENDENCE,LA
70634,BEAUREGARD,DERIDDER,LA
70791,EAST BATON ROUGE,ZACHARY,LA
70810,EAST BATON ROUGE,BATON ROUGE,LA
70570,ST. LANDRY,OPELOUSAS,LA
71082,CADDO,VIVIAN,LA
92064,SAN DIEGO,POWAY,CA
93212,KINGS,CORCORAN,CA
93465,SAN LUIS OBISPO,TEMPLETON,CA
95401,SONOMA,SANTA ROSA,CA
95431,SONOMA,ELDRIDGE,CA
90706,LOS ANGELES,BELLFLOWER,CA
90242,LOS ANGELES,DOWNEY,CA
90018,LOS ANGELES,LOS ANGELES,CA
92543,RIVERSIDE,HEMET,CA
92201,RIVERSIDE,INDIO,CA
92571,RIVERSIDE,PERRIS,CA
92225,RIVERSIDE,BLYTHE,CA
95032,SANTA CLARA,LOS GATOS,CA
95338,MARIPOSA,MARIPOSA,CA
93654,FRESNO,REEDLEY,CA
94806,CONTRA COSTA,SAN PABLO,CA
95841,SACRAMENTO,SACRAMENTO,CA
95630,SACRAMENTO,FOLSOM,CA
92706,ORANGE,SANTA ANA,CA
90720,ORANGE,LOS ALAMITOS,CA
95993,SUTTER,YUBA CITY,CA
70065,JEFFERSON,KENNER,LA
28659,WILKES,NORTH WILKESBORO,NC
70501,LAFAYETTE,LAFAYETTE,LA
70072,JEFFERSON,MARRERO,LA
71270,LINCOLN,RUSTON,LA
71269,RICHLAND,RAYVILLE,LA
94501,ALAMEDA,ALAMEDA,CA
90813,LOS ANGELES,LONG BEACH,CA
94589,SOLANO,VALLEJO,CA
93420,SAN LUIS OBISPO,ARROYO GRANDE,CA
90033,LOS ANGELES,LOS ANGELES,CA
30533,LUMPKIN,DAHLONEGA,GA
31501,WARE,WAYCROSS,GA
39840,RANDOLPH,CUTHBERT,GA
30535,HABERSHAM,DEMOREST,GA
53072,WAUKESHA,PEWAUKEE,WI
70663,CALCASIEU,SULPHUR,LA
30905,RICHMOND,FORT GORDON,GA
71112,BOSSIER,BOSSIER CITY,LA
80918,EL PASO,COLORADO SPRINGS,CO
53705,DANE,MADISON,WI
53295,MILWAUKEE,MILWAUKEE,WI
54751,DUNN,MENOMONIE,WI
54703,EAU CLAIRE,EAU CLAIRE,WI
92307,SAN BERNARDINO,APPLE VALLEY,CA
92056,SAN DIEGO,OCEANSIDE,CA
94109,SAN FRANCISCO,SAN FRANCISCO,CA
80027,BOULDER,LOUISVILLE,CO
80501,BOULDER,LONGMONT,CO
93030,VENTURA,OXNARD,CA
95472,SONOMA,SEBASTOPOL,CA
95616,YOLO,DAVIS,CA
39531,HARRISON,BILOXI,MS
94538,ALAMEDA,FREMONT,CA
94550,ALAMEDA,LIVERMORE,CA
95240,SAN JOAQUIN,LODI,CA
90640,LOS ANGELES,MONTEBELLO,CA
81301,LA PLATA,DURANGO,CO
90804,LOS ANGELES,LONG BEACH,CA
90034,LOS ANGELES,LOS ANGELES,CA
90011,LOS ANGELES,LOS ANGELES,CA
91007,LOS ANGELES,ARCADIA,CA
90732,LOS ANGELES,SAN PEDRO,CA
91505,LOS ANGELES,BURBANK,CA
90057,LOS ANGELES,LOS ANGELES,CA
92555,RIVERSIDE,MORENO VALLEY,CA
92563,RIVERSIDE,MURRIETA,CA
95119,SANTA CLARA,SAN JOSE,CA
95128,SANTA CLARA,SAN JOSE,CA
94080,SAN MATEO,SOUTH SAN FRANCISCO,CA
95602,PLACER,AUBURN,CA
95490,MENDOCINO,WILLITS,CA
95340,MERCED,MERCED,CA
93703,FRESNO,FRESNO,CA
93662,FRESNO,SELMA,CA
96150,EL DORADO,SOUTH LAKE TAHOE,CA
93215,KERN,DELANO,CA
93309,KERN,BAKERSFIELD,CA
95826,SACRAMENTO,SACRAMENTO,CA
95540,HUMBOLDT,FORTUNA,CA
93930,MONTEREY,KING CITY,CA
95380,STANISLAUS,TURLOCK,CA
95356,STANISLAUS,MODESTO,CA
81147,ARCHULETA,PAGOSA SPRINGS,CO
54656,MONROE,SPARTA,WI
30309,FULTON,ATLANTA,GA
31701,DOUGHERTY,ALBANY,GA
30110,HARALSON,BREMEN,GA
70118,ORLEANS,NEW ORLEANS,LA
30106,COBB,AUSTELL,GA
80122,ARAPAHOE,LITTLETON,CO
81101,ALAMOSA,ALAMOSA,CO
71334,CONCORDIA,FERRIDAY,LA
71019,RED RIVER,COUSHATTA,LA
54768,CLARK,STANLEY,WI
53589,DANE,STOUGHTON,WI
53818,GRANT,PLATTEVILLE,WI
71118,CADDO,SHREVEPORT,LA
54911,OUTAGAMIE,APPLETON,WI
54022,ST. CROIX,RIVER FALLS,WI
53546,ROCK,JANESVILLE,WI
54016,ST. CROIX,HUDSON,WI
53959,SAUK,REEDSBURG,WI
92806,ORANGE,ANAHEIM,CA
71202,OUACHITA,MONROE,LA
90059,LOS ANGELES,LOS ANGELES,CA
20016,DISTRICT OF COLUMBIA,WASHINGTON,DC
32714,SEMINOLE,ALTAMONTE SPRINGS,FL
85210,MARICOPA,MESA,AZ
54521,VILAS,EAGLE RIVER,WI
33905,LEE,FORT MYERS,FL
50659,CHICKASAW,NEW HAMPTON,IA
50213,CLARKE,OSCEOLA,IA
54451,TAYLOR,MEDFORD,WI
33133,MIAMI-DADE,MIAMI,FL
33126,MIAMI-DADE,MIAMI,FL
34114,COLLIER,NAPLES,FL
50112,POWESHIEK,GRINNELL,IA
51041,SIOUX,ORANGE CITY,IA
52722,SCOTT,BETTENDORF,IA
52655,DES MOINES,WEST BURLINGTON,IA
50036,BOONE,BOONE,IA
50138,MARION,KNOXVILLE,IA
51023,SIOUX,HAWARDEN,IA
83403,BONNEVILLE,IDAHO FALLS,ID
46807,ALLEN,FORT WAYNE,IN
46368,PORTER,PORTAGE,IN
53530,LAFAYETTE,DARLINGTON,WI
54806,ASHLAND,ASHLAND,WI
53548,ROCK,JANESVILLE,WI
53147,WALWORTH,LAKE GENEVA,WI
53948,JUNEAU,MAUSTON,WI
67735,SHERMAN,GOODLAND,KS
67740,SHERIDAN,HOXIE,KS
72833,YELL,DANVILLE,AR
72335,ST. FRANCIS,FORREST CITY,AR
71655,DREW,MONTICELLO,AR
72042,ARKANSAS,DE WITT,AR
67854,HODGEMAN,JETMORE,KS
71730,UNION,EL DORADO,AR
71654,DESHA,MC GEHEE,AR
72034,FAULKNER,CONWAY,AR
72476,LAWRENCE,WALNUT RIDGE,AR
71753,COLUMBIA,MAGNOLIA,AR
72120,PULASKI,SHERWOOD,AR
72211,PULASKI,LITTLE ROCK,AR
72764,WASHINGTON,SPRINGDALE,AR
42717,CUMBERLAND,BURKESVILLE,KY
72076,PULASKI,JACKSONVILLE,AR
40962,CLAY,MANCHESTER,KY
42164,ALLEN,SCOTTSVILLE,KY
80210,DENVER,DENVER,CO
80138,DOUGLAS,PARKER,CO
41647,FLOYD,MCDOWELL,KY
41649,FLOYD,MARTIN,KY
42749,HART,HORSE CAVE,KY
21061,ANNE ARUNDEL,GLEN BURNIE,MD
21078,HARFORD,HAVRE DE GRACE,MD
20735,PRINCE GEORGE'S,CLINTON,MD
48813,EATON,CHARLOTTE,MI
48471,SANILAC,SANDUSKY,MI
48453,SANILAC,MARLETTE,MI
49646,KALKASKA,KALKASKA,MI
49854,SCHOOLCRAFT,MANISTIQUE,MI
48846,IONIA,IONIA,MI
48162,MONROE,MONROE,MI
48838,MONTCALM,GREENVILLE,MI
49286,LENAWEE,TECUMSEH,MI
48043,MACOMB,MOUNT CLEMENS,MI
48827,EATON,EATON RAPIDS,MI
48801,GRATIOT,ALMA,MI
49444,MUSKEGON,MUSKEGON,MI
48060,ST. CLAIR,PORT HURON,MI
59107,YELLOWSTONE,BILLINGS,MT
48183,WAYNE,TRENTON,MI
48135,WAYNE,GARDEN CITY,MI
49601,WEXFORD,CADILLAC,MI
49938,GOGEBIC,IRONWOOD,MI
49720,CHARLEVOIX,CHARLEVOIX,MI
49506,KENT,GRAND RAPIDS,MI
48154,WAYNE,LIVONIA,MI
48236,WAYNE,GROSSE POINTE FARMS,MI
48146,WAYNE,LINCOLN PARK,MI
49779,PRESQUE ISLE,ROGERS CITY,MI
48091,MACOMB,WARREN,MI
56208,SWIFT,APPLETON,MN
56347,TODD,LONG PRAIRIE,MN
55072,PINE,SANDSTONE,MN
56623,LAKE OF THE WOODS,BAUDETTE,MN
56277,RENVILLE,OLIVIA,MN
49202,JACKSON,JACKSON,MI
64836,JASPER,CARTHAGE,MO
64108,JACKSON,KANSAS CITY,MO
63080,CRAWFORD,BOONVILLE,MO
64089,CLAY,SMITHVILLE,MO
65351,SALINE,SWEET SPRINGS,MO
63111,ST. LOUIS CITY,ST. LOUIS,MO
65806,GREENE,SPRINGFIELD,MO
63019,JEFFERSON,CRYSTAL CITY,MO
53934,ADAMS,FRIENDSHIP,WI
63379,LINCOLN,TROY,MO
54403,MARATHON,WAUSAU,WI
65203,BOONE,COLUMBIA,MO
65613,POLK,BOLIVAR,MO
64633,CARROLL,CARROLLTON,MO
65301,PETTIS,SEDALIA,MO
64424,HARRISON,BETHANY,MO
64093,JOHNSON,WARRENSBURG,MO
65708,BARRY,MONETT,MO
63112,ST. LOUIS CITY,ST. LOUIS,MO
63108,ST. LOUIS CITY,ST. LOUIS,MO
54720,EAU CLAIRE,ALTOONA,WI
53212,MILWAUKEE,GLENDALE,WI
23116,HANOVER,MECHANICSVILLE,VA
39046,MADISON,CANTON,MS
28374,MOORE,PINEHURST,NC
58421,FOSTER,CARRINGTON,ND
58201,GRAND FORKS,GRAND FORKS,ND
78611,BURNET,BURNET,TX
43210,FRANKLIN,COLUMBUS,OH
59230,VALLEY,GLASGOW,MT
87701,SAN MIGUEL,LAS VEGAS,NM
45216,HAMILTON,CINCINNATI,OH
45227,HAMILTON,CINCINNATI,OH
45123,HIGHLAND,GREENFIELD,OH
44654,HOLMES,MILLERSBURG,OH
43055,LICKING,NEWARK,OH
43311,LOGAN,BELLEFONTAINE,OH
44074,LORAIN,OBERLIN,OH
84648,JUAB,NEPHI,UT
87901,SIERRA,TRUTH OR CONSEQUENCES,NM
88240,LEA,HOBBS,NM
46140,HANCOCK,GREENFIELD,IN
88435,GUADALUPE,SANTA ROSA,NM
88061,GRANT,SILVER CITY,NM
88008,DONA ANA,SANTA TERESA,NM
51534,MILLS,GLENWOOD,IA
88011,DONA ANA,LAS CRUCES,NM
87301,MCKINLEY,GALLUP,NM
87313,MCKINLEY,CROWNPOINT,NM
87102,BERNALILLO,ALBUQUERQUE,NM
87109,BERNALILLO,ALBUQUERQUE,NM
89149,CLARK,LAS VEGAS,NV
89123,CLARK,HENDERSON,NV
84066,DUCHESNE,ROOSEVELT,UT
84010,DAVIS,WOODS CROSS,UT
45439,MONTGOMERY,DAYTON,OH
89027,CLARK,MESQUITE,NV
32425,HOLMES,BONIFAY,FL
44708,STARK,CANTON,OH
84634,SANPETE,GUNNISON,UT
46311,LAKE,DYER,IN
85339,MARICOPA,LAVEEN,AZ
84047,SALT LAKE,MIDVALE,UT
47802,VIGO,TERRE HAUTE,IN
46131,JOHNSON,FRANKLIN,IN
46703,STEUBEN,ANGOLA,IN
46350,LAPORTE,LA PORTE,IN
47421,LAWRENCE,BEDFORD,IN
47441,GREENE,LINTON,IN
47670,GIBSON,PRINCETON,IN
46219,MARION,INDIANAPOLIS,IN
46278,MARION,INDIANAPOLIS,IN
57366,HUTCHINSON,PARKSTON,SD
57070,TURNER,VIBORG,SD
57580,TRIPP,WINNER,SD
57028,MOODY,FLANDREAU,SD
57022,MINNEHAHA,DELL RAPIDS,SD
85006,MARICOPA,PHOENIX,AZ
46122,HENDRICKS,DANVILLE,IN
46123,HENDRICKS,AVON,IN
32541,OKALOOSA,DESTIN,FL
32578,OKALOOSA,NICEVILLE,FL
32428,WASHINGTON,CHIPLEY,FL
32055,COLUMBIA,LAKE CITY,FL
32565,SANTA ROSA,JAY,FL
85710,PIMA,TUCSON,AZ
32353,GADSDEN,QUINCY,FL
57747,FALL RIVER,HOT SPRINGS,SD
14760,CATTARAUGUS,OLEAN,NY
68920,HARLAN,ALMA,NE
18472,WAYNE,WAYMART,PA
18901,BUCKS,DOYLESTOWN,PA
19601,BERKS,READING,PA
16201,ARMSTRONG,KITTANNING,PA
15217,ALLEGHENY,PITTSBURGH,PA
15146,ALLEGHENY,MONROEVILLE,PA
15224,ALLEGHENY,PITTSBURGH,PA
15237,ALLEGHENY,PITTSBURGH,PA
16673,BLAIR,ROARING SPRING,PA
17331,YORK,HANOVER,PA
69201,CHERRY,VALENTINE,NE
68467,YORK,YORK,NE
15065,ALLEGHENY,NATRONA HEIGHTS,PA
16354,CRAWFORD,TITUSVILLE,PA
17815,COLUMBIA,BLOOMSBURG,PA
19122,PHILADELPHIA,PHILADELPHIA,PA
89406,CHURCHILL,FALLON,NV
19131,PHILADELPHIA,PHILADELPHIA,PA
19140,PHILADELPHIA,PHILADELPHIA,PA
89410,DOUGLAS,GARDNERVILLE,NV
89445,HUMBOLDT,WINNEMUCCA,NV
89048,NYE,PAHRUMP,NV
89419,PERSHING,LOVELOCK,NV
18801,SUSQUEHANNA,MONTROSE,PA
18634,LUZERNE,NANTICOKE,PA
18069,LEHIGH,OREFIELD,PA
17042,LEBANON,LEBANON,PA
15701,INDIANA,INDIANA,PA
17201,FRANKLIN,CHAMBERSBURG,PA
17105,DAUPHIN,HARRISBURG,PA
16501,ERIE,ERIE,PA
28215,MECKLENBURG,CHARLOTTE,NC
86314,YAVAPAI,PRESCOTT VALLEY,AZ
46173,RUSH,RUSHVILLE,IN
46041,CLINTON,FRANKFORT,IN
85015,MARICOPA,PHOENIX,AZ
47842,VERMILLION,CLINTON,IN
31643,BROOKS,QUITMAN,GA
16121,MERCER,FARRELL,PA
47601,WARRICK,BOONVILLE,IN
47993,WARREN,WILLIAMSPORT,IN
46312,LAKE,EAST CHICAGO,IN
45879,PAULDING,PAULDING,OH
47882,SULLIVAN,SULLIVAN,IN
46036,MADISON,ELWOOD,IN
47170,SCOTT,SCOTTSBURG,IN
46545,ST. JOSEPH,MISHAWAKA,IN
46975,FULTON,ROCHESTER,IN
85723,PIMA,TUCSON,AZ
31008,PEACH,BYRON,GA
31029,MONROE,FORSYTH,GA
57401,BROWN,ABERDEEN,SD
30233,BUTTS,JACKSON,GA
46563,MARSHALL,PLYMOUTH,IN
23294,HENRICO,RICHMOND,VA
57702,PENNINGTON,RAPID CITY,SD
43351,WYANDOT,UPPER SANDUSKY,OH
24201,BRISTOL,BRISTOL,VA
56093,WASECA,WASECA,MN
55414,HENNEPIN,MINNEAPOLIS,MN
56241,YELLOW MEDICINE,GRANITE FALLS,MN
56501,BECKER,DETROIT LAKES,MN
29569,HORRY,LORIS,SC
60629,COOK,CHICAGO,IL
55125,WASHINGTON,WOODBURY,MN
56058,LE SUEUR,LESUEUR,MN
37777,BLOUNT,LOUISVILLE,TN
13901,BROOME,BINGHAMTON,NY
73086,MURRAY,SULPHUR,OK
37748,ROANE,HARRIMAN,TN
83709,ADA,BOISE,ID
23327,CHESAPEAKE,CHESAPEAKE,VA
83211,POWER,AMERICAN FALLS,ID
22901,ALBEMARLE,CHARLOTTESVILLE,VA
22304,ALEXANDRIA,ALEXANDRIA,VA
83686,CANYON,NAMPA,ID
83605,CANYON,CALDWELL,ID
13045,CORTLAND,CORTLAND,NY
24301,PULASKI,PULASKI,VA
23505,NORFOLK,NORFOLK,VA
23502,NORFOLK,NORFOLK,VA
22630,WARREN,FRONT ROYAL,VA
23607,NEWPORT NEWS,NEWPORT NEWS,VA
83440,MADISON,REXBURG,ID
73772,BLAINE,WATONGA,OK
24153,SALEM,SALEM,VA
23435,SUFFOLK,SUFFOLK,VA
23434,SUFFOLK,SUFFOLK,VA
23847,EMPORIA,EMPORIA,VA
20186,FAUQUIER,WARRENTON,VA
97424,LANE,COTTAGE GROVE,OR
24273,NORTON,NORTON,VA
24228,DICKENSON,CLINTWOOD,VA
22205,ARLINGTON,ARLINGTON,VA
20176,LOUDOUN,LEESBURG,VA
23114,CHESTERFIELD,MIDLOTHIAN,VA
45640,JACKSON,JACKSON,OH
41097,GRANT,WILLIAMSTOWN,KY
43907,HARRISON,CADIZ,OH
29605,GREENVILLE,GREENVILLE,SC
29440,GEORGETOWN,GEORGETOWN,SC
29576,GEORGETOWN,MURRELLS INLET,SC
29927,JASPER,HARDEEVILLE,SC
29020,KERSHAW,CAMDEN,SC
29720,LANCASTER,LANCASTER,SC
29681,GREENVILLE,SIMPSONVILLE,SC
44830,HANCOCK,FOSTORIA,OH
98272,SNOHOMISH,MONROE,WA
29302,SPARTANBURG,SPARTANBURG,SC
16335,CRAWFORD,MEADVILLE,PA
29512,MARLBORO,BENNETTSVILLE,SC
29102,CLARENDON,MANNING,SC
29488,COLLETON,WALTERBORO,SC
29621,ANDERSON,ANDERSON,SC
44113,CUYAHOGA,CLEVELAND,OH
29472,DORCHESTER,RIDGEVILLE,SC
29170,LEXINGTON,WEST COLUMBIA,SC
29203,RICHLAND,COLUMBIA,SC
29325,LAURENS,CLINTON,SC
29210,RICHLAND,COLUMBIA,SC
29601,GREENVILLE,GREENVILLE,SC
29405,CHARLESTON,NORTH CHARLESTON,SC
29169,LEXINGTON,WEST COLUMBIA,SC
29926,BEAUFORT,HILTON HEAD ISLAND,SC
29201,RICHLAND,COLUMBIA,SC
99122,LINCOLN,DAVENPORT,WA
98531,LEWIS,CENTRALIA,WA
84117,SALT LAKE,SALT LAKE CITY,UT
22801,HARRISONBURG,HARRISONBURG,VA
84041,DAVIS,LAYTON,UT
79934,EL PASO,EL PASO,TX
84403,WEBER,SOUTH OGDEN,UT
61364,LA SALLE,STREATOR,IL
98520,GRAYS HARBOR,ABERDEEN,WA
79928,EL PASO,HORIZON CITY,TX
97062,CLACKAMAS,TUALATIN,OR
97045,CLACKAMAS,OREGON CITY,OR
97225,WASHINGTON,PORTLAND,OR
97123,WASHINGTON,HILLSBORO,OR
99169,ADAMS,RITZVILLE,WA
98052,KING,REDMOND,WA
97210,MULTNOMAH,PORTLAND,OR
97213,MULTNOMAH,PORTLAND,OR
83522,IDAHO,COTTONWOOD,ID
97381,MARION,SILVERTON,OR
83672,WASHINGTON,WEISER,ID
97355,LINN,LEBANON,OR
14214,ERIE,BUFFALO,NY
14141,ERIE,SPRINGVILLE,NY
14225,ERIE,CHEEKTOWAGA,NY
12932,ESSEX,ELIZABETHTOWN,NY
12078,FULTON,GLOVERSVILLE,NY
12953,FRANKLIN,MALONE,NY
14020,GENESEE,BATAVIA,NY
13601,JEFFERSON,WATERTOWN,NY
13367,LEWIS,LOWVILLE,NY
14621,MONROE,ROCHESTER,NY
14620,MONROE,ROCHESTER,NY
11791,NASSAU,SYOSSET,NY
11803,NASSAU,PLAINVIEW,NY
14094,NIAGARA,LOCKPORT,NY
14301,NIAGARA,NIAGARA FALLS,NY
14120,NIAGARA,NORTH TONAWANDA,NY
14092,NIAGARA,LEWISTON,NY
13502,ONEIDA,UTICA,NY
13413,ONEIDA,UTICA,NY
14432,ONTARIO,CLIFTON SPRINGS,NY
13126,OSWEGO,OSWEGO,NY
13820,OTSEGO,ONEONTA,NY
10993,ROCKLAND,WEST HARVESTRAW,NY
57108,LINCOLN,SIOUX FALLS,SD
40160,HARDIN,RADCLIFF,KY
13613,ST. LAWRENCE,MASSENA,NY
12304,SCHENECTADY,SCHENECTADY,NY
60085,LAKE,WAUKEGAN,IL
98065,KING,SNOQUALMIE,WA
61350,LA SALLE,OTTAWA,IL
61354,LA SALLE,PERU,IL
12309,SCHENECTADY,NISKAYUNA,NY
21239,BALTIMORE CITY,BALTIMORE,MD
21229,BALTIMORE CITY,BALTIMORE,MD
21218,BALTIMORE CITY,BALTIMORE,MD
11507,SUFFOLK,PORT JEFFERSON,NY
41041,FLEMING,FLEMINGSBURG,KY
40503,FAYETTE,LEXINGTON,KY
14850,TOMPKINS,ITHACA,NY
12723,SULLIVAN,CALLICOON,NY
12801,WARREN,GLENS FALLS,NY
40511,FAYETTE,LEXINGTON,KY
10549,WESTCHESTER,MOUNT KISCO,NY
21802,WICOMICO,SALISBURY,MD
41031,HARRISON,CYNTHIANA,KY
10029,NEW YORK,NEW YORK,NY
10001,NEW YORK,NEW YORK,NY
11432,QUEENS,JAMAICA,NY
62901,JACKSON,CARBONDALE,IL
60970,IROQUOIS,WATSEKA,IL
42211,TRIGG,CADIZ,KY
42104,WARREN,BOWLING GREEN,KY
11375,QUEENS,FOREST HILLS,NY
11206,KINGS,BROOKLYN,NY
14209,ERIE,WILLIAMSVILLE,NY
12204,ALBANY,ALBANY,NY
10011,NEW YORK,NEW YORK,NY
11040,QUEENS,NEW HYDE PARK,NY
10550,WESTCHESTER,MOUNT VERNON,NY
41749,LESLIE,HYDEN,KY
11102,QUEENS,LONG ISLAND CITY,NY
13211,ONONDAGA,SYRACUSE,NY
13421,MADISON,ONEIDA,NY
20706,PRINCE GEORGE'S,LANHAM,MD
11777,SUFFOLK,PORT JEFFERSON,NY
12084,ALBANY,GUILDERLAND,NY
62321,HANCOCK,CARTHAGE,IL
61530,WOODFORD,EUREKA,IL
61108,WINNEBAGO,ROCKFORD,IL
14626,MONROE,ROCHESTER,NY
62948,WILLIAMSON,HERRIN,IL
14611,MONROE,ROCHESTER,NY
20650,ST. MARY'S,LEONARDTOWN,MD
13838,DELAWARE,SIDNEY,NY
62959,WILLIAMSON,MARION,IL
61081,WHITESIDE,STERLING,IL
10016,NEW YORK,NEW YORK,NY
10701,WESTCHESTER,YONKERS,NY
10304,RICHMOND,STATEN ISLAND,NY
14081,CHAUTAUQUA,IRVING,NY
14901,CHEMUNG,ELMIRA,NY
10010,NEW YORK,NEW YORK,NY
12208,ALBANY,ALBANY,NY
11701,SUFFOLK,AMITYVILLE,NY
61036,JO DAVIESS,GALENA,IL
11425,QUEENS,JAMAICA,NY
42633,WAYNE,MONTICELLO,KY
40701,WHITLEY,CORBIN,KY
40906,KNOX,BARBOURVILLE,KY
40741,LAUREL,LONDON,KY
41230,LAWRENCE,LOUISA,KY
11768,SUFFOLK,NORTHPORT,NY
20794,HOWARD,JESSUP,MD
21044,HOWARD,COLUMBIA,MD
21041,HOWARD,ELLICOTT CITY,MD
79830,BREWSTER,ALPINE,TX
79323,YOAKUM,DENVER CITY,TX
76528,CORYELL,GATESVILLE,TX
79520,JONES,HARLINGEN,TX
78119,KARNES,KENEDY,TX
21204,BALTIMORE,BALTIMORE,MD
77868,GRIMES,NAVASOTA,TX
61068,OGLE,ROCHELLE,IL
77465,MATAGORDA,PALACIOS,TX
79546,FISHER,ROTAN,TX
79373,LYNN,TAHOKA,TX
76483,THROCKMORTON,THROCKMORTON,TX
79088,SWISHER,TULIA,TX
79855,CULBERSON,VAN HORN,TX
60649,COOK,CHICAGO,IL
79778,UPTON,RANKIN,TX
60429,COOK,HAZEL CREST,IL
60452,COOK,OAK FOREST,IL
60178,DEKALB,SYCAMORE,IL
40223,JEFFERSON,LOUISVILLE,KY
40403,MADISON,BEREA,KY
42025,MARSHALL,BENTON,KY
40217,JEFFERSON,LOUISVILLE,KY
40241,JEFFERSON,LOUISVILLE,KY
40242,JEFFERSON,LOUISVILLE,KY
41012,KENTON,COVINGTON,KY
26847,GRANT,PETERSBURG,WV
41011,KENTON,COVINGTON,KY
25661,MINGO,WILLIAMSON,WV
26726,MINERAL,KEYSER,WV
40965,BELL,MIDDLESBORO,KY
62946,SALINE,HARRISBURG,IL
61820,CHAMPAIGN,CHAMPAIGN,IL
25136,FAYETTE,MONTGOMERY,WV
62246,BOND,GREENVILLE,IL
61008,BOONE,BELVIDERE,IL
62565,SHELBY,SHELBYVILLE,IL
78840,VAL VERDE,DEL RIO,TX
39451,GREENE,LEAKESVILLE,MS
78660,TRAVIS,PFLUGERVILLE,TX
39345,NEWTON,NEWTON,MS
75052,TARRANT,GRAND PRAIRIE,TX
59923,LINCOLN,LIBBY,MT
39090,ATTALA,KOSCIUSKO,MS
38738,SUNFLOWER,PARCHMAN,MS
39530,HARRISON,BILOXI,MS
44504,MAHONING,YOUNGSTOWN,OH
27983,BERTIE,WINDSOR,NC
27360,DAVIDSON,THOMASVILLE,NC
27932,CHOWAN,EDENTON,NC
27704,DURHAM,DURHAM,NC
28012,GASTON,BELMONT,NC
28232,MECKLENBURG,CHARLOTTE,NC
27406,GUILFORD,GREENSBORO,NC
27893,WILSON,WILSON,NC
27055,YADKIN,YADKINVILLE,NC
28712,TRANSYLVANIA,BREVARD,NC
28713,SWAIN,BRYSON CITY,NC
27016,STOKES,DANBURY,NC
28462,BRUNSWICK,BOLIVIA,NC
28472,COLUMBUS,WHITEVILLE,NC
58545,MERCER,HAZEN,ND
58425,GRIGGS,COOPERSTOWN,ND
58072,BARNES,VALLEY CITY,ND
58506,BURLEIGH,BISMARCK,ND
58104,CASS,FARGO,ND
58301,RAMSEY,DEVIL'S LAKE,ND
58401,STUTSMAN,JAMESTOWN,ND
58045,TRAILL,HILLSBORO,ND
58237,WALSH,GRAFTON,ND
58368,PIERCE,RUGBY,ND
58852,WILLIAMS,TIOGA,ND
58746,WARD,KENMARE,ND
58701,WARD,MINOT,ND
58122,CASS,FARGO,ND
58249,CAVALIER,LANGDON,ND
40206,JEFFERSON,LOUISVILLE,KY
68137,DOUGLAS,OMAHA,NE
32809,ORANGE,ORLANDO,FL
32792,ORANGE,WINTER PARK,FL
33461,PALM BEACH,LAKE WORTH,FL
33414,PALM BEACH,WELLINGTON,FL
33701,PINELLAS,SAINT PETERSBURG,FL
33709,PINELLAS,SAINT PETERSBURG,FL
33603,HILLSBOROUGH,TAMPA,FL
33573,HILLSBOROUGH,SUN CITY CENTER,FL
34613,HERNANDO,BROOKSVILLE,FL
32348,TAYLOR,PERRY,FL
34223,SARASOTA,ENGLEWOOD,FL
34285,SARASOTA,VENICE,FL
32701,SEMINOLE,ALTAMONTE SPRINGS,FL
34952,ST. LUCIE,PORT SAINT LUCIE,FL
34484,SUMTER,OXFORD,FL
32159,SUMTER,THE VILLAGES,FL
32086,ST. JOHNS,SAINT AUGUSTINE,FL
32168,VOLUSIA,NEW SMYRNA BEACH,FL
32696,LEVY,WILLISTON,FL
33541,PASCO,ZEPHYRHILLS,FL
34655,PASCO,TRINITY,FL
33549,PASCO,LUTZ,FL
32940,BREVARD,MELBOURNE,FL
32610,ALACHUA,GAINESVILLE,FL
32606,ALACHUA,GAINESVILLE,FL
32043,CLAY,GREEN COVE SPRINGS,FL
33024,BROWARD,PEMBROKE PINES,FL
33313,BROWARD,LAUDERDALE LAKES,FL
34428,CITRUS,CRYSTAL RIVER,FL
33176,MIAMI-DADE,MIAMI,FL
33137,MIAMI-DADE,MIAMI,FL
33189,MIAMI-DADE,MIAMI,FL
45804,ALLEN,LIMA,OH
33016,MIAMI-DADE,HIALEAH,FL
33196,MIAMI-DADE,MIAMI,FL
34209,MANATEE,BRADENTON,FL
34202,MANATEE,BRADENTON,FL
36202,CALHOUN,ANNISTON,AL
85016,MARICOPA,PHOENIX,AZ
35957,MARSHALL,BOAZ,AL
35042,BIBB,CENTREVILLE,AL
85364,YUMA,YUMA,AZ
97448,LANE,JUNCTION CITY,OR
36442,COVINGTON,FLORALA,AL
35565,WINSTON,HALEYVILLE,AL
45764,ATHENS,NELSONVILLE,OH
43906,BELMONT,BELLAIRE,OH
45069,BUTLER,WEST CHESTER,OH
45121,BROWN,GEORGETOWN,OH
45014,BUTLER,FAIRFIELD,OH
36049,CRENSHAW,LUVERNE,AL
36652,MOBILE,MOBILE,AL
36604,MOBILE,MOBILE,AL
36617,MOBILE,MOBILE,AL
45177,CLINTON,WILMINGTON,OH
36111,MONTGOMERY,MONTGOMERY,AL
36867,RUSSELL,PHENIX CITY,AL
77979,CALHOUN,PORT LAVACA,TX
17109,DAUPHIN,HARRISBURG,PA
44104,CUYAHOGA,CLEVELAND,OH
44128,CUYAHOGA,WARRENSVILLE HTS,OH
44145,CUYAHOGA,WESTLAKE,OH
43512,DEFIANCE,DEFIANCE,OH
43130,FAIRFIELD,LANCASTER,OH
43228,FRANKLIN,COLUMBUS,OH
43567,FULTON,WAUSEON,OH
45211,HAMILTON,CINCINNATI,OH
45241,HAMILTON,CINCINNATI,OH
45133,HIGHLAND,HILLSBORO,OH
43952,JEFFERSON,STEUBENVILLE,OH
43050,KNOX,MOUNT VERNON,OH
44077,LAKE,PAINESVILLE,OH
44035,LORAIN,ELYRIA,OH
44011,LORAIN,AVON,OH
85008,MARICOPA,PHOENIX,AZ
43615,LUCAS,TOLEDO,OH
88415,UNION,CLAYTON,NM
87801,SOCORRO,SOCORRO,NM
86442,MOHAVE,BULLHEAD CITY,AZ
88345,LINCOLN,RUIDOSO,NM
88260,LEA,LOVINGTON,NM
88030,LUNA,DEMING,NM
85308,MARICOPA,GLENDALE,AZ
88012,DONA ANA,LAS CRUCES,NM
87114,BERNALILLO,ALBUQUERQUE,NM
87110,BERNALILLO,ALBUQUERQUE,NM
88203,CHAVES,ROSWELL,NM
87020,CIBOLA,GRANTS,NM
87144,SANDOVAL,RIO RANCHO,NM
87108,BERNALILLO,ALBUQUERQUE,NM
86326,YAVAPAI,COTTONWOOD,AZ
16365,WARREN,NORTH WARREN,PA
47129,CLARK,CLARKSVILLE,IN
46383,PORTER,VALPARAISO,IN
84081,SALT LAKE,WEST JORDAN,UT
44903,RICHLAND,MANSFIELD,OH
89030,CLARK,NORTH LAS VEGAS,NV
32440,JACKSON,GRACEVILLE,FL
44811,SANDUSKY,BELLEVUE,OH
46805,ALLEN,FORT WAYNE,IN
47201,BARTHOLOMEW,COLUMBUS,IN
55101,RAMSEY,ST PAUL,MN
43420,SANDUSKY,FREMONT,OH
45662,SCIOTO,PORTSMOUTH,OH
89301,WHITE PINE,ELY,NV
68113,SARPY,OMAHA,NE
84624,MILLARD,DELTA,UT
84032,WASATCH,HEBER,UT
46158,MORGAN,MOORESVILLE,IN
46970,MIAMI,PERU,IN
47933,MONTGOMERY,CRAWFORDSVILLE,IN
47404,MONROE,BLOOMINGTON,IN
47403,MONROE,BLOOMINGTON,IN
84647,SANPETE,MOUNT PLEASANT,UT
23113,CHESTERFIELD,MIDLOTHIAN,VA
46714,WELLS,BLUFFTON,IN
46320,LAKE,HAMMOND,IN
99506,ANCHORAGE,ANCHORAGE,AK
85027,MARICOPA,PHOENIX,AZ
47454,ORANGE,PAOLI,IN
99559,BETHEL,BETHEL,AK
46360,LAPORTE,MICHIGAN CITY,IN
44646,STARK,MASSILLON,OH
39339,WINSTON,LOUISVILLE,MS
99503,ANCHORAGE,ANCHORAGE,AK
46534,STARKE,KNOX,IN
47591,KNOX,VINCENNES,IN
44309,SUMMIT,AKRON,OH
57313,DOUGLAS,ARMOUR,SD
46725,WHITLEY,COLUMBIA CITY,IN
46237,MARION,INDIANAPOLIS,IN
85381,MARICOPA,PEORIA,AZ
85203,MARICOPA,MESA,AZ
57428,EDMUNDS,BOWDLE,SD
44648,STARK,MASSILLON,OH
15243,ALLEGHENY,PITTSBURGH,PA
19335,CHESTER,DOWNINGTOWN,PA
24134,GILES,PEARISBURG,VA
15238,ALLEGHENY,PITTSBURGH,PA
18102,LEHIGH,ALLENTOWN,PA
68371,YORK,HENDERSON,NE
85707,PIMA,TUCSON,AZ
26155,WETZEL,NEW MARTINSVILLE,WV
21784,CARROLL,SYKESVILLE,MD
26416,BARBOUR,PHILIPPI,WV
99588,VALDEZ-CORDOVA,GLENNALLEN,AK
28603,ALEXANDER,HICKORY,NC
57642,CORSON,MCLAUGHLIN,SD
24171,PATRICK,STUART,VA
17064,LEBANON,MT GRETNA,PA
99403,ASOTIN,CLARKSTON,WA
23124,NEW KENT,NEW KENT,VA
16686,BLAIR,TYRONE,PA
17257,FRANKLIN,SHIPPENSBURG,PA
19610,BERKS,WYOMISSING,PA
15009,BEAVER,BEAVER,PA
19720,NEW CASTLE,NEW CASTLE,DE
15779,WESTMORELAND,TORRANCE,PA
19047,BUCKS,LANGHORNE,PA
87124,SANDOVAL,RIO RANCHO,NM
19034,MONTGOMERY,FORT WASHINGTON,PA
16154,MERCER,TRANSFER,PA
17110,DAUPHIN,HARRSIBURG,PA
17740,LYCOMING,JERSEY SHORE,PA
17055,CUMBERLAND,MECHANICSBURG,PA
17036,DAUPHIN,HUMMELSTOWN,PA
19020,BUCKS,BENSALEM,PA
77706,JEFFERSON,BEAUMONT,TX
17233,FULTON,MCCONNELLSBURG,PA
23604,NEWPORT NEWS,FORT EUSTIS,VA
11213,KINGS,BROOKLYN,NY
15301,WASHINGTON,WASHINGTON,PA
18071,CARBON,PALMERTON,PA
19468,MONTGOMERY,ROYERSFORD,PA
18847,SUSQUEHANNA,SUSQUEHANNA,PA
17601,LANCASTER,LANCASTER,PA
17408,YORK,YORK,PA
18020,NORTHAMPTON,BETHLEHEM,PA
87401,SAN JUAN,FARMINGTON,NM
19713,NEW CASTLE,NEWARK,DE
63640,ST. FRANCOIS,FARMINGTON,MO
19805,NEW CASTLE,WILMINGTON,DE
19901,KENT,DOVER,DE
19801,NEW CASTLE,WILMINGTON,DE
54166,SHAWANO,SHAWANO,WI
34109,COLLIER,NAPLES,FL
32765,SEMINOLE,OVIEDO,FL
32218,DUVAL,JACKSONVILLE,FL
70503,LAFAYETTE,LAFAYETTE,LA
58103,CASS,FARGO,ND
89139,CLARK,LAS VEGAS,NV
89011,CLARK,HENDERSON,NV
20422,DISTRICT OF COLUMBIA,WASHINGTON,DC
32827,ORANGE,ORLANDO,FL
93702,FRESNO,FRESNO,CA
92656,ORANGE,ALISO VIEJO,CA
95138,SANTA CLARA,SAN JOSE,CA
68803,HALL,GRAND ISLAND,NE
80220,DENVER,DENVER,CO
70119,SAINT BERNARD,NEW ORLEANS,LA
27610,WAKE,RALEIGH,NC
79911,EL PASO,EL PASO,TX
77385,MONTGOMERY,THE WOODLANDS,TX
77384,MONTGOMERY,THE WOODLANDS,TX
75703,SMITH,TYLER,TX
77059,HARRIS,HOUSTON,TX
27006,DAVIE,BERMUDA RUN,NC
28451,BEAUFORT,LELAND,NC
27408,GUILFORD,GREENSBORO,NC
27403,GUILFORD,GREENSBORO,NC
28339,HARNETT,ERWIN,NC
28211,MECKLENBURG,CHARLOTTE,NC
28210,MECKLENBURG,CHARLOTTE,NC
39083,COPIAH,HAZELHURST,MS
27705,DURHAM,DURHAM,NC
27529,WAKE,GARNER,NC
48912,INGHAM,LANSING,MI
68118,DOUGLAS,OMAHA,NE
45242,HAMILTON,CINICINNATI,OH
73114,OKLAHOMA,OKLAHOMA CITY,OK
43082,DELAWARE,WESTERVILLE,OH
55432,ANOKA,FRIDLEY,MN
70601,CALCASIEU,LAKE CHARLES,LA
30812,RICHMOND,NORTH VIEW,GA
72114,PULASKI,LITTLE ROCK,AR
71203,OUACHITA,MONROE,LA
31201,BIBB,MACON,GA
70506,LAFAYETTE,LAFAYETTE,LA
70508,LAFAYETTE,LAFAYETTE,LA
20678,CALVERT,PRINCE FREDERICK,MD
20017,DISTRICT OF COLUMBIA,WASHINGTON,DC
30904,RICHMOND,AUGUSTA,GA
62269,ST. CLAIR,SHILOH,IL
80233,ADAMS,DENVER,CO
13655,FRANKLIN,AKWESASNE,NY
80020,ADAMS,WESTMINSTER,CO
46953,GRANT,MARION,IN
89511,WASHOE,RENO,NV
85247,PINAL,SACATON,AZ
87034,CIBOLA,ACOMA,NM
28719,CHEROKEE,CHEROKEE,NC
57523,GREGORY,BURKE,SD
44308,SUMMIT,AKRON,OH
50441,FRANKLIN,HAMPTON,IA
31513,APPLING,BAXLEY,GA
51455,CARROLL,MANNING,IA
31326,EFFINGHAM,RINCON,GA
24523,BEDFORD CITY,BEDFORD,VA
53916,DODGE,BEAVER DAM,WI
95482,MENDOCINO,UKIAH,CA
35046,CHILTON,CLANTON,AL
46214,MADISON,INDIANAPOLIS,IN
96929,GUAM,DEDEDO,GU
12946,ESSEX,LAKE PLACID,NY
37203,DAVIDSON,NASHVILLE,TN
59701,SILVER BOW,BUTTE,MT
40475,MADISON,RICHMOND,KY
44621,TUSCARAWAS,DENNISON,OH
76028,TARRANT,BURLESON,TX
76208,DENTON,DENTON,TX
67214,SEDGWICK,WICHITA,KS
71201,OUACHITA,MONROE,LA
70554,EVANGELINE,MAMOU,LA
71101,CADDO,SHREVEPORT,LA
80011,ARAPAHOE,AURORA,CO
70722,EAST FELICIANA,CLINTON,LA
72202,PULASKI,LITTLE ROCK,AR
28217,MECKLENBURG,CHARLOTTE,NC
17405,YORK,YORK,PA
37218,DAVIDSON,NASHVILLE,TN
74137,TULSA,TULSA,OK
31210,BIBB,MACON,GA
48706,BAY,BAY CITY,MI
48180,WAYNE,TAYLOR,MI
19129,PHILADELPHIA,PHILADELPHIA,PA
44155,CUYAHOGA,CLEVELAND,OH
44512,MAHONING,BOARDMAN,OH
85013,MARICOPA,PHOENIX,AZ
47130,CLARK,JEFFERSONVILLE,IN
19145,PHILADELPHIA,PHILADELPHIA,PA
38930,LEFLORE,GREENWOOD,MS
23507,NORFOLK,NORFOLK,VA
48109,WASHTENAW,ANN ARBOR,MI
97415,CURRY,BROOKINGS,OR
44001,LORAIN,AMHERST,OH
15006,MARICOPA,PHOENIX,AZ
73109,OKLAHOMA,OKLAHOMA CITY,OK
98201,SNOHOMISH,EVERETT,WA
26062,BROOKE,WEIRTON,WV
17033,DAUPHIN,HERSHEY,PA
83301,TWIN FALLS,TWIN FALLS,ID
86504,APACHE,FORT DEFIANCE,AZ
74010,CREEK,BRISTOW,OK
74120,TULSA,TULSA,OK
68450,JOHNSON,TECUMSEH,NE
79119,RANDALL,AMARILLO,TX
75087,ROCKWALL,ROCKWALL,TX
76248,TARRANT,KELLER,TX
78223,BEXAR,SAN ANTONIO,TX
77450,HARRIS,KATY,TX
93306,KERN,BAKERSFIELD,CA
71322,AVOYELLES,BUNKIE,LA
31774,IRWIN,OCILLA,GA
92691,ORANGE,MISSION VIEJO,CA
37916,KNOX,KNOXVILLE,TN
39501,HARRISON,GULFPORT,MS
75235,DALLAS,DALLAS,TX
75501,BOWIE,TEXARKANA,TX
77008,HARRIS,HOUSTON,TX
77702,JEFFERSON,BEAUMONT,TX
52402,LINN,CEDAR RAPIDS,IA
54487,LINCOLN,TOMAHAWK,WI
70128,ORLEANS,NEW ORLEANS,LA
30344,FULTON,EAST POINT,GA
48342,OAKLAND,PONTIAC,MI
48192,WAYNE,WYANDOTTE,MI
43222,FRANKLIN,COLUMBUS,OH
43201,FRANKLIN,COLUMBUS,OH
39216,HINDS,JACKSON,MS
79703,MIDLAND,MIDLAND,TX
78209,BEXAR,SAN ANTONIO,TX
71001,BIENVILLE,ARCADIA,LA
77057,HARRIS,HOUSTON,TX
71854,MILLER,TEXARKANA,AR
19023,DELAWARE,DARBY,PA
85007,MARICOPA,PHOENIX,AZ
68122,DOUGLAS,OMAHA,NE
39180,WARREN,VICKSBURG,MS
85251,MARICOPA,SCOTTSDALE,AZ
24503,LYNCHBURG,LYNCHBURG,VA
99702,FAIRBANKS NORTH STAR,EIELSON AFB,AK
75094,COLLIN,MURPHY,TX
28533,CRAVEN,CHERRY POINT,NC
73139,OKLAHOMA,OKLAHOMA CITY,OK
15905,CAMBRIA,JOHNSTOWN,PA
70043,ST. BERNARD,CHALMETTE,LA
11787,SUFFOLK,SMITHTOWN,NY
48532,GENESEE,FLINT,MI
48341,OAKLAND,PONTIAC,MI
49442,MUSKEGON,MUSKEGON,MI
11714,NASSAU,BETHPAGE,NY
12511,DUTCHESS,CASTLE POINT,NY
48602,SAGINAW,SAGINAW,MI
48197,WASHTENAW,YPSILANTI,MI
33128,MIAMI-DADE,MIAMI,FL
44084,ASHTABULA,ROCK CREEK,OH
68123,SARPY,BELLEVUE,NE
39401,FORREST,HATTIESBURG,MS
85704,PIMA,TUCSON,AZ
89423,DOUGLAS,MINDEN,NV
62859,HAMILTON,MCLEANSBORO,IL
62832,PERRY,DU QUOIN,IL
62930,SALINE,ELDORADO,IL
61356,BUREAU,PRINCETON,IL
61747,TAZEWELL,HOPEDALE,IL
62286,RANDOLPH,SPARTA,IL
61455,MCDONOUGH,MACOMB,IL
73110,OKLAHOMA,MIDWEST CITY,OK
73112,OKLAHOMA,OKLAHOMA CITY,OK
60098,MCHENRY,WOODSTOCK,IL
73052,GARVIN,LINDSAY,OK
57469,SPINK,REDFIELD,SD
74145,TULSA,TULSA,OK
57350,BEADLE,HURON,SD
62812,FRANKLIN,BENTON,IL
62839,CLAY,FLORA,IL
62439,LAWRENCE,LAWRENCEVILLE,IL
73159,CLEVELAND,OKLAHOMA CITY,OK
62626,MACOUPIN,CARLINVILLE,IL
99664,KENAI PENINSULA,SEWARD,AK
99929,WRANGELL-PETERSBURG,WRANGELL,AK
37083,MACON,LAFAYETTE,TN
38118,SHELBY,MEMPHIS,TN
19958,SUSSEX,LEWES,DE
38301,MADISON,JACKSON,TN
59102,YELLOWSTONE,BILLINGS,MT
37096,PERRY,LINDEN,TN
38501,PUTNAM,COOKEVILLE,TN
67002,BUTLER,ANDOVER,KS
66067,FRANKLIN,OTTAWA,KS
67748,LOGAN,OAKLEY,KS
67560,NESS,NESS CITY,KS
67846,FINNEY,GARDEN CITY,KS
67502,RENO,HUTCHINSON,KS
96734,HONOLULU,KAILUA,HI
66097,JEFFERSON,WINCHESTER,KS
67752,GOVE,QUINTER,KS
67578,STAFFORD,STAFFORD,KS
66606,SHAWNEE,TOPEKA,KS
67156,COWLEY,WINFIELD,KS
67152,SUMNER,WELLINGTON,KS
40232,JEFFERSON,LOUISVILLE,KY
96950,NOT AVAILABLE,GARAPAN,MP
76227,DENTON,AUBREY,TX
78336,SAN PATRICIO,ARANSAS PASS,TX
79606,TAYLOR,ABILENE,TX
75551,CASS,ATLANTA,TX
77701,JEFFERSON,BEAUMONT,TX
76230,MONTAGUE,BOWIE,TX
76424,STEPHENS,BRECKENRIDGE,TX
78834,DIMMIT,CARRIZO SPRINGS,TX
32505,ESCAMBIA,PENSACOLA,FL
75835,NAVARRO,CORSICANA,TX
33073,BROWARD,COCONUT CREEK,FL
33328,BROWARD,COOPER CITY,FL
75035,COLLIN,FRISCO,TX
76043,SOMERVELL,GLEN ROSE,TX
77024,HARRIS,GONZALES,TX
77006,HARRIS,HOUSTON,TX
77342,HARRIS,HOUSTON,TX
75039,DALLAS,IRVING,TX
75766,CHEROKEE,JACKSONVILLE,TX
78026,ATASCOSA,JOURDANTON,TX
79331,DAWSON,LAMESA,TX
79412,LUBBOCK,LUBBOCK,TX
76667,LIMESTONE,MEXIA,TX
62471,FAYETTE,VANDALIA,IL
78377,REFUGIO,REFUGIO,TX
78582,STARR,RIO GRANDE CITY,TX
78222,BEXAR,SAN ANTONIO,TX
76092,TARRANT,SOUTHLAKE,TX
77591,GALVESTON,TEXAS CITY,TX
62263,WASHINGTON,NASHVILLE,IL
76262,DENTON,TROPHY CLUB,TX
77488,WHARTON,WHARTON,TX
75979,TYLER,WOODVILLE,TX
77657,HARDIN,LUMBERTON,TX
79045,DEAF SMITH,HEREFORD,TX
77027,HARRIS,HOUSTON,TX
78212,BEXAR,SAN ANTONIO,TX
72858,BEXAR,SAN ANTONIO,TX
77414,MATAGORDA,BAY CITY,TX
75082,COLLIN,RICHARDSON,TX
76520,MILAM,CAMERON,TX
75006,DALLAS,CARROLLTON,TX
44120,CUYAHOGA,CLEVELAND,OH
77389,HARRIS,SPRING,TX
45040,WARREN,MASON,OH
45213,HAMILTON,CINCINNATI,OH
45237,HAMILTON,CINCINNATI,OH
76034,TARRANT,COLLEYVILLE,TX
22664,SHENANDOAH,WOODSTOCK,VA
67701,ALLEN,IOLA,KS
74464,CHEROKEE,TAHLEQUAH,OK
87327,MCKINLEY,ZUNI,NM
74571,LATIMER,TALIHINA,OK
89191,CLARK,NELLIS AFB,NV
29209,RICHLAND,COLUMBIA,SC
98168,KING,SEATTLE,WA
68701,MADISON,NORFOLK,NE
77087,HARRIS,HOUSTON,TX
75461,LAMAR,PARIS,TX
30467,SCREVEN,SYLVANIA,GA
79347,BAILEY,MULESHOE,TX
96755,HAWAII,KAPAAU,HI
76011,TARRANT,ARLINGTON,TX
77021,HARRIS,HOUSTON,TX
75785,CHEROKEE,RUSK,TX
75228,DALLAS,DALLAS,TX
76022,TARRANT,BEDFORD,TX
77407,FORT BEND,RICHMOND,TX
96763,MAUI,LANAI CITY,HI
96816,HONOLULU,HONOLULU,HI
78596,HIDALGO,WESLACO,TX
78704,TRAVIS,AUSTIN,TX
35462,GREENE,EUTAW,AL
35609,MORGAN,DECATUR,AL
35211,JEFFERSON,BIRMINGHAM,AL
36033,BUTLER,GEORGIANA,AL
52136,HOWARD,CRESCO,IA
60624,COOK,CHICAGO,IL
62040,MADISON,GRANITE CITY,IL
62249,MADISON,HIGHLAND,IL
61443,HENRY,KEWANEE,IL
92028,SAN DIEGO,FALLBROOK,CA
93001,VENTURA,VENTURA,CA
91360,VENTURA,THOUSAND OAKS,CA
95687,SOLANO,VACAVILLE,CA
90301,LOS ANGELES,INGLEWOOD,CA
90701,LOS ANGELES,CERRITOS,CA
80461,LAKE,LEADVILLE,CO
81036,KIOWA,EADS,CO
91733,LOS ANGELES,SOUTH EL MONTE,CA
92262,RIVERSIDE,PALM SPRINGS,CA
92501,RIVERSIDE,RIVERSIDE,CA
92562,RIVERSIDE,MURRIETA,CA
92595,RIVERSIDE,WILDOMAR,CA
94403,SAN MATEO,SAN MATEO,CA
93514,INYO,BISHOP,CA
94904,MARIN,GREENBRAE,CA
93240,KERN,LAKE ISABELLA,CA
95521,HUMBOLDT,ARCATA,CA
92243,IMPERIAL,EL CENTRO,CA
92227,IMPERIAL,BRAWLEY,CA
93906,MONTEREY,SALINAS,CA
92627,ORANGE,COSTA MESA,CA
92805,ORANGE,ANAHEIM,CA
95350,STANISLAUS,MODESTO,CA
93257,TULARE,PORTERVILLE,CA
31728,GRADY,CAIRO,GA
31030,PEACH,FORT VALLEY,GA
31082,WASHINGTON,SANDERSVILLE,GA
30312,FULTON,ATLANTA,GA
80130,DOUGLAS,LITTLETON,CO
80229,ADAMS,THORNTON,CO
31329,EFFINGHAM,SPRINGFIELD,GA
30635,ELBERT,ELBERTON,GA
30401,EMANUEL,SWAINSBORO,GA
43209,FRANKLIN,COLUMBUS,OH
30650,MORGAN,MADISON,GA
31907,MUSCOGEE,COLUMBUS,GA
30901,RICHMOND,AUGUSTA,GA
31063,MACON,MONTEZUMA,GA
31602,LOWNDES,VALDOSTA,GA
28425,PENDER,BURGAW,NC
95441,SONOMA,GEYSERVILLE,CA
60107,COOK,STREAMWOOD,IL
95903,YUBA,BEALE AFB,CA
70346,ASCENSION,DONALDSONVILLE,LA
70380,ST. MARY,MORGAN CITY,LA
70363,TERREBONNE,HOUMA,LA
70510,VERMILION,ABBEVILLE,LA
70070,ST. CHARLES,LULING,LA
71291,OUACHITA,WEST MONROE,LA
71303,RAPIDES,ALEXANDRIA,LA
71295,FRANKLIN,WINNSBORO,LA
70586,EVANGELINE,VILLE PLATTE,LA
70775,WEST FELICIANA,SAINT FRANCISVILLE,LA
71449,SABINE,MANY,LA
70726,LIVINGSTON,DENHAM SPRINGS,LA
70578,ACADIA,RAYNE,LA
70435,ST. TAMMANY,COVINGTON,LA
70815,EAST BATON ROUGE,BATON ROUGE,LA
92311,SAN BERNARDINO,BARSTOW,CA
92392,SAN BERNARDINO,VICTORVILLE,CA
91764,SAN BERNARDINO,ONTARIO,CA
92128,SAN DIEGO,SAN DIEGO,CA
92105,SAN DIEGO,SAN DIEGO,CA
92110,SAN DIEGO,SAN DIEGO,CA
94602,ALAMEDA,OAKLAND,CA
94601,ALAMEDA,OAKLAND,CA
93534,LOS ANGELES,LANCASTER,CA
91724,LOS ANGELES,COVINA,CA
91436,LOS ANGELES,ENCINO,CA
91791,LOS ANGELES,WEST COVINA,CA
90502,LOS ANGELES,TORRANCE,CA
96122,PLUMAS,PORTOLA,CA
95971,PLUMAS,QUINCY,CA
96020,PLUMAS,CHESTER,CA
96160,NEVADA,TRUCKEE,CA
92647,ORANGE,HUNTINGTON BEACH,CA
92670,ORANGE,PLACENTIA,CA
92705,ORANGE,SANTA ANA,CA
93291,TULARE,VISALIA,CA
93274,TULARE,TULARE,CA
31406,CHATHAM,SAVANNAH,GA
28117,IREDELL,MOORESVILLE,NC
27804,NASH,ROCKY MOUNT,NC
28401,NEW HANOVER,WILMINGTON,NC
70131,ORLEANS,NEW ORLEANS,LA
70648,ALLEN,KINDER,LA
54985,WINNEBAGO,WINNEBAGO,WI
95354,STANISLAUS,MODESTO,CA
90231,LOS ANGELES,CULVER CITY,CA
95307,STANISLAUS,CERES,CA
31014,BLECKLEY,COCHRAN,GA
53704,DANE,MADISON,WI
31093,HOUSTON,WARNER ROBINS,GA
30501,HALL,GAINESVILLE,GA
31603,LOWNDES,VALDOSTA,GA
31023,DODGE,EASTMAN,GA
30084,DEKALB,TUCKER,GA
31634,CLINCH,HOMERVILLE,GA
30223,SPALDING,GRIFFIN,GA
30096,GWINNETT,DULUTH,GA
31061,BALDWIN,MILLEDGEVILLE,GA
31520,GLYNN,BRUNSWICK,GA
30046,GWINNETT,LAWRENCEVILLE,GA
31036,PULASKI,HAWKINSVILLE,GA
31545,WAYNE,JESUP,GA
30474,TOOMBS,VIDALIA,GA
30240,TROUP,LAGRANGE,GA
71106,CADDO,SHREVEPORT,LA
70518,LAFAYETTE,BROUSSARD,LA
31021,LAURENS,DUBLIN,GA
94553,CONTRA COSTA,MARTINEZ,CA
91343,LOS ANGELES,LOS ANGELES,CA
95655,SACRAMENTO,MATHER,CA
70448,ST. TAMMANY,MANDEVILLE,LA
94158,SAN FRANCISCO,SAN FRANCISCO,CA
95969,BUTTE,PARADISE,CA
95966,BUTTE,OROVILLE,CA
96080,TEHAMA,RED BLUFF,CA
92357,SAN BERNARDINO,LOMA LINDA,CA
92335,SAN BERNARDINO,FONTANA,CA
80631,WELD,GREELEY,CO
92161,SAN DIEGO,SAN DIEGO,CA
91910,SAN DIEGO,CHULA VISTA,CA
91911,SAN DIEGO,CHULA VISTA,CA
92111,SAN DIEGO,SAN DIEGO,CA
94133,SAN FRANCISCO,SAN FRANCISCO,CA
95642,AMADOR,JACKSON,CA
93065,VENTURA,SIMI VALLEY,CA
93010,VENTURA,CAMARILLO,CA
94954,SONOMA,PETALUMA,CA
95688,SOLANO,VACAVILLE,CA
94533,SOLANO,FAIRFIELD,CA
93111,SANTA BARBARA,SANTA BARBARA,CA
93454,SANTA BARBARA,SANTA MARIA,CA
93105,SANTA BARBARA,SANTA BARBARA,CA
95531,DEL NORTE,CRESCENT CITY,CA
95249,CALAVERAS,SAN ANDREAS,CA
94704,ALAMEDA,BERKELEY,CA
94546,ALAMEDA,CASTRO VALLEY,CA
94611,ALAMEDA,OAKLAND,CA
95336,SAN JOAQUIN,MANTECA,CA
95376,SAN JOAQUIN,TRACY,CA
91768,LOS ANGELES,POMONA,CA
90015,LOS ANGELES,LOS ANGELES,CA
91767,LOS ANGELES,POMONA,CA
90704,LOS ANGELES,AVALON,CA
90048,LOS ANGELES,LOS ANGELES,CA
91723,LOS ANGELES,COVINA,CA
91790,LOS ANGELES,WEST COVINA,CA
90017,LOS ANGELES,LOS ANGELES,CA
91355,LOS ANGELES,VALENCIA,CA
91105,LOS ANGELES,PASADENA,CA
91335,LOS ANGELES,RESEDA,CA
90710,LOS ANGELES,HARBOR CITY,CA
91367,LOS ANGELES,WOODLAND HILLS,CA
90637,LOS ANGELES,LA MIRADA,CA
90056,LOS ANGELES,LOS ANGELES,CA
91328,LOS ANGELES,NORTHRIDGE,CA
90602,LOS ANGELES,WHITTIER,CA
91345,LOS ANGELES,MISSION HILLS,CA
91403,LOS ANGELES,SHERMAN OAKS,CA
90262,LOS ANGELES,LYNWOOD,CA
90801,LOS ANGELES,LONG BEACH,CA
91405,LOS ANGELES,VAN NUYS,CA
95453,LAKE,LAKEPORT,CA
92505,RIVERSIDE,RIVERSIDE,CA
92506,RIVERSIDE,RIVERSIDE,CA
95008,SANTA CLARA,CAMPBELL,CA
94305,SANTA CLARA,PALO ALTO,CA
94401,SAN MATEO,SAN MATEO,CA
94903,MARIN,SAN RAFAEL,CA
93635,MERCED,LOS BANOS,CA
93612,FRESNO,CLOVIS,CA
94598,CONTRA COSTA,WALNUT CREEK,CA
95932,COLUSA,COLUSA,CA
93311,KERN,BAKERSFIELD,CA
95816,SACRAMENTO,SACRAMENTO,CA
95988,GLENN,WILLOWS,CA
96097,SISKIYOU,YREKA,CA
81502,MESA,GRAND JUNCTION,CO
96067,SISKIYOU,MOUNT SHASTA,CA
93940,MONTEREY,MONTEREY,CA
92801,ORANGE,ANAHEIM,CA
92704,ORANGE,SANTA ANA,CA
92677,ORANGE,LAGUNA BEACH,CA
92653,ORANGE,LAGUNA HILLS,CA
92668,ORANGE,ORANGE,CA
30428,WHEELER,GLENWOOD,GA
30701,GORDON,CALHOUN,GA
30303,FULTON,ATLANTA,GA
30263,COWETA,NEWNAN,GA
30060,COBB,MARIETTA,GA
30067,COBB,MARIETTA,GA
30041,FORSYTH,CUMMING,GA
31904,MUSCOGEE,COLUMBUS,GA
39845,SEMINOLE,DONALSONVILLE,GA
30322,DEKALB,DRUID HILLS,GA
30058,DEKALB,LITHONIA,GA
30134,DOUGLAS,DOUGLASVILLE,GA
71282,MADISON,TALLULAH,LA
70441,ST. HELENA,GREENSBURG,LA
71075,WEBSTER,SPRINGHILL,LA
70808,EAST BATON ROUGE,BATON ROUGE,LA
70607,CALCASIEU,LAKE CHARLES,LA
71105,CADDO,SHREVEPORT,LA
53719,DANE,MADISON,WI
53963,DODGE,WAUPUN,WI
54729,CHIPPEWA,CHIPPEWA FALLS,WI
71115,CADDO,SHREVEPORT,LA
53792,DANE,MADISON,WI
53098,DODGE,WATERTOWN,WI
53566,GREEN,MONROE,WI
54981,WAUPACA,WAUPACA,WI
53718,DANE,MADISON,WI
34210,MANATEE,BRADENTON,FL
77072,HARRIS,HOUSTON,TX
66441,GEARY,JUNCTION CITY,KS
52246,JOHNSON,IOWA CITY,IA
71958,PIKE,MURFREESBORO,AR
72653,BAXTER,MOUNTAIN HOME,AR
72576,FULTON,SALEM,AR
72801,POPE,RUSSELLVILLE,AR
72450,GREENE,PARAGOULD,AR
72501,INDEPENDENCE,BATESVILLE,AR
66861,MARION,MARION,KS
72701,WASHINGTON,FAYETTEVILLE,AR
72712,BENTON,BENTONVILLE,AR
72756,BENTON,ROGERS,AR
85351,MARICOPA,SUN CITY,AZ
42602,CLINTON,ALBANY,KY
42743,GREEN,GREENSBURG,KY
40311,NICHOLAS,CARLISLE,KY
71852,HOWARD,NASHVILLE,AR
40359,OWEN,OWENTON,KY
20646,CHARLES,LA PLATA,MD
20832,MONTGOMERY,OLNEY,MD
20707,PRINCE GEORGE'S,LAUREL,MD
20903,PRINCE GEORGE'S,SILVER SPRING,MD
48755,HURON,PIGEON,MI
48441,HURON,HARBOR BEACH,MI
48879,CLINTON,SAINT JOHNS,MI
49635,BENZIE,FRANKFORT,MI
48811,MONTCALM,CARSON CITY,MI
49412,NEWAYGO,FREMONT,MI
49307,MECOSTA,BIG RAPIDS,MI
49677,OSCEOLA,REED CITY,MI
48617,CLARE,CLARE,MI
49093,ST. JOSEPH,THREE RIVERS,MI
49783,CHIPPEWA,SAULT SAINTE MARIE,MI
49946,BARAGA,L' ANSE,MI
48176,WASHTENAW,SALINE,MI
49102,BERRIEN,BERRIEN CENTER,MI
56215,SWIFT,BENSON,MN
65109,COLE,JEFFERSON CITY,MO
64116,CLAY,NORTH KANSAS CITY,MO
64402,GENTRY,ALBANY,MO
64063,JACKSON,LEE'S SUMMIT,MO
64701,CASS,HARRISONVILLE,MO
63368,ST. CHARLES,O'FALLON,MO
65101,COLE,JEFFERSON CITY,MO
63555,SCOTLAND,MEMPHIS,MO
63104,ST. LOUIS CITY,ST. LOUIS,MO
65548,HOWELL,MOUNTAIN VIEW,MO
65616,TANEY,BRANSON,MO
63501,ADAIR,KIRKSVILLE,MO
21902,CECIL,PERRY POINT,MD
63353,PIKE,LOUISIANA,MO
63701,CAPE GIRARDEAU,CAPE GIRARDEAU,MO
63901,BUTLER,POPLAR BLUFF,MO
57625,ZIEBACH,EAGLE BUTTE,SD
39422,JASPER,BAY SPRINGS,MS
27549,FRANKLIN,LOUISBURG,NC
27330,LEE,SANFORD,NC
27565,GRANVILLE,OXFORD,NC
28744,MACON,FRANKLIN,NC
28741,MACON,HIGHLANDS,NC
28779,JACKSON,SYLVA,NC
27533,WAYNE,GOLDSBORO,NC
99574,VALDEZ-CORDOVA,CORDOVA,AK
27536,VANCE,HENDERSON,NC
28607,WATAUGA,BOONE,NC
27030,SURRY,MOUNT AIRY,NC
28621,SURRY,ELKIN,NC
28675,ALLEGHANY,SPARTA,NC
27216,ALAMANCE,BURLINGTON,NC
28640,ASHE,JEFFERSON,NC
28722,POLK,COLUMBUS,NC
28602,CATAWBA,HICKORY,NC
28352,SCOTLAND,LAURINBURG,NC
28777,MITCHELL,SPRUCE PINE,NC
27371,MONTGOMERY,TROY,NC
27959,DARE,NAGS HEAD,NC
28541,ONSLOW,JACKSONVILLE,NC
28017,CLEVELAND,SHELBY,NC
58318,BOTTINEAU,BOTTINEAU,ND
58639,ADAMS,HETTINGER,ND
58552,EMMONS,LINTON,ND
58623,BOWMAN,BOWMAN,ND
28547,ONSLOW,CAMP LEJEUNE,NC
58316,ROLETTE,BELCOURT,ND
58341,WELLS,HARVEY,ND
58601,STARK,DICKINSON,ND
85344,LA PAZ,PARKER,AZ
85018,MARICOPA,PHOENIX,AZ
47362,HENRY,NEW CASTLE,IN
68506,LANCASTER,LINCOLN,NE
46901,HOWARD,KOKOMO,IN
32561,SANTA ROSA,GULF BREEZE,FL
32250,DUVAL,JACKSONVILLE BEACH,FL
32224,DUVAL,JACKSONVILLE,FL
32550,WALTON,MIRAMAR BEACH,FL
32424,CALHOUN,BLOUNTSTOWN,FL
32034,NASSAU,FERNANDINA BEACH,FL
96727,HAWAII,HONOKAA,HI
18235,CARBON,LEHIGHTON,PA
18431,WAYNE,HONESDALE,PA
89451,WASHOE,INCLINE VILLAGE,NV
16001,BUTLER,BUTLER,PA
19565,BERKS,WERNERSVILLE,PA
18657,WYOMING,TUNKHANNOCK,PA
15537,BEDFORD,EVERETT,PA
15213,ALLEGHENY,PITTSBURGH,PA
79782,MARTIN,STANTON,TX
68763,HOLT,O'NEILL,NE
15132,ALLEGHENY,MCKEESPORT,PA
15143,ALLEGHENY,SEWICKLEY,PA
15241,ALLEGHENY,PITTSBURGH,PA
18603,COLUMBIA,BERWICK,PA
89447,LYON,YERINGTON,NV
19118,PHILADELPHIA,PHILADELPHIA,PA
19102,PHILADELPHIA,PHILADELPHIA,PA
69210,BROWN,AINSWORTH,NE
19152,PHILADELPHIA,PHILADELPHIA,PA
19128,PHILADELPHIA,PHILADELPHIA,PA
16828,CENTRE,CENTRE HALL,PA
44622,TUSCARAWAS,DOVER,OH
43040,UNION,MARYSVILLE,OH
16803,CENTRE,STATE COLLEGE,PA
16646,CAMBRIA,HASTINGS,PA
19320,CHESTER,COATESVILLE,PA
19380,CHESTER,WEST CHESTER,PA
89008,LINCOLN,CALIENTE,NV
19355,CHESTER,MALVERN,PA
89820,LANDER,BATTE MTN,NV
89415,MINERAL,HAWTHORNE,NV
89049,NYE,TONOPAH,NV
85602,COCHISE,BENSON,AZ
18702,LUZERNE,WILKES-BARRE,PA
85643,COCHISE,WILLCOX,AZ
18017,LEHIGH,BETHLEHEM,PA
16105,LAWRENCE,NEW CASTLE,PA
64154,PLATTE,KANSAS CITY,MO
68959,KEARNEY,MINDEN,NE
17801,NORTHUMBERLAND,SUNBURY,PA
17603,LANCASTER,LANCASTER,PA
18510,LACKAWANNA,SCRANTON,PA
45631,GALLIA,GALLIPOLIS,OH
85724,PIMA,TUCSON,AZ
17543,LANCASTER,LITITZ,PA
17604,LANCASTER,LANCASTER,PA
47750,VANDERBURGH,EVANSVILLE,IN
86409,MOHAVE,KINGMAN,AZ
31405,CHATHAM,SAVANNAH,GA
43506,WILLIAMS,BRYAN,OH
22908,ALBEMARLE,CHARLOTTESVILLE,VA
55404,HENNEPIN,MINNEAPOLIS,MN
55440,HENNEPIN,ST LOUIS PARK,MN
24354,SMYTH,MARION,VA
55744,ITASCA,GRAND RAPIDS,MN
58220,PEMBINA,CAVALIER,ND
29566,HORRY,LITTLE RIVER,SC
56136,LINCOLN,HENDRICKS,MN
56175,LYON,TRACY,MN
14895,ALLEGANY,WELLSVILLE,NY
74502,PITTSBURG,MCALESTER,OK
97467,DOUGLAS,REEDSPORT,OR
97756,DESCHUTES,REDMOND,OR
12534,COLUMBIA,HUDSON,NY
97630,LAKE,LAKEVIEW,OR
97601,KLAMATH,KLAMATH FALLS,OR
20190,FAIRFAX,RESTON,VA
45428,MONTGOMERY,DAYTON,OH
23667,HAMPTON,HAMPTON,VA
97850,UNION,LA GRANDE,OR
97338,POLK,DALLAS,OR
98807,CHELAN,WENATCHEE,WA
97128,YAMHILL,MCMINNVILLE,OR
97330,BENTON,CORVALLIS,OR
79529,KNOX,KNOX CITY,TX
14830,STEUBEN,CORNING,NY
61107,WINNEBAGO,ROCKFORD,IL
60936,FORD,GIBSON CITY,IL
61520,FULTON,CANTON,IL
21620,KENT,CHESTERTOWN,MD
75418,FANNIN,BONHAM,TX
76634,BOSQUE,CLIFTON,TX
61938,COLES,MATTOON,IL
79512,MITCHELL,COLORADO CITY,TX
76360,WICHITA,ELECTRA,TX
79521,HASKELL,HASKELL,TX
21133,BALTIMORE,RANDALLSTOWN,MD
38120,SHELBY,MEMPHIS,TN
77480,BRAZORIA,SWEENY,TX
60608,COOK,CHICAGO,IL
60641,COOK,CHICAGO,IL
79095,COLLINGSWORTH,WELLINGTON,TX
60141,COOK,HINES,IL
61727,DE WITT,CLINTON,IL
25951,SUMMERS,HINTON,WV
42167,MONROE,TOMPKINSVILLE,KY
40353,MONTGOMERY,MT. STERLING,KY
26354,TAYLOR,GRAFTON,WV
73651,KIOWA,HOBART,OK
74953,LE FLORE,POTEAU,OK
73034,OKLAHOMA,EDMOND,OK
61021,LEE,DIXON,IL
61764,LIVINGSTON,PONTIAC,IL
73120,OKLAHOMA,OKLAHOMA CITY,OK
41008,CARROLL,CARROLLTON,KY
42502,PULASKI,SOMERSET,KY
73129,OKLAHOMA,OKLAHOMA CITY,OK
73141,OKLAHOMA,OKLAHOMA CITY,OK
62521,MACON,DECATUR,IL
62088,MACOUPIN,STAUNTON,IL
21601,TALBOT,EASTON,MD
73008,OKLAHOMA,BETHANY,OK
42064,CRITTENDEN,MARION,KY
21157,CARROLL,WESTMINSTER,MD
73075,GARVIN,PAULS VALLEY,OK
73080,MCCLAIN,PURCELL,OK
73448,LOVE,MARIETTA,OK
73044,LOGAN,GUTHRIE,OK
74864,LINCOLN,PRAGUE,OK
74079,LINCOLN,STROUD,OK
60187,DUPAGE,WHEATON,IL
73573,JEFFERSON,WAURIKA,OK
74848,HUGHES,HOLDENVILLE,OK
21811,WORCESTER,BERLIN,MD
73550,HARMON,HOLLIS,OK
29461,BERKELEY,MONCKS CORNER,SC
77002,HARRIS,HOUSTON,TX
73460,JOHNSTON,TISHOMINGO,OK
59756,DEER LODGE,WARM SPRINGS,MT
66213,JOHNSON,OVERLAND PARK,KS
77566,BRAZORIA,LAKE JACKSON,TX
78045,WEBB,LAREDO,TX
77351,POLK,LIVINGSTON,TX
51031,PLYMOUTH,LE MARS,IA
78504,HIDALGO,MCALLEN,TX
75069,COLLIN,MCKINNEY,TX
76180,TARRANT,NORTH RICHLAND HILLS,TX
61265,ROCK ISLAND,MOLINE,IL
76384,WILBARGER,VERNON,TX
87106,BERNALILLO,ALBUQUERQUE,NM
78233,BEXAR,LIVE OAK,TX
78235,BEXAR,SAN ANTONIO,TX
79714,ANDREWS,ANDREWS,TX
77833,WASHINGTON,BRENHAM,TX
74538,COAL,COALGATE,OK
97504,JACKSON,MEDFORD,OR
75243,DALLAS,DALLAS,TX
97124,WASHINGTON,HILLSBORO,OR
76234,WISE,DECATUR,TX
43219,FRANKLIN,COLUMBUS,OH
56633,CASS,CASS LAKE,MN
57741,MEADE,FORT MEADE,SD
55902,OLMSTED,ROCHESTER,MN
55792,ST. LOUIS,VIRGINIA,MN
52804,SCOTT,DAVENPORT,IA
68310,GAGE,BEATRICE,NE
67357,LABETTE,PARSONS,KS
73072,CLEVELAND,NORMAN,OK
31750,BEN HILL,FITZGERALD,GA
45044,BUTLER,MIDDLETOWN,OH
45036,WARREN,LEBANON,OH
46410,LAKE,MERRILLVILLE,IN
79756,WARD,MONAHANS,TX
78756,TRAVIS,AUSTIN,TX
79081,HANSFORD,SPEARMAN,TX
78232,BEXAR,SAN ANTONIO,TX
79930,EL PASO,EL PASO,TX
78962,COLORADO,WEIMAR,TX
78207,BEXAR,SAN ANTONIO,TX
75605,GREGG,LONGVIEW,TX
96813,HONOLULU,HONOLULU,HI
36420,COVINGTON,ANDALUSIA,AL
36693,MOBILE,MOBILE,AL
96777,HAWAII,PAHALA,HI
51601,PAGE,SHENANDOAH,IA
50208,JASPER,NEWTON,IA
50644,BUCHANAN,INDEPENDENCE,IA
52591,KEOKUK,SIGOURNEY,IA
51503,POTTAWATTAMIE,COUNCIL BLUFFS,IA
52537,DAVIS,BLOOMFIELD,IA
51640,FREMONT,HAMBURG,IA
50638,GRUNDY,GRUNDY CENTER,IA
52052,CLAYTON,GUTTENBERG,IA
50423,HANCOCK,BRITT,IA
60515,DUPAGE,DOWNERS GROVE,IL
60123,KANE,ELGIN,IL
60202,COOK,EVANSTON,IL
60435,WILL,JOLIET,IL
80634,WELD,GREELEY,CO
31522,GLYNN,ST. SIMONS,GA
81416,DELTA,DELTA,CO
80734,PHILLIPS,HOLYOKE,CO
80459,GRAND,KREMMLING,CO
30453,TATTNALL,REIDSVILLE,GA
30458,BULLOCH,STATESBORO,GA
30906,RICHMOND,AUGUSTA,GA
30909,RICHMOND,AUGUSTA,GA
31717,DECATUR,BAINBRIDGE,GA
28093,LINCOLN,LINCOLNTON,NC
30673,WILKES,WASHINGTON,GA
93561,KERN,TEHACHAPI,CA
46904,HOWARD,KOKOMO,IN
81648,RIO BLANCO,RANGELY,CO
91786,SAN BERNARDINO,UPLAND,CA
81501,MESA,GRAND JUNCTION,CO
80538,LARIMER,LOVELAND,CO
54409,LANGLADE,ANTIGO,WI
53105,RACINE,BURLINGTON,WI
73162,OKLAHOMA,OKLAHOMA CITY,OK
52761,MUSCATINE,MUSCATINE,IA
81082,LAS ANIMAS,TRINIDAD,CO
81003,PUEBLO,PUEBLO,CO
23219,RICHMOND CITY,RICHMOND,VA
20001,DISTRICT OF COLUMBIA,WASHINGTON,DC
19709,NEW CASTLE,MIDDLETOWN,DE
33511,HILLSBOROUGH,BRANDON,FL
34110,COLLIER,NAPLES,FL
23298,RICHMOND CITY,RICHMOND,VA
34119,COLLIER,NAPLES,FL
34987,ST. LUCIE,PORT SAINT LUCIE,FL
33713,PINELLAS,SAINT PETERSBURG,FL
51245,O'BRIEN,PRIMGHAR,IA
50841,ADAMS,CORNING,IA
51449,CALHOUN,LAKE CITY,IA
50849,ADAIR,GREENFIELD,IA
50010,STORY,AMES,IA
50677,BREMER,WAVERLY,IA
52057,DELAWARE,MANCHESTER,IA
52060,JACKSON,MAQUOKETA,IA
50220,DALLAS,PERRY,IA
52577,MAHASKA,OSKALOOSA,IA
83805,BOUNDARY,BONNERS FERRY,ID
67420,MITCHELL,BELOIT,KS
43608,LUCAS,TOLEDO,OH
39069,JEFFERSON,FAYETTE,MS
59901,FLATHEAD,KALISPELL,MT
67544,BARTON,HOISINGTON,KS
66434,BROWN,HIAWATHA,KS
66436,JACKSON,HOLTON,KS
67022,SUMNER,CALDWELL,KS
19973,SUSSEX,SEAFORD,DE
72342,PHILLIPS,HELENA,AR
72830,JOHNSON,CLARKSVILLE,AR
72370,MISSISSIPPI,OSCEOLA,AR
72118,PULASKI,NORTH LITTLE ROCK,AR
71801,HEMPSTEAD,HOPE,AR
85378,MARICOPA,SURPRISE,AZ
85392,MARICOPA,AVONDALE,AZ
67855,STANTON,JOHNSON,KS
72015,SALINE,BENTON,AR
85713,PIMA,TUCSON,AZ
40509,FAYETTE,LEXINGTON,KY
40508,FAYETTE,LEXINGTON,KY
20814,MONTGOMERY,BETHESDA,MD
80907,EL PASO,COLORADO SPRINGS,CO
48670,MIDLAND,MIDLAND,MI
48105,WASHTENAW,ANN ARBOR,MI
48038,MACOMB,CLINTON TOWNSHIP,MI
48503,GENESEE,FLINT,MI
49423,OTTAWA,HOLLAND,MI
49464,OTTAWA,ZEELAND,MI
48073,OAKLAND,ROYAL OAK,MI
48336,OAKLAND,FARMINGTON HILLS,MI
48322,OAKLAND,W BLOOMFIELD,MI
48382,OAKLAND,COMMERCE TOWNSHIP,MI
49007,KALAMAZOO,KALAMAZOO,MI
49201,JACKSON,JACKSON,MI
49068,CALHOUN,MARSHALL,MI
49090,VAN BUREN,SOUTH HAVEN,MI
49010,ALLEGAN,ALLEGAN,MI
48184,WAYNE,WAYNE,MI
38834,ALCORN,CORINTH,MS
48446,LAPEER,LAPEER,MI
49930,HOUGHTON,HANCOCK,MI
49829,DELTA,ESCANABA,MI
49684,GRAND TRAVERSE,TRAVERSE CITY,MI
49738,CRAWFORD,GRAYLING,MI
48608,SAGINAW,SAGINAW,MI
55805,ST. LOUIS,DULUTH,MN
56183,COTTONWOOD,WESTBROOK,MN
64024,CLAY,EXCELSIOR SPRINGS,MO
63117,ST. LOUIS,RICHMOND HEIGHTS,MO
63118,ST. LOUIS CITY,ST. LOUIS,MO
63401,MARION,HANNIBAL,MO
63645,MADISON,FREDERICKTOWN,MO
65536,LACLEDE,LEBANON,MO
64468,NODAWAY,MARYVILLE,MO
63139,ST. LOUIS CITY,ST. LOUIS,MO
65265,AUDRAIN,MEXICO,MO
65270,RANDOLPH,MOBERLY,MO
63841,STODDARD,DEXTER,MO
63801,SCOTT,SIKESTON,MO
65251,CALLAWAY,FULTON,MO
63851,PEMISCOT,HAYTI,MO
65605,LAWRENCE,AURORA,MO
65712,LAWRENCE,MOUNT VERNON,MO
64628,LINN,BROOKFIELD,MO
63106,ST. LOUIS CITY,SAINT LOUIS,MO
39404,FORREST,HATTIESBURG,MS
39355,CLARKE,QUITMAN,MS
33770,PINELLAS,LARGO,FL
39301,LAUDERDALE,MERIDIAN,MS
39304,LAUDERDALE,MERIDIAN,MS
39654,LAWRENCE,MONTICELLO,MS
19803,NEW CASTLE,WILMINGTON,DE
39402,LAMAR,HATTIESBURG,MS
83110,LINCOLN,AFTON,WY
82414,PARK,CODY,WY
82443,HOT SPRINGS,THERMOPOLIS,WY
82520,FREMONT,LANDER,WY
82301,CARBON,RAWLINS,WY
82401,WASHAKIE,WORLAND,WY
82930,UINTA,EVANSTON,WY
36078,ELMORE,TALLASSEE,AL
82633,CONVERSE,DOUGLAS,WY
82902,SWEETWATER,ROCK SPRINGS,WY
82716,CAMPBELL,GILLETTE,WY
82601,NATRONA,CASPER,WY
59715,GALLATIN,BOZEMAN,MT
28053,GASTON,GASTONIA,NC
28150,CLEVELAND,SHELBY,NC
28403,NEW HANOVER,WILMINGTON,NC
27710,DURHAM,DURHAM,NC
27157,FORSYTH,WINSTON-SALEM,NC
28503,LENOIR,KINSTON,NC
27607,WAKE,RALEIGH,NC
27620,WAKE,RALEIGH,NC
27614,WAKE,RALEIGH,NC
70505,OUACHITA,MONROE,LA
28111,UNION,MONROE,NC
27835,PITT,GREENVILLE,NC
27288,ROCKINGHAM,EDEN,NC
27320,ROCKINGHAM,REIDSVILLE,NC
27204,RANDOLPH,ASHEBORO,NC
28379,RICHMOND,ROCKINGHAM,NC
28345,RICHMOND,HAMLET,NC
27514,ORANGE,CHAPEL HILL,NC
58267,GRAND FORKS,NORTHWOOD,ND
58208,GRAND FORKS,GRAND FORKS,ND
58102,CASS,FARGO,ND
82834,JOHNSON,BUFFALO,WY
82729,CROOK,SUNDANCE,WY
82410,BIG HORN,BASIN,WY
82431,BIG HORN,LOVELL,WY
82225,NIOBRARA,LUSK,WY
82701,WESTON,NEWCASTLE,WY
82240,GOSHEN,TORRINGTON,WY
82201,PLATTE,WHEATLAND,WY
68010,DOUGLAS,BOYS TOWN,NE
83101,LINCOLN,KEMMERER,WY
32819,ORANGE,ORLANDO,FL
32751,ORANGE,MAITLAND,FL
32826,ORANGE,ORLANDO,FL
34744,OSCEOLA,KISSIMMEE,FL
33486,PALM BEACH,BOCA RATON,FL
68046,SARPY,PAPILLION,NE
33462,PALM BEACH,ATLANTIS,FL
33458,PALM BEACH,JUPITER,FL
33430,PALM BEACH,BELLE GLADE,FL
33470,PALM BEACH,LOXAHATCHEE,FL
32177,PUTNAM,PALATKA,FL
32778,LAKE,TAVARES,FL
45817,ALLEN,BLUFFTON,OH
34711,LAKE,CLERMONT,FL
32958,INDIAN RIVER,SEBASTIAN,FL
33873,HARDEE,WAUCHULA,FL
32456,GULF,PORT SAINT JOE,FL
33744,PINELLAS,BAY PINES,FL
33705,PINELLAS,SAINT PETERSBURG,FL
34695,PINELLAS,SAFETY HARBOR,FL
33614,HILLSBOROUGH,TAMPA,FL
34113,COLLIER,NAPLES,FL
34266,DESOTO,ARCADIA,FL
33912,LEE,FORT MYERS,FL
33936,LEE,LEHIGH ACRES,FL
32763,VOLUSIA,ORANGE CITY,FL
34637,PASCO,LAND O LAKES,FL
34652,PASCO,NEW PORT RICHEY,FL
33831,POLK,BARTOW,FL
32329,FRANKLIN,APALACHICOLA,FL
32164,FLAGLER,PALM COAST,FL
32907,BREVARD,PALM BAY,FL
32091,BRADFORD,STARKE,FL
32605,ALACHUA,GAINESVILLE,FL
32608,ALACHUA,GAINESVILLE,FL
32073,CLAY,ORANGE PARK,FL
33316,BROWARD,FORT LAUDERDALE,FL
33351,BROWARD,SUNRISE,FL
33020,BROWARD,HOLLYWOOD,FL
33324,BROWARD,PLANTATION,FL
33952,CHARLOTTE,PORT CHARLOTTE,FL
33050,MONROE,MARATHON,FL
33013,MIAMI-DADE,HIALEAH,FL
33157,MIAMI-DADE,MIAMI,FL
33175,MIAMI-DADE,MIAMI,FL
33161,MIAMI-DADE,NORTH MIAMI,FL
33018,MIAMI-DADE,HIALEAH GARDENS,FL
34994,MARTIN,STUART,FL
44805,ASHLAND,ASHLAND,OH
44041,ASHTABULA,GENEVA,OH
36507,BALDWIN,BAY MINETTE,AL
85037,MARICOPA,PHOENIX,AZ
85234,MARICOPA,GILBERT,AZ
85306,MARICOPA,GLENDALE,AZ
85020,MARICOPA,PHOENIX,AZ
85054,MARICOPA,PHOENIX,AZ
35209,JEFFERSON,BIRMINGHAM,AL
85297,MARICOPA,GILBERT,AZ
44030,ASHTABULA,CONNEAUT,OH
35212,JEFFERSON,BIRMINGHAM,AL
85390,MARICOPA,WICKENBURG,AZ
35205,JEFFERSON,BIRMINGHAM,AL
35235,JEFFERSON,BIRMINGHAM,AL
85501,GILA,GLOBE,AZ
86001,COCONINO,FLAGSTAFF,AZ
85603,COCHISE,BISBEE,AZ
36904,CHOCTAW,BUTLER,AL
85938,APACHE,SPRINGERVILLE,AZ
85546,GRAHAM,SAFFORD,AZ
86301,YAVAPAI,PRESCOTT VALLEY,AZ
85140,PINAL,SAN TAN VALLEY,AZ
85621,SANTA CRUZ,NOGALES,AZ
44004,ASHTABULA,ASHTABULA,OH
97754,CROOK,PRINEVILLE,OR
36340,GENEVA,GENEVA,AL
70127,ORLEANS,NEW ORLEANS,LA
36037,BUTLER,GREENVILLE,AL
36744,HALE,GREENSBORO,AL
43713,BELMONT,BARNESVILLE,OH
43935,BELMONT,MARTINS FERRY,OH
45011,BUTLER,HAMILTON,OH
45013,BUTLER,HAMILTON,OH
36545,CLARKE,JACKSON,AL
35758,MADISON,MADISON,AL
36607,MOBILE,MOBILE,AL
36685,MOBILE,MOBILE,AL
36608,MOBILE,MOBILE,AL
36461,MONROE,MONROEVILLE,AL
43920,COLUMBIANA,EAST LIVERPOOL,OH
35661,COLBERT,MUSCLE SHOALS,AL
36801,LEE,OPELIKA,AL
44124,CUYAHOGA,MAYFIELD HEIGHTS,OH
35653,FRANKLIN,RUSSELLVILLE,AL
35768,JACKSON,SCOTTSBORO,AL
36081,PIKE,TROY,AL
14224,ERIE,WEST SENECA,NY
44130,CUYAHOGA,MIDDLEBURG HEIGHTS,OH
35404,TUSCALOOSA,TUSCALOOSA,AL
35594,MARION,WINFIELD,AL
19403,MONTGOMERY,EAST NORRITON,PA
16602,BLAIR,ALTOONA,PA
44109,CUYAHOGA,CLEVELAND,OH
10958,ORANGE,NEW HAMPTON,NY
14213,ERIE,BUFFALO,NY
13904,BROOME,BINGHAMTON,NY
11426,QUEENS,BELLEROSE,NY
11427,QUEENS,QUEENS VILLAGE,NY
44870,ERIE,SANDUSKY,OH
43110,FAIRFIELD,CANAL WINCHESTER,OH
43215,FRANKLIN,COLUMBUS,OH
13403,ONEIDA,MARCY,NY
43699,LUCAS,TOLEDO,OH
51101,WOODBURY,SIOUX CITY,IA
43138,HOCKING,LOGAN,OH
44024,GEAUGA,CHARDON,OH
45669,LAWRENCE,PROCTORVILLE,OH
44053,LORAIN,LORAIN,OH
44067,SUMMIT,NORTHFIELD,OH
86426,MOHAVE,FORT MOHAVE,AZ
85224,MARICOPA,CHANDLER,AZ
87544,LOS ALAMOS,LOS ALAMOS,NM
88210,EDDY,ARTESIA,NM
85302,MARICOPA,GLENDALE,AZ
87532,RIO ARRIBA,ESPANOLA,NM
88101,CURRY,CLOVIS,NM
89005,CLARK,BOULDER CITY,NV
89403,LYON,DAYTON,NV
89109,CLARK,LAS VEGAS,NV
89052,CLARK,HENDERSON,NV
45459,MONTGOMERY,CENTERVILLE,OH
89801,ELKO,ELKO,NV
89832,ELKO,OWYHEE,NV
89502,WASHOE,RENO,NV
89503,WASHOE,RENO,NV
46733,ADAMS,DECATUR,IN
47348,BLACKFORD,HARTFORD CITY,IN
89118,CLARK,LAS VEGAS,NV
89113,CLARK,LAS VEGAS,NV
89144,CLARK,LAS VEGAS,NV
89169,CLARK,LAS VEGAS,NV
89086,CLARK,NORTH LAS VEGAS,NV
45365,SHELBY,SIDNEY,OH
47715,VANDERBURGH,EVANSVILLE,IN
84103,SALT LAKE,SALT LAKE CITY,UT
45207,HAMILTON,CINCINNATI,OH
14103,ORLEANS,MEDINA,NY
84535,SAN JUAN,MONTICELLO,UT
46526,ELKHART,GOSHEN,IN
47240,DECATUR,GREENSBURG,IN
47978,JASPER,RENSSELAER,IN
99508,ANCHORAGE,ANCHORAGE,AK
50702,BLACK HAWK,WATERLOO,IA
44601,STARK,ALLIANCE,OH
52501,WAPELLO,OTTUMWA,IA
46628,ST. JOSEPH,SOUTH BEND,IN
10528,WESTCHESTER,HARRISON,NY
46256,MARION,INDIANAPOLIS,IN
46227,MARION,INDIANAPOLIS,IN
46226,MARION,INDIANAPOLIS,IN
57325,BRULE,CHAMBERLAIN,SD
85031,MARICOPA,PHOENIX,AZ
57013,LINCOLN,CANTON,SD
47371,JAY,PORTLAND,IN
57438,FAULK,FAULKTON,SD
57262,ROBERTS,SISSETON,SD
47112,HARRISON,CORYDON,IN
32547,OKALOOSA,FORT WALTON BEACH,FL
32060,SUWANNEE,LIVE OAK,FL
44304,SUMMIT,AKRON,OH
32504,ESCAMBIA,PENSACOLA,FL
32204,DUVAL,JACKSONVILLE,FL
57430,MARSHALL,BRITTON,SD
32324,GADSDEN,CHATTAHOOCHEE,FL
32063,BAKER,MACCLENNY,FL
44505,MAHONING,YOUNGSTOWN,OH
16346,VENANGO,SENECA,PA
19612,BERKS,READING,PA
16601,BLAIR,ALTOONA,PA
57042,LAKE,MADISON,SD
19141,PHILADELPHIA,PHILADELPHIA,PA
18201,LUZERNE,HAZLETON,PA
15767,JEFFERSON,PUNXSUTAWNEY,PA
15825,JEFFERSON,BROOKVILLE,PA
16701,MCKEAN,BRADFORD,PA
17268,FRANKLIN,WAYNESBORO,PA
15857,ELK,ST MARYS,PA
44906,RICHLAND,MANSFIELD,OH
46802,ALLEN,FORT WAYNE,IN
16509,ERIE,ERIE,PA
15232,ALLEGHENY,PITTSBURGH,PA
85283,MARICOPA,TEMPE,AZ
85120,PINAL,APACHE JUNCTION,AZ
85304,MARICOPA,GLENDALE,AZ
46135,PUTNAM,GREENCASTLE,IN
47834,CLAY,BRAZIL,IN
47394,RANDOLPH,WINCHESTER,IN
85745,PIMA,TUCSON,AZ
85147,PINAL,SACATON,AZ
65775,HOWELL,WEST PLAINS,MO
39813,CALHOUN,ARLINGTON,GA
31510,BACON,ALMA,GA
47374,WAYNE,RICHMOND,IN
86505,APACHE,GANADO,AZ
86047,NAVAJO,WINSLOW,AZ
47906,TIPPECANOE,WEST LAFAYETTE,IN
15650,WESTMORELAND,LATROBE,PA
43302,MARION,MARION,OH
43229,FRANKLIN,COLUMBUS,OH
30092,GWINNETT,NORCROSS,GA
31730,MITCHELL,CAMILLA,GA
43614,LUCAS,TOLEDO,OH
46290,HAMILTON,INDIANAPOLIS,IN
30180,CARROLL,VILLA RICA,GA
30824,MCDUFFIE,THOMSON,GA
63638,REYNOLDS,ELLINGTON,MO
46260,MARION,INDIANAPOLIS,IN
57006,BROOKINGS,BROOKINGS,SD
45502,CLARK,SPRINGFIELD,OH
14108,NIAGARA,NEWFANE,NY
23666,HAMPTON,HAMPTON,VA
47274,JACKSON,SEYMOUR,IN
43402,WOOD,BOWLING GREEN,OH
57069,CLAY,VERMILLION,SD
57380,CHARLES MIX,WAGNER,SD
70526,ACADIA,CROWLEY,LA
97411,COOS,SE BANDON,OR
13815,CHENANGO,NORWICH,NY
22044,FAIRFAX,FALLS CHURCH,VA
23413,NORTHAMPTON,NASSAWADOX,VA
22701,CULPEPER,CULPEPER,VA
22554,STAFFORD,STAFFORD,VA
24382,WYTHE,WYTHEVILLE,VA
24219,WISE,BIG STONE GAP,VA
24210,WASHINGTON,ABINGDON,VA
23230,HENRICO,RICHMOND,VA
24266,RUSSELL,LEBANON,VA
24651,TAZEWELL,TAZEWELL,VA
73834,HARPER,BUFFALO,OK
24641,TAZEWELL,RICHLANDS,VA
83213,BUTTE,ARCO,ID
20110,MANASSAS,MANASSAS,VA
22482,LANCASTER,KILMARNOCK,VA
23970,MECKLENBURG,SOUTH HILL,VA
22033,FAIRFAX,FAIRFAX,VA
83318,CASSIA,BURLEY,ID
13753,DELAWARE,DELHI,NY
23456,VIRGINIA BEACH,VIRGINIA BEACH,VA
20166,LOUDOUN,DULLES,VA
22042,FAIRFAX,FALLS CHURCH,VA
37343,MARION,JASPER,TN
70130,ORLEANS,NEW ORLEANS,LA
29614,GREENVILLE,GREENVILLE,SC
29651,SPARTANBURG,GREER,SC
29379,UNION,UNION,SC
29180,FAIRFIELD,WINNSBORO,SC
43113,PICKAWAY,CIRCLEVILLE,OH
44125,CUYAHOGA,GARFIELD HEIGHTS,OH
24701,MERCER,BLUEFIELD,WV
26301,HARRISON,CLARKSBURG,WV
62207,ST. CLAIR,CENTREVILLE,IL
73717,WOODS,ALVA,OK
73601,CUSTER,CLINTON,OK
74023,PAYNE,CUSHING,OK
74048,NOWATA,NOWATA,OK
29574,MARION,MULLINS,SC
74354,OTTAWA,MIAMI,OK
74701,BRYAN,DURANT,OK
73015,CADDO,CARNEGIE,OK
74132,TULSA,TULSA,OK
74128,TULSA,TULSA,OK
73036,CANADIAN,EL RENO,OK
74055,TULSA,OWASSO,OK
73932,BEAVER,BEAVER,OK
74525,ATOKA,ATOKA,OK
74960,ADAIR,STILWELL,OK
73662,BECKHAM,SAYRE,OK
73632,WASHITA,CORDELL,OK
74437,OKMULGEE,HENRYETTA,OK
85374,MARICOPA,SURPRISE,AZ
73628,ROGER MILLS,CHEYENNE,OK
73942,TEXAS,GUYMON,OK
74955,SEQUOYAH,SALLISAW,OK
73446,MARSHALL,MADILL,OK
38128,SHELBY,MEMPHIS,TN
72736,BENTON,GRAVETTE,AR
38104,SHELBY,MEMPHIS,TN
38017,SHELBY,COLLIERVILLE,TN
72949,FRANKLIN,OZARK,AR
38138,SHELBY,GERMANTOWN,TN
37334,LINCOLN,FAYETTEVILLE,TN
37076,DAVIDSON,HERMITAGE,TN
73663,DEWEY,SEILING,OK
62557,CHRISTIAN,PANA,IL
37601,WASHINGTON,JOHNSON CITY,TN
37074,TROUSDALE,HARTSVILLE,TN
38063,LAUDERDALE,RIPLEY,TN
38261,OBION,UNION CITY,TN
37160,BEDFORD,SHELBYVILLE,TN
37874,MONROE,SWEETWATER,TN
26554,MARION,FAIRMONT,WV
38201,CARROLL,MC KENZIE,TN
37879,CLAIBORNE,TAZEWELL,TN
38555,CUMBERLAND,CROSSVILLE,TN
38363,DECATUR,PARSONS,TN
37208,DAVIDSON,NASHVILLE,TN
37814,HAMBLEN,MORRISTOWN,TN
37355,COFFEE,MANCHESTER,TN
38556,FENTRESS,JAMESTOWN,TN
43213,FRANKLIN,COLUMBUS,OH
37087,WILSON,LEBANON,TN
38485,WAYNE,WAYNESBORO,TN
51301,CLAY,SPENCER,IA
52001,DUBUQUE,DUBUQUE,IA
31213,BIBB,MACON,GA
31313,LIBERTY,HINESVILLE,GA
30577,STEPHENS,TOCCOA,GA
70345,LAFOURCHE,CUT OFF,LA
70002,JEFFERSON,METAIRIE,LA
70123,JEFFERSON,NEW ORLEANS,LA
70631,CAMERON,CAMERON,LA
71463,ALLEN,OAKDALE,LA
31533,COFFEE,DOUGLAS,GA
30757,DADE,WILDWOOD,GA
70390,ASSUMPTION,NAPOLEONVILLE,LA
50022,CASS,ATLANTIC,IA
50316,POLK,DES MOINES,IA
50308,POLK,DES MOINES,IA
52632,LEE,KEOKUK,IA
51445,IDA,IDA GROVE,IA
52556,JEFFERSON,FAIRFIELD,IA
52172,ALLAMAKEE,WAUKON,IA
51442,CRAWFORD,DENISON,IA
50266,POLK,WEST DES MOINES,IA
52565,VAN BUREN,KEOSAUQUA,IA
52241,JOHNSON,CORALVILLE,IA
51249,OSCEOLA,SIBLEY,IA
50574,POCAHONTAS,POCAHONTAS,IA
50854,RINGGOLD,MOUNT AYR,IA
51537,SHELBY,HARLAN,IA
51247,SIOUX,ROCK VALLEY,IA
50525,WRIGHT,CLARION,IA
50421,WRIGHT,BELMOND,IA
52353,WASHINGTON,WASHINGTON,IA
50060,WAYNE,CORYDON,IA
52101,WINNESHIEK,DECORAH,IA
40536,FAYETTE,LEXINGTON,KY
49660,MANISTEE,MANISTEE,MI
48085,OAKLAND,TROY,MI
55720,CARLTON,CLOQUET,MN
55723,ST. LOUIS,COOK,MN
56628,ITASCA,BIGFORK,MN
55313,WRIGHT,BUFFALO,MN
55008,ISANTI,CAMBRIDGE,MN
55362,WRIGHT,MONTICELLO,MN
56258,LYON,MARSHALL,MN
56178,LINCOLN,TYLER,MN
56362,STEARNS,PAYNESVILLE,MN
56352,STEARNS,MELROSE,MN
56378,STEARNS,SAUK CENTRE,MN
55731,ST. LOUIS,ELY,MN
56510,NORMAN,ADA,MN
56542,POLK,FOSSTON,MN
55705,ST. LOUIS,AURORA,MN
56240,BIG STONE,GRACEVILLE,MN
55336,MCLEOD,GLENCOE,MN
55415,HENNEPIN,MINNEAPOLIS,MN
56479,TODD,STAPLES,MN
56062,WATONWAN,MADELIA,MN
56256,LAC QUI PARLE,MADISON,MN
56557,MAHNOMEN,MAHNOMEN,MN
56002,BLUE EARTH,MANKATO,MN
55066,GOODHUE,RED WING,MN
56071,SCOTT,NEW PRAGUE,MN
56359,MILLE LACS,ONAMIA,MN
56172,MURRAY,SLAYTON,MN
55904,OLMSTED,ROCHESTER,MN
56164,PIPESTONE,PIPESTONE,MN
56531,GRANT,ELBOW LAKE,MN
56082,NICOLLET,ST PETER,MN
56601,BELTRAMI,BEMIDJI,MN
56220,YELLOW MEDICINE,CANBY,MN
56621,CLEARWATER,BAGLEY,MN
56143,JACKSON,JACKSON,MN
56345,MORRISON,LITTLE FALLS,MN
56470,HUBBARD,PARK RAPIDS,MN
56482,WADENA,WADENA,MN
56013,FARIBAULT,BLUE EARTH,MN
58495,MCINTOSH,WISHEK,ND
58413,MCINTOSH,ASHLEY,ND
58854,MCKENZIE,WATFORD CITY,ND
97814,BAKER,BAKER CITY,OR
97321,LINN,ALBANY,OR
97801,UMATILLA,PENDLETON,OR
50583,SAC,SAC CITY,IA
50511,KOSSUTH,ALGONA,IA
51401,CARROLL,CARROLL,IA
50588,BUENA VISTA,STORM LAKE,IA
97527,JOSEPHINE,GRANTS PASS,OR
97220,MULTNOMAH,PORTLAND,OR
51566,MONTGOMERY,RED OAK,IA
50025,AUDUBON,AUDUBON,IA
76504,BELL,TEMPLE,TX
51360,DICKINSON,SPIRIT LAKE,IA
45431,GREENE,BEAVERCREEK,OH
45385,GREENE,XENIA,OH
88220,EDDY,CARLSBAD,NM
85901,NAVAJO,SHOW LOW,AZ
45840,HANCOCK,FINDLAY,OH
43545,HENRY,NAPOLEON,OH
44857,HURON,NORWALK,OH
44094,LAKE,WILLOUGHBY,OH
50129,GREENE,JEFFERSON,IA
50115,GUTHRIE,GUTHRIE CENTER,IA
43606,LUCAS,TOLEDO,OH
43140,MADISON,LONDON,OH
88310,OTERO,ALAMOGORDO,NM
88130,ROOSEVELT,PORTALES,NM
50548,HUMBOLDT,HUMBOLDT,IA
87049,CIBOLA,ACOMA PUEBLO,NM
78234,BEXAR,FORT SAM HOUSTON,TX
86403,MOHAVE,LAKE HAVASU CITY,AZ
76442,COMANCHE,COMANCHE,TX
84770,WASHINGTON,SAINT GEORGE,UT
44254,MEDINA,LODI,OH
44281,MEDINA,WADSWORTH,OH
45828,MERCER,COLDWATER,OH
45373,MIAMI,TROY,OH
75216,DALLAS,DALLAS,TX
76711,MCLENNAN,WACO,TX
76308,WICHITA,WICHITA FALLS,TX
45405,MONTGOMERY,DAYTON,OH
76544,BELL,FORT HOOD,TX
45429,MONTGOMERY,KETTERING,OH
43701,MUSKINGUM,ZANESVILLE,OH
85202,MARICOPA,MESA,AZ
89117,CLARK,LAS VEGAS,NV
84108,SALT LAKE,SALT LAKE CITY,UT
50674,BREMER,SUMNER,IA
52403,LINN,CEDAR RAPIDS,IA
84094,SALT LAKE,SANDY,UT
52245,JOHNSON,IOWA CITY,IA
52242,JOHNSON,IOWA CITY,IA
84631,MILLARD,FILLMORE,UT
52175,FAYETTE,WEST UNION,IA
50662,FAYETTE,OELWEIN,IA
52349,BENTON,VINTON,IA
50613,BLACK HAWK,CEDAR FALLS,IA
50461,MITCHELL,OSAGE,IA
52531,MONROE,ALBIA,IA
52544,APPANOOSE,CENTERVILLE,IA
50158,MARSHALL,MARSHALLTOWN,IA
57437,MCPHERSON,EUREKA,SD
57601,WALWORTH,MOBRIDGE,SD
57533,GREGORY,GREGORY,SD
85209,MARICOPA,MESA,AZ
71040,CLAIBORNE,HOMER,LA
57274,DAY,WEBSTER,SD
50273,MADISON,WINTERSET,IA
15601,WESTMORELAND,GREENSBURG,PA
68713,HOLT,ATKINSON,NE
85541,GILA,PAYSON,AZ
15317,WASHINGTON,CANONSBURG,PA
15063,WASHINGTON,MONONGAHELA,PA
18840,BRADFORD,SAYRE,PA
56073,BROWN,NEW ULM,MN
13203,ONONDAGA,SYRACUSE,NY
19114,BUCKS,LANGHORNE,PA
18960,BUCKS,SELLERSVILLE,PA
19007,BUCKS,BRISTOL,PA
70764,IBERVILLE,PLAQUEMINE,LA
17402,YORK,YORK,PA
85248,MARICOPA,CHANDLER,AZ
15219,ALLEGHENY,PITTSBURGH,PA
15136,ALLEGHENY,MCKEES ROCKS,PA
68651,POLK,OSCEOLA,NE
68601,PLATTE,COLUMBUS,NE
69001,RED WILLOW,MCCOOK,NE
68114,DOUGLAS,OMAHA,NE
15212,ALLEGHENY,PITTSBURGH,PA
64014,JACKSON,BLUE SPRINGS,MO
61342,LA SALLE,MENDOTA,IL
15236,ALLEGHENY,PITTSBURGH,PA
56156,ROCK,LUVERNE,MN
60026,COOK,GLENVIEW,IL
68632,BUTLER,DAVID CITY,NE
17745,CLINTON,LOCK HAVEN,PA
17764,CLINTON,RENOVO,PA
18218,SCHUYLKILL,COALDALE,PA
60064,LAKE,NORTH CHICAGO,IL
62230,CLINTON,BREESE,IL
68756,ANTELOPE,NELIGH,NE
69145,KIMBALL,KIMBALL,NE
19134,PHILADELPHIA,PHILADELPHIA,PA
19146,PHILADELPHIA,PHILADELPHIA,PA
45891,VAN WERT,VAN WERT,OH
45005,WARREN,FRANKLIN,OH
45750,WASHINGTON,MARIETTA,OH
72958,SCOTT,WALDRON,AR
15552,SOMERSET,MEYERSDALE,PA
18704,LUZERNE,KINGSTON,PA
18711,LUZERNE,WILKES-BARRE,PA
68765,PIERCE,OSMOND,NE
90073,LOS ANGELES,LOS ANGELES,CA
92134,SAN DIEGO,SAN DIEGO,CA
16117,LAWRENCE,ELLWOOD CITY,PA
92310,SAN BERNARDINO,FORT IRWIN,CA
94121,SAN FRANCISCO,SAN FRANCISCO,CA
19002,MONTGOMERY,AMBLER,PA
19446,MONTGOMERY,LANSDALE,PA
18411,LACKAWANNA,CLARKS SUMMIT,PA
19096,MONTGOMERY,WYNNEWOOD,PA
18452,LACKAWANNA,PECKVILLE,PA
17044,MIFFLIN,LEWISTOWN,PA
16125,MERCER,GREENVILLE,PA
16146,MERCER,SHARON,PA
16127,MERCER,GROVE CITY,PA
72209,PULASKI,LITTLE ROCK,AR
46052,BOONE,LEBANON,IN
15370,GREENE,WAYNESBURG,PA
39428,COVINGTON,COLLINS,MS
19013,DELAWARE,UPLAND,PA
19083,DELAWARE,HAVERTOWN,PA
16550,ERIE,ERIE,PA
16544,ERIE,ERIE,PA
16504,ERIE,ERIE,PA
85929,NAVAJO,LAKESIDE,AZ
85225,MARICOPA,CHANDLER,AZ
85281,MARICOPA,TEMPE,AZ
19064,DELAWARE,SPRINGFIELD,PA
19125,PHILADELPHIA,PHILADELPHIA,PA
18045,NORTHAMPTON,EASTON,PA
47713,VANDERBURGH,EVANSVILLE,IN
30540,GILMER,ELLIJAY,GA
30912,RICHMOND,AUGUSTA,GA
30349,CLAYTON,COLLEGE PARK,GA
85258,MARICOPA,SCOTTSDALE,AZ
85301,MARICOPA,GLENDALE,AZ
85613,COCHISE,FORT HUACHUCA,AZ
72704,WASHINGTON,FAYETTEVILLE,AR
18360,MONROE,STROUDSBURG,PA
44256,MEDINA,MEDINA,OH
95948,BUTTE,GRIDLEY,CA
86045,COCONINO,TUBA CITY,AZ
85550,GILA,SAN CARLOS,AZ
39429,MARION,COLUMBIA,MS
86503,APACHE,CHINLE,AZ
30076,FULTON,ROSWELL,GA
30642,GREENE,GREENSBORO,GA
46060,HAMILTON,NOBLESVILLE,IN
30553,FRANKLIN,LAVONIA,GA
55981,WABASHA,WABASHA,MN
57501,HUGHES,PIERRE,SD
30141,PAULDING,HIRAM,GA
55987,WINONA,WINONA,MN
90822,LOS ANGELES,LONG BEACH,CA
36083,MACON,TUSKEGEE,AL
23229,HENRICO,RICHMOND,VA
24060,MONTGOMERY,BLACKSBURG,VA
44667,WAYNE,ORRVILLE,OH
38663,TIPPAH,RIPLEY,MS
44691,WAYNE,WOOSTER,OH
23454,VIRGINIA BEACH,VIRGINIA BEACH,VA
55407,HENNEPIN,MINNEAPOLIS,MN
55435,HENNEPIN,EDINA,MN
55454,HENNEPIN,MINNEAPOLIS,MN
55369,HENNEPIN,MAPLE GROVE,MN
39577,STONE,WIGGINS,MS
56538,OTTER TAIL,FERGUS FALLS,MN
55767,CARLTON,MOOSE LAKE,MN
56278,BIG STONE,ORTONVILLE,MN
56573,OTTER TAIL,PERHAM,MN
10451,BRONX,BRONX,NY
55616,LAKE,TWO HARBORS,MN
56649,KOOCHICHING,INTERNATIONAL FALLS,MN
56232,LAC QUI PARLE,DAWSON,MN
56296,TRAVERSE,WHEATON,MN
56716,POLK,CROOKSTON,MN
55092,CHISAGO,WYOMING,MN
55051,KANABEC,MORA,MN
56728,KITTSON,HALLOCK,MN
56751,ROSEAU,ROSEAU,MN
56201,KANDIYOHI,WILLMAR,MN
55379,SCOTT,SHAKOPEE,MN
55746,ST. LOUIS,HIBBING,MN
18951,BUCKS,QUAKERTOWN,PA
55433,ANOKA,COON RAPIDS,MN
55355,MEEKER,LITCHFIELD,MN
56431,AITKIN,AITKIN,MN
55350,MCLEOD,HUTCHINSON,MN
55387,CARVER,WACONIA,MN
37388,COFFEE,TULLAHOMA,TN
56441,CROW WING,CROSBY,MN
56401,CROW WING,BRAINERD,MN
55371,SHERBURNE,PRINCETON,MN
56303,STEARNS,ST CLOUD,MN
56267,STEVENS,MORRIS,MN
56520,WILKIN,BRECKENRIDGE,MN
56283,REDWOOD,REDWOOD FALLS,MN
29572,HORRY,MYRTLE BEACH,SC
55307,SIBLEY,ARLINGTON,MN
13790,BROOME,BINGHAMTON,NY
55021,RICE,FARIBAULT,MN
55337,DAKOTA,BURNSVILLE,MN
55041,GOODHUE,LAKE CITY,MN
55033,DAKOTA,HASTINGS,MN
13021,CAYUGA,AUBURN,NY
97520,JACKSON,ASHLAND,OR
14787,CHAUTAUQUA,WESTFIELD,NY
97701,DESCHUTES,BEND,OR
97720,HARNEY,BURNS,OR
14048,CHAUTAUQUA,DUNKIRK,NY
55057,DAKOTA,NORTHFIELD,MN
97444,CURRY,GOLD BEACH,OR
97420,COOS,COOS BAY,OR
97423,COOS,COQUILLE,OR
83350,MINIDOKA,RUPERT,ID
99352,BENTON,RICHLAND,WA
83338,JEROME,JEROME,ID
97914,MALHEUR,ONTARIO,OR
23185,JAMES CITY,WILLIAMSBURG,VA
23901,PRINCE EDWARD,FARMVILLE,VA
22906,CHARLOTTESVILLE,CHARLOTTESVILLE,VA
22903,ALBEMARLE,CHARLOTTESVILLE,VA
22408,SPOTSYLVANIA,FREDERICKSBURG,VA
24333,GALAX,GALAX,VA
23707,PORTSMOUTH,PORTSMOUTH,VA
24592,HALIFAX,SOUTH BOSTON,VA
22191,PRINCE WILLIAM,WOODBRIDGE,VA
22134,PRINCE WILLIAM,QUANTICO,VA
23223,RICHMOND CITY,RICHMOND,VA
24070,ROANOKE,CATAWBA,VA
23602,NEWPORT NEWS,NEWPORT NEWS,VA
23601,NEWPORT NEWS,NEWPORT NEWS,VA
73763,BLAINE,OKEENE,OK
23860,HOPEWELL,HOPEWELL,VA
23061,GLOUCESTER,GLOUCESTER,VA
24277,LEE,PENNINGTON GAP,VA
74102,TULSA,BROKEN ARROW,OK
24151,FRANKLIN,ROCKY MOUNT,VA
22601,WINCHESTER,WINCHESTER,VA
97477,LANE,SPRINGFIELD,OR
97439,LANE,FLORENCE,OR
97401,LANE,EUGENE,OR
20105,LOUDOUN,ALDIE,VA
24457,ALLEGHANY,LOW MOOR,VA
20169,PRINCE WILLIAM,HAYMARKET,VA
23235,CHESTERFIELD,RICHMOND,VA
24073,MONTGOMERY,CHRISTIANSBURG,VA
24013,ROANOKE CITY,ROANOKE,VA
43326,HARDIN,KENTON,OH
98826,CHELAN,LEAVENWORTH,WA
98368,JEFFERSON,PORT TOWNSEND,WA
98668,CLARK,VANCOUVER,WA
29944,HAMPTON,VARNVILLE,SC
43214,FRANKLIN,COLUMBUS,OH
38105,SHELBY,MEMPHIS,TN
85212,MARICOPA,MESA,AZ
98944,YAKIMA,SUNNYSIDE,WA
98632,COWLITZ,LONGVIEW,WA
70445,ST. TAMMANY,LACOMBE,LA
70527,ACADIA,CROWLEY,LA
29303,SPARTANBURG,SPARTANBURG,SC
43452,OTTAWA,PORT CLINTON,OH
29162,CLARENDON,TURBEVILLE,SC
29150,SUMTER,SUMTER,SC
98411,PIERCE,TACOMA,WA
98499,PIERCE,TACOMA,WA
15240,ALLEGHENY,PITTSBURGH,PA
15401,FAYETTE,UNIONTOWN,PA
44143,CUYAHOGA,RICHMOND HEIGHTS,OH
29409,CHARLESTON,CHARLESTON,SC
44115,CUYAHOGA,CLEVELAND,OH
44146,CUYAHOGA,BEDFORD,OH
29536,DILLON,DILLON,SC
29532,DARLINGTON,DARLINGTON,SC
29010,LEE,BISHOPVILLE,SC
29827,ALLENDALE,FAIRFAX,SC
29406,CHARLESTON,N CHARLESTON,SC
29108,NEWBERRY,NEWBERRY,SC
29690,GREENVILLE,TRAVELERS REST,SC
29526,HORRY,CONWAY,SC
29506,FLORENCE,FLORENCE,SC
29212,RICHLAND,COLUMBIA,SC
29118,ORANGEBURG,ORANGEBURG,SC
38012,HAYWOOD,BROWNSVILLE,TN
29505,FLORENCE,FLORENCE,SC
24450,LEXINGTON,LEXINGTON,VA
43078,CHAMPAIGN,URBANA,OH
76054,TARRANT,HURST,TX
75219,DALLAS,DALLAS,TX
75024,COLLIN,PLANO,TX
24445,BATH,HOT SPRINGS,VA
99166,FERRY,REPUBLIC,WA
98816,CHELAN,CHELAN,WA
59636,LEWIS AND CLARK,FORT HARRISON,MT
98502,THURSTON,OLYMPIA,WA
80120,ARAPAHOE,LITTLETON,CO
81625,MOFFAT,CRAIG,CO
80109,DOUGLAS,CASTLE ROCK,CO
80303,BOULDER,BOULDER,CO
81004,PUEBLO,PUEBLO,CO
27284,FORSYTH,KERNERSVILLE,NC
27104,FORSYTH,WINSTON-SALEM,NC
28307,CUMBERLAND,FORT BRAGG,NC
44223,SUMMIT,CUYAHOGA FALLS,OH
83544,CLEARWATER,OROFINO,ID
83843,LATAH,MOSCOW,ID
97015,CLACKAMAS,CLACKAMAS,OR
97222,CLACKAMAS,MILWAUKIE,OR
97103,CLATSOP,ASTORIA,OR
97138,CLATSOP,SEASIDE,OR
83837,SHOSHONE,KELLOGG,ID
14203,ERIE,BUFFALO,NY
83861,BENEWAH,ST. MARIES,ID
13365,HERKIMER,LITTLE FALLS,NY
97828,WALLOWA,ENTERPRISE,OR
97216,MULTNOMAH,PORTLAND,OR
97227,MULTNOMAH,PORTLAND,OR
97030,MULTNOMAH,GRESHAM,OR
97223,MULTNOMAH,PORTLAND,OR
97141,TILLAMOOK,TILLAMOOK,OR
97838,UMATILLA,HERMISTON,OR
83530,IDAHO,GRANGEVILLE,ID
83864,BONNER,SANDPOINT,ID
97132,YAMHILL,NEWBERG,OR
97836,MORROW,HEPPNER,OR
97383,MARION,STAYTON,OR
83638,VALLEY,MCCALL,ID
83611,VALLEY,CASCADE,ID
83467,LEMHI,SALMON,ID
97367,LINCOLN,LINCOLN CITY,OR
97365,LINCOLN,NEWPORT,OR
14220,ERIE,BUFFALO,NY
12455,DELAWARE,MARGARETVILLE,NY
14217,ERIE,BUFFALO,NY
14263,ERIE,BUFFALO,NY
12883,ESSEX,TICONDEROGA,NY
12983,FRANKLIN,SARANAC LAKE,NY
13607,JEFFERSON,ALEXANDRIA BAY,NY
13346,MADISON,HAMILTON,NY
13618,JEFFERSON,CARTHAGE,NY
11561,NASSAU,LONG BEACH,NY
11580,NASSAU,VALLEY STREAM,NY
11530,NASSAU,ROCKVILLE CENTRE,NY
11548,NASSAU,ROSLYN,NY
13440,ONEIDA,ROME,NY
13501,ONEIDA,UTICA,NY
13215,ONONDAGA,SYRACUSE,NY
14456,ONTARIO,GENEVA,NY
10990,ORANGE,WARWICK,NY
12771,ORANGE,PORT JERVIS,NY
37766,CAMPBELL,LAFOLLETTE,TN
57382,JERAULD,WESSINGTON SPRINGS,SD
57066,BON HOMME,TYNDALL,SD
98029,KING,ISSAQUAH,WA
37091,MARSHALL,LEWISBURG,TN
98498,PIERCE,LAKEWOOD,WA
10512,PUTNAM,CARMEL,NY
40831,HARLAN,HARLAN,KY
10970,ROCKLAND,POMONA,NY
13669,ST. LAWRENCE,OGDENSBURG,NY
13642,ST. LAWRENCE,GOUVERNEUR,NY
13690,ST. LAWRENCE,STAR LAKE,NY
12308,SCHENECTADY,SCHENECTADY,NY
12043,SCHOHARIE,COBLESKILL,NY
14865,SCHUYLER,MONTOUR FALLS,NY
21225,BALTIMORE CITY,BALTIMORE,MD
21209,BALTIMORE CITY,BALTIMORE,MD
10601,WESTCHESTER,WHITE PLAINS,NY
10708,WESTCHESTER,BRONXVILLE,NY
42066,GRAVES,MAYFIELD,KY
14527,YATES,PENN YAN,NY
10456,BRONX,BRONX,NY
14550,WYOMING,WARSAW,NY
11237,KINGS,BROOKLYN,NY
11691,QUEENS,FAR ROCKAWAY,NY
42102,WARREN,BOWLING GREEN,KY
42103,WARREN,BOWLING GREEN,KY
14127,ERIE,ORCHARD PARK,NY
41858,LETCHER,WHITESBURG,KY
10034,NEW YORK,NEW YORK,NY
10567,WESTCHESTER,CORTLANDT MANOR,NY
14437,LIVINGSTON,DANSVILLE,NY
12572,DUTCHESS,RHINEBECK,NY
62016,GREENE,CARROLLTON,IL
10038,NEW YORK,NEW YORK,NY
10548,WESTCHESTER,MONTROSE,NY
62052,JERSEY,JERSEYVILLE,IL
21550,GARRETT,OAKLAND,MD
77665,CHAMBERS,WINNIE,TX
76821,RUNNELS,BALLINGER,TX
77836,BURLESON,CALDWELL,TX
79225,HARDEMAN,CHILLICOTHE,TX
77434,COLORADO,EAGLE LAKE,TX
76837,CONCHO,EDEN,TX
79035,PARMER,FRIONA,TX
75948,SABINE,HEMPHILL,TX
76550,LAMPASAS,LAMPASAS,TX
21237,BALTIMORE,BALTIMORE,MD
76252,COOKE,MUENSTER,TX
61605,PEORIA,PEORIA,IL
61614,PEORIA,PEORIA,IL
76950,SUTTON,SONORA,TX
60707,COOK,CHICAGO,IL
60164,COOK,NORTHLAKE,IL
60461,COOK,OLYMPIA FIELDS,IL
60426,COOK,HARVEY,IL
60115,DEKALB,DEKALB,IL
40324,SCOTT,GEORGETOWN,KY
25526,PUTNAM,HURRICANE,WV
25709,CABELL,HUNTINGTON,WV
26105,WOOD,PARKERSBURG,WV
40361,BOURBON,PARIS,KY
62226,ST. CLAIR,BELLEVILLE,IL
61032,STEPHENSON,FREEPORT,IL
61554,TAZEWELL,PEKIN,IL
42071,CALLOWAY,MURRAY,KY
40004,NELSON,BARDSTOWN,KY
41472,MORGAN,WEST LIBERTY,KY
73103,OKLAHOMA,OKLAHOMA CITY,OK
73096,CUSTER,WEATHERFORD,OK
74020,PAWNEE,CLEVELAND,OK
74637,OSAGE,FAIRFAX,OK
73933,CIMARRON,BOISE CITY,OK
57231,KINGSBURY,DE SMET,SD
57785,MEADE,STURGIS,SD
61254,HENRY,GENESEO,IL
62454,CRAWFORD,ROBINSON,IL
62278,RANDOLPH,RED BUD,IL
62568,CHRISTIAN,TAYLORVILLE,IL
62881,MARION,SALEM,IL
73071,CLEVELAND,NORMAN,OK
99603,KENAI PENINSULA,HOMER,AK
99833,WRANGELL-PETERSBURG,PETERSBURG,AK
14727,ALLEGANY,CUBA,NY
37317,POLK,COPPERHILL,TN
37841,SCOTT,ONEIDA,TN
37643,CARTER,ELIZABETHTON,TN
37110,WARREN,MC MINNVILLE,TN
38551,CLAY,CELINA,TN
59403,CASCADE,GREAT FALLS,MT
37030,SMITH,CARTHAGE,TN
10044,NEW YORK,NEW YORK,NY
37412,HAMILTON,CHATTANOOGA,TN
37421,HAMILTON,CHATTANOOGA,TN
38068,FAYETTE,SOMERVILLE,TN
38019,TIPTON,COVINGTON,TN
37404,HAMILTON,CHATTANOOGA,TN
38464,LAWRENCE,LAWRENCEBURG,TN
37375,FRANKLIN,SEWANEE,TN
38343,GIBSON,HUMBOLDT,TN
38358,GIBSON,MILAN,TN
38478,GILES,PULASKI,TN
37061,HOUSTON,ERIN,TN
37033,HICKMAN,CENTERVILLE,TN
37857,HAWKINS,ROGERSVILLE,TN
38237,WEAKLEY,MARTIN,TN
37923,KNOX,KNOXVILLE,TN
37934,KNOX,KNOXVILLE,TN
37684,WASHINGTON,MOUNTAIN HOME,TN
37745,GREENE,GREENEVILLE,TN
37920,KNOX,KNOXVILLE,TN
37185,HUMPHREYS,WAVERLY,TN
11229,KINGS,BROOKLYN,NY
37212,DAVIDSON,NASHVILLE,TN
37129,RUTHERFORD,MURFREESBORO,TN
66749,ALLEN,IOLA,KS
66211,JOHNSON,LEAWOOD,KS
67054,KIOWA,GREENSBURG,KS
67878,HAMILTON,SYRACUSE,KS
66209,JOHNSON,OVERLAND PARK,KS
66219,JOHNSON,LENEXA,KS
67473,OSBORNE,OSBORNE,KS
67672,TREGO,WA KEENEY,KS
77437,WHARTON,EL CAMPO,TX
67206,SEDGWICK,WICHITA,KS
96913,GUAM,TAMUNING,GU
96940,NOT AVAILABLE,KOROR,PW
96799,MAOPUTASI,PAGO PAGO,AS
75001,DALLAS,ADDISON,TX
79501,JONES,ANSON,TX
78759,TRAVIS,AUSTIN,TX
78737,TRAVIS,AUSTIN,TX
76426,WISE,BRIDGEPORT,TX
79316,TERRY,BROWNFIELD,TX
79014,HEMPHILL,CANADIAN,TX
76033,JOHNSON,CLEBURNE,TX
77327,LIBERTY,CLEVELAND,TX
78934,COLORADO,COLUMBUS,TX
76210,DENTON,DENTON,TX
34102,COLLIER,NAPLES,FL
32563,SANTA ROSA,GULF BREEZE,FL
78017,FRIO,DILLEY,TX
33325,BROWARD,SUNRISE,FL
79027,CASTRO,DIMMITT,TX
75028,DENTON,FLOWER MOUND,TX
79735,PECOS,FORT STOCKTON,TX
75140,VAN ZANDT,GRAND SALINE,TX
76531,HAMILTON,HARLINGEN,TX
75652,RUSK,HENDERSON,TX
62233,RANDOLPH,CHESTER,IL
77093,HARRIS,HOUSTON,TX
77089,HARRIS,HOUSTON,TX
75142,KAUFMAN,KAUFMAN,TX
60618,COOK,CHICAGO,IL
79549,SCURRY,SNYDER,TX
79553,JONES,STAMFORD,TX
75146,DALLAS,LANCASTER,TX
77506,HARRIS,PASADENA,TX
77845,BRAZOS,COLLEGE STATION,TX
75051,TARRANT,GRAND PRAIRIE,TX
79752,UPTON,MCCAMEY,TX
79502,STONEWALL,ASPERMONT,TX
43207,FRANKLIN,COLUMBUS,OH
77386,MONTGOMERY,THE WOODLANDS,TX
76109,TARRANT,FORT WORTH,TX
76905,TOM GREEN,SAN ANGELO,TX
83712,ADA,BOISE,ID
46037,HAMILTON,FISHERS,IN
32512,ESCAMBIA,PENSACOLA,FL
45433,GREENE,WRIGHT PATTERSON AFB,OH
30513,FANNIN,BLUE RIDGE,GA
97116,WASHINGTON,FOREST GROVE,OR
64086,JACKSON,LEE'S SUMMIT,MO
99504,ANCHORAGE,ANCHORAGE,AK
79556,NOLAN,SWEETWATER,TX
75662,GREGG,KILGORE,TX
76548,BELL,HARKER HEIGHTS,TX
71639,DESHA,DUMAS,AR
76513,BELL,BELTON,TX
75402,HUNT,GREENVILLE,TX
75251,DALLAS,DALLAS,TX
76001,TARRANT,ARLINGTON,TX
78216,BEXAR,SAN ANTONIO,TX
96790,MAUI,KULA,HI
96746,KAUAI,KAPAA,HI
75013,COLLIN,ALLEN,TX
76021,TARRANT,BEDFORD,TX
78526,CAMERON,BROWNSVILLE,TX
75063,DALLAS,IRVING,TX
36532,BALDWIN,FAIRHOPE,AL
36853,TALLAPOOSA,DADEVILLE,AL
35960,CHEROKEE,CENTRE,AL
36526,BALDWIN,DAPHNE,AL
36535,BALDWIN,FOLEY,AL
96744,HONOLULU,KANEOHE,HI
28805,BUNCOMBE,ASHEVILLE,NC
95476,SONOMA,SONOMA,CA
93110,SANTA BARBARA,SANTA BARBARA,CA
91740,LOS ANGELES,GLENDORA,CA
68131,DOUGLAS,OMAHA,NE
80446,GRAND,GRANBY,CO
90250,LOS ANGELES,HAWTHORNE,CA
90291,LOS ANGELES,MARINA DEL REY,CA
91352,LOS ANGELES,SUN VALLEY,CA
92220,RIVERSIDE,BANNING,CA
92626,ORANGE,COSTA MESA,CA
30742,CATOOSA,FORT OGLETHORPE,GA
31792,THOMAS,THOMASVILLE,GA
30014,NEWTON,COVINGTON,GA
30830,BURKE,WAYNESBORO,GA
31558,CAMDEN,ST. MARYS,GA
30529,JACKSON,COMMERCE,GA
30643,HART,HARTWELL,GA
62982,HARDIN,ROSICLARE,IL
70068,ST. JOHN THE BAPTIST,LA PLACE,LA
53913,SAUK,BARABOO,WI
71232,RICHLAND,DELHI,LA
91730,SAN BERNARDINO,RANCHO CUCAMONGA,CA
96919,GUAM,AGANA HEIGHTS,GU
49048,KALAMAZOO,KALAMAZOO,MI
49047,CASS,DOWAGIAC,MI
49080,ALLEGAN,PLAINWELL,MI
48116,LIVINGSTON,BRIGHTON,MI
48439,GENESEE,GRAND BLANC,MI
40121,HARDIN,FORT KNOX,KY
42223,MONTGOMERY,FORT CAMPBELL,KY
20889,MONTGOMERY,BETHESDA,MD
48093,MACOMB,WARREN,MI
48307,OAKLAND,ROCHESTER,MI
48054,ST. CLAIR,EAST CHINA,MI
48764,IOSCO,TAWAS CITY,MI
48601,SAGINAW,SAGINAW,MI
48723,TUSCOLA,CARO,MI
48413,HURON,BAD AXE,MI
49455,OCEANA,SHELBY,MI
49707,ALPENA,ALPENA,MI
48661,OGEMAW,WEST BRANCH,MI
48850,MONTCALM,LAKEVIEW,MI
49855,MARQUETTE,MARQUETTE,MI
57732,LAWRENCE,DEADWOOD,SD
57730,CUSTER,CUSTER,SD
57252,GRANT,MILBANK,SD
71459,VERNON,FORT POLK,LA
57029,HUTCHINSON,FREEMAN,SD
57226,DEUEL,CLEAR LAKE,SD
19078,DELAWARE,RIDLEY PARK,PA
57201,CODINGTON,WATERTOWN,SD
57442,POTTER,GETTYSBURG,SD
57059,BON HOMME,SCOTLAND,SD
84721,IRON,CEDAR CITY,UT
98027,KING,ISSAQUAH,WA
84003,UTAH,AMERICAN FORK,UT
84337,BOX ELDER,TREMONTON,UT
84713,BEAVER,BEAVER,UT
84511,SAN JUAN,BLANDING,UT
84302,BOX ELDER,BRIGHAM CITY,UT
84341,CACHE,NORTH LOGAN,UT
84501,CARBON,PRICE,UT
84790,WASHINGTON,SAINT GEORGE,UT
84759,GARFIELD,PANGUITCH,UT
84107,SALT LAKE,MURRAY,UT
84088,SALT LAKE,WEST JORDAN,UT
84120,SALT LAKE,WEST VALLEY CITY,UT
84741,KANE,KANAB,UT
84143,SALT LAKE,SALT LAKE CITY,UT
84020,SALT LAKE,DRAPER,UT
84532,GRAND,MOAB,UT
84043,UTAH,LEHI,UT
84651,UTAH,PAYSON,UT
84074,TOOELE,TOOELE,UT
84405,WEBER,OGDEN,UT
84057,UTAH,OREM,UT
84060,SUMMIT,PARK CITY,UT
84113,SALT LAKE,SALT LAKE CITY,UT
84065,SALT LAKE,RIVERTON,UT
84106,SALT LAKE,SALT LAKE CITY,UT
84102,SALT LAKE,SALT LAKE CITY,UT
84701,SEVIER,RICHFIELD,UT
84124,SALT LAKE,SALT LAKE CITY,UT
84112,SALT LAKE,SALT LAKE CITY,UT
84606,UTAH,PROVO,UT
84604,UTAH,PROVO,UT
84075,DAVIS,SYRACUSE,UT
23455,VIRGINIA BEACH,VIRGINIA BEACH,VA
22911,ALBEMARLE,CHARLOTTESVILLE,VA
23226,HENRICO,RICHMOND,VA
99901,KETCHIKAN GATEWAY,KETCHIKAN,AK
99576,DILLINGHAM,DILLINGHAM,AK
99615,KODIAK ISLAND,KODIAK,AK
23851,FRANKLIN CITY,FRANKLIN,VA
56671,BELTRAMI,RED LAKE,MN
72519,IZARD,CALICO ROCK,AR
59526,BLAINE,HARLEM,MT
99703,FAIRBANKS NORTH STAR,FORT WAINWRIGHT,AK
32214,DUVAL,JACKSONVILLE,FL
10996,ORANGE,WEST POINT,NY
92055,SAN DIEGO,OCEANSIDE,CA
29902,BEAUFORT,BEAUFORT,SC
80913,EL PASO,FORT CARSON,CO
22060,FAIRFAX,FORT BELVOIR,VA
31315,LIBERTY,FORT STEWART,GA
66442,GEARY,FORT RILEY,KS
75503,BOWIE,TEXARKANA,TX
35890,MADISON,HUNTSVILLE,AL
33125,MIAMI-DADE,MIAMI,FL
66701,BOURBON,FORT SCOTT,KS
92278,SAN BERNARDINO,TWENTYNINE PALMS,CA
95116,SANTA CLARA,SAN JOSE,CA
96766,KAUAI,LIHUE,HI
95901,YUBA,MARYSVILLE,CA
98312,KITSAP,BREMERTON,WA
92592,RIVERSIDE,TEMECULA,CA
65473,PULASKI,FORT LEONARD WOOD,MO
99723,NORTH SLOPE,BARROW,AK
87501,SANTA FE,SANTA FE,NM
88340,OTERO,MESCALERO,NM
59022,BIG HORN,CROW AGENCY,MT
40351,ROWAN,MOREHEAD,KY
87420,SAN JUAN,SHIPROCK,NM
74859,OKFUSKEE,OKEMAH,OK
57570,TODD,ROSEBUD,SD
26624,BRAXTON,GASSAWAY,WV
28546,ONSLOW,JACKSONVILLE,NC
26504,MONONGALIA,MORGANTOWN,WV
24970,GREENBRIER,RONCEVERTE,WV
25601,LOGAN,LOGAN,WV
25705,CABELL,HUNTINGTON,WV
25276,ROANE,SPENCER,WV
26757,HAMPSHIRE,ROMNEY,WV
26651,NICHOLAS,SUMMERSVILLE,WV
25411,MORGAN,BERKELEY SPRINGS,WV
26288,WEBSTER,WEBSTER SPRINGS,WV
24801,MCDOWELL,WELCH,WV
25405,BERKELEY,MARTINSBURG,WV
26101,WOOD,PARKERSBURG,WV
25271,JACKSON,RIPLEY,WV
38103,SHELBY,MEMPHIS,TN
26505,MONONGALIA,MORGANTOWN,WV
15901,CAMBRIA,JOHNSTOWN,PA
17821,MONTOUR,DANVILLE,PA
19408,MONTGOMERY,EAGLEVILLE,PA
18042,NORTHAMPTON,EASTON,PA
16507,ERIE,ERIE,PA
16823,CENTRE,PLEASANT GAP,PA
19607,BERKS,READING,PA
18848,BRADFORD,TOWANDA,PA
19063,DELAWARE,MEDIA,PA
15425,FAYETTE,CONNELLSVILLE,PA
19010,MONTGOMERY,BRYN MAWR,PA
15963,SOMERSET,WINDBER,PA
15071,ALLEGHENY,OAKDALE,PA
18301,MONROE,EAST STROUDSBURG,PA
18105,LEHIGH,ALLENTOWN,PA
15202,ALLEGHENY,PITTSBURGH,PA
19301,CHESTER,PAOLI,PA
16652,HUNTINGDON,HUNTINGDON,PA
18015,LEHIGH,BETHLEHEM,PA
16915,POTTER,COUDERSPORT,PA
16735,MCKEAN,KANE,PA
15501,SOMERSET,SOMERSET,PA
17756,LYCOMING,MUNCY,PA
16901,TIOGA,WELLSBORO,PA
17522,LANCASTER,EPHRATA,PA
17325,ADAMS,GETTYSBURG,PA
38344,CARROLL,HUNTINGDON,TN
38320,BENTON,CAMDEN,TN
37415,HAMILTON,CHATTANOOGA,TN
37772,LOUDON,LENOIR CITY,TN
38372,HARDIN,SAVANNAH,TN
38351,HENDERSON,LEXINGTON,TN
37862,SEVIER,SEVIERVILLE,TN
38119,SHELBY,MEMPHIS,TN
38133,SHELBY,BARTLETT,TN
37166,DEKALB,SMITHVILLE,TN
37190,CANNON,WOODBURY,TN
38583,WHITE,SPARTA,TN
37205,DAVIDSON,NASHVILLE,TN
37043,MONTGOMERY,CLARKSVILLE,TN
37312,BRADLEY,CLEVELAND,TN
37311,BRADLEY,CLEVELAND,TN
37821,COCKE,NEWPORT,TN
37015,CHEATHAM,ASHLAND CITY,TN
37055,DICKSON,DICKSON,TN
37115,DAVIDSON,MADISON,TN
37211,DAVIDSON,NASHVILLE,TN
38116,SHELBY,MEMPHIS,TN
37849,KNOX,POWELL,TN
37743,GREENE,GREENEVILLE,TN
38024,DYER,DYERSBURG,TN
37804,BLOUNT,MARYVILLE,TN
37683,JOHNSON,MOUNTAIN CITY,TN
38570,OVERTON,LIVINGSTON,TN
37398,FRANKLIN,WINCHESTER,TN
37066,SUMNER,GALLATIN,TN
37760,JEFFERSON,JEFFERSON CITY,TN
37075,SUMNER,HENDERSONVILLE,TN
37148,SUMNER,PORTLAND,TN
37167,RUTHERFORD,SMYRNA,TN
37650,UNICOI,ERWIN,TN
37232,DAVIDSON,NASHVILLE,TN
74601,KAY,PONCA CITY,OK
73005,CADDO,ANADARKO,OK
73142,OKLAHOMA,OKLAHOMA CITY,OK
73841,WOODWARD,FORT SUPPLY,OK
73099,CANADIAN,YUKON,OK
73135,OKLAHOMA,OKLAHOMA CITY,OK
74801,POTTAWATOMIE,SHAWNEE,OK
73077,NOBLE,PERRY,OK
74631,KAY,BLACKWELL,OK
73013,OKLAHOMA,EDMOND,OK
73018,GRADY,CHICKASHA,OK
74361,MAYES,PRYOR,OK
73554,GREER,MANGUM,OK
74745,MCCURTAIN,IDABEL,OK
73858,ELLIS,SHATTUCK,OK
74127,TULSA,TULSA,OK
74523,PUSHMATAHA,ANTLERS,OK
74804,POTTAWATOMIE,SHAWNEE,OK
74006,WASHINGTON,BARTLESVILLE,OK
74056,OSAGE,PAWHUSKA,OK
74301,CRAIG,VINITA,OK
74066,CREEK,SAPULPA,OK
24614,BUCHANAN,GRUNDY,VA
24033,ROANOKE CITY,ROANOKE,VA
24501,LYNCHBURG,LYNCHBURG,VA
67950,MORTON,ELKHART,KS
23220,RICHMOND CITY,RICHMOND,VA
24541,DANVILLE,DANVILLE,VA
80504,WELD,LONGMONT,CO
29824,EDGEFIELD,EDGEFIELD,SC
30720,WHITFIELD,DALTON,GA
31905,CHATTAHOOCHEE,FORT BENNING,GA
31015,CRISP,CORDELE,GA
31069,HOUSTON,PERRY,GA
32340,MADISON,MADISON,FL
32347,TAYLOR,PERRY,FL
34981,ST. LUCIE,FORT PIERCE,FL
36854,CHAMBERS,VALLEY,AL
35125,ST. CLAIR,PELL CITY,AL
35999,ETOWAH,GADSDEN,AL
26241,RANDOLPH,ELKINS,WV
92807,ORANGE,ANAHEIM,CA
50595,HAMILTON,WEBSTER CITY,IA
46544,ST. JOSEPH,MISHAWAKA,IN
70364,TERREBONNE,HOUMA,LA
66968,WASHINGTON,WASHINGTON,KS
70807,EAST BATON ROUGE,BATON ROUGE,LA
67554,RICE,LYONS,KS
67460,MCPHERSON,MCPHERSON,KS
20785,PRINCE GEORGE'S,CHEVERLY,MD
55082,WASHINGTON,STILLWATER,MN
98271,SNOHOMISH,MARYSVILLE,WA
44890,HURON,WILLARD,OH
74012,TULSA,BROKEN ARROW,OK
59749,MADISON,SHERIDAN,MT
64759,BARTON,LAMAR,MO
63031,ST. LOUIS,FLORISSANT,MO
63857,DUNKLIN,KENNETT,MO
63122,ST. LOUIS,ST. LOUIS,MO
65803,GREENE,SPRINGFIELD,MO
64111,JACKSON,KANSAS CITY,MO
64114,JACKSON,KANSAS CITY,MO
86313,YAVAPAI,PRESCOTT,AZ
16066,BUTLER,CRANBERRY,PA
17101,DAUPHIN,HARRISBURG,PA
19148,PHILADELPHIA,PHILADELPHIA,PA
29620,ABBEVILLE,ABBEVILLE,SC
29801,AIKEN,AIKEN,SC
29671,PICKENS,PICKENS,SC
29732,YORK,ROCK HILL,SC
29706,CHESTER,CHESTER,SC
29640,PICKENS,EASLEY,SC
29672,OCONEE,SENECA,SC
29307,SPARTANBURG,SPARTANBURG,SC
66538,NEMAHA,SENECA,KS
66720,NEOSHO,CHANUTE,KS
99362,WALLA WALLA,WALLA WALLA,WA
66801,LYON,EMPORIA,KS
67114,HARVEY,NEWTON,KS
67654,NORTON,NORTON,KS
66061,JOHNSON,OLATHE,KS
66064,MIAMI,OSAWATOMIE,KS
98948,YAKIMA,TOPPENISH,WA
98002,KING,AUBURN,WA
98034,KING,KIRKLAND,WA
98223,SNOHOMISH,ARLINGTON,WA
98823,GRANT,EPHRATA,WA
99133,GRANT,GRAND COULEE,WA
99202,SPOKANE,SPOKANE,WA
99328,COLUMBIA,DAYTON,WA
99210,SPOKANE,SPOKANE,WA
99022,SPOKANE,MEDICAL LAKE,WA
98033,KING,KIRKLAND,WA
98331,CLALLAM,FORKS,WA
99347,GARFIELD,POMEROY,WA
98310,KITSAP,BREMERTON,WA
98383,KITSAP,BREMERTON,WA
98166,KING,BURIEN,WA
96796,KAUAI,WAIMEA,HI
98221,SKAGIT,ANACORTES,WA
98112,KING,SEATTLE,WA
98125,KING,SEATTLE,WA
98926,KITTITAS,ELLENSBURG,WA
98620,KLICKITAT,GOLDENDALE,WA
98686,CLARK,VANCOUVER,WA
98431,PIERCE,TACOMA,WA
98557,GRAYS HARBOR,MCCLEARY,WA
98405,PIERCE,TACOMA,WA
98584,MASON,SHELTON,WA
98841,OKANOGAN,OMAK,WA
99216,SPOKANE,SPOKANE,WA
98315,KITSAP,SILVERDALE,WA
98278,ISLAND,OAK HARBOR,WA
99156,PEND OREILLE,NEWPORT,WA
98855,OKANOGAN,TONASKET,WA
98624,PACIFIC,ILWACO,WA
99159,LINCOLN,ODESSA,WA
98362,CLALLAM,PORT ANGELES,WA
99344,ADAMS,OTHELLO,WA
98225,WHATCOM,BELLINGHAM,WA
99350,BENTON,PROSSER,WA
99207,SPOKANE,SPOKANE,WA
99114,STEVENS,COLVILLE,WA
98206,SNOHOMISH,EVERETT,WA
99109,STEVENS,CHEWELAH,WA
98506,THURSTON,OLYMPIA,WA
99163,WHITMAN,PULLMAN,WA
98848,GRANT,QUINCY,WA
98837,GRANT,MOSES LAKE,WA
98146,KING,SEATTLE,WA
98109,KING,SEATTLE,WA
99204,SPOKANE,SPOKANE,WA
98273,SKAGIT,MT VERNON,WA
98672,KLICKITAT,WHITE SALMON,WA
98663,CLARK,VANCOUVER,WA
99205,SPOKANE,SPOKANE,WA
98332,PIERCE,GIG HARBOR,WA
98022,KING,ENUMCLAW,WA
98003,KING,FEDERAL WAY,WA
98541,GRAYS HARBOR,ELMA,WA
98107,KING,SEATTLE,WA
98122,KING,SEATTLE,WA
98020,SNOHOMISH,EDMONDS,WA
98114,KING,SEATTLE,WA
98812,OKANOGAN,BREWSTER,WA
99336,BENTON,KENNEWICK,WA
98134,KING,SEATTLE,WA
98195,KING,SEATTLE,WA
98438,SPOKANE,FAIRCHILD AIR FORCE BASE,WA
98133,KING,SEATTLE,WA
98055,KING,RENTON,WA
98433,PIERCE,TACOMA,WA
98108,KING,SEATTLE,WA
98101,KING,SEATTLE,WA
98902,YAKIMA,YAKIMA,WA
98239,ISLAND,COUPEVILLE,WA
99111,WHITMAN,COLFAX,WA
98586,PACIFIC,SOUTH BEND,WA
98801,CHELAN,WENATCHEE,WA
68620,BOONE,ALBION,NE
69301,BOX BUTTE,ALLIANCE,NE
68978,NUCKOLLS,SUPERIOR,NE
68502,LANCASTER,LINCOLN,NE
68825,CUSTER,CALLAWAY,NE
69337,DAWES,CHADRON,NE
68124,DOUGLAS,OMAHA,NE
68848,BUFFALO,KEARNEY,NE
68526,LANCASTER,LINCOLN,NE
68769,PIERCE,PLAINVIEW,NE
68847,BUFFALO,KEARNEY,NE
68661,COLFAX,SCHUYLER,NE
68510,LANCASTER,LINCOLN,NE
68355,RICHARDSON,FALLS CITY,NE
68446,OTOE,SYRACUSE,NE
69130,DAWSON,COZAD,NE
69021,DUNDY,BENKELMAN,NE
68361,FILLMORE,GENEVA,NE
68939,FRANKLIN,FRANKLIN,NE
68640,NANCE,GENOA,NE
69343,SHERIDAN,GORDON,NE
69138,DAWSON,GOTHENBURG,NE
69101,LINCOLN,NORTH PLATTE,NE
68873,HOWARD,ST PAUL,NE
68822,CUSTER,BROKEN BOW,NE
68845,BUFFALO,KEARNEY,NE
68850,DAWSON,LEXINGTON,NE
68509,LANCASTER,LINCOLN,NE
68826,MERRICK,CENTRAL CITY,NE
68901,ADAMS,HASTINGS,NE
68008,WASHINGTON,BLAIR,NE
68434,SEWARD,SEWARD,NE
68818,HAMILTON,AURORA,NE
68025,DODGE,FREMONT,NE
68022,DOUGLAS,ELKHORN,NE
69336,MORRILL,BRIDGEPORT,NE
68198,DOUGLAS,OMAHA,NE
68144,DOUGLAS,OMAHA,NE
68305,NEMAHA,AUBURN,NE
68746,BOYD,LYNCH,NE
68045,BURT,OAKLAND,NE
69153,KEITH,OGALLALA,NE
68420,PAWNEE,PAWNEE CITY,NE
68047,THURSTON,PENDER,NE
69140,PERKINS,GRANT,NE
68949,PHELPS,HOLDREGE,NE
69154,GARDEN,OSHKOSH,NE
69361,SCOTTS BLUFF,SCOTTSBLUFF,NE
68714,ROCK,BASSETT,NE
68066,SAUNDERS,WAHOO,NE
69162,CHEYENNE,SIDNEY,NE
68788,CUMING,WEST POINT,NE
68370,THAYER,HEBRON,NE
68781,ANTELOPE,TILDEN,NE
69022,FURNAS,CAMBRIDGE,NE
68862,VALLEY,ORD,NE
68359,SALINE,FRIEND,NE
68970,WEBSTER,RED CLOUD,NE
66212,JOHNSON,OVERLAND PARK,KS
66739,CHEROKEE,GALENA,KS
66227,JOHNSON,LENEXA,KS
66204,JOHNSON,SHAWNEE MISSION,KS
67207,SEDGWICK,WICHITA,KS
66502,RILEY,MANHATTAN,KS
67218,SEDGWICK,WICHITA,KS
67235,SEDGWICK,WICHITA,KS
66002,ATCHISON,ATCHISON,KS
67880,GRANT,ULYSSES,KS
67756,CHEYENNE,ST FRANCIS,KS
67432,CLAY,CLAY CENTER,KS
66901,CLOUD,CONCORDIA,KS
66871,COFFEY,WAVERLY,KS
67337,MONTGOMERY,COFFEYVILLE,KS
67029,COMANCHE,COLDWATER,KS
66508,MARSHALL,MARYSVILLE,KS
66062,JOHNSON,OLATHE,KS
67749,DECATUR,OBERLIN,KS
67547,EDWARDS,KINSLEY,KS
67439,ELLSWORTH,ELLSWORTH,KS
66743,CRAWFORD,GIRARD,KS
67642,GRAHAM,HILL CITY,KS
67879,GREELEY,TRIBUNE,KS
66945,WASHINGTON,HANOVER,KS
67601,ELLIS,HAYS,KS
66221,JOHNSON,OVERLAND PARK,KS
67449,DICKINSON,HERINGTON,KS
67063,MARION,HILLSBORO,KS
66956,JEWELL,MANKATO,KS
67839,LANE,DIGHTON,KS
67550,PAWNEE,LARNED,KS
67455,LINCOLN,LINCOLN,KS
67456,MCPHERSON,LINDSBORG,KS
67864,MEADE,MEADE,KS
66030,JOHNSON,GARDNER,KS
67104,BARBER,MEDICINE LODGE,KS
67410,DICKINSON,ABILENE,KS
67107,MCPHERSON,MOUNDRIDGE,KS
66725,CHEROKEE,COLUMBUS,KS
67301,MONTGOMERY,INDEPENDENCE,KS
66071,MIAMI,PAOLA,KS
67865,CLARK,MINNEOLA,KS
66846,MORRIS,COUNCIL GROVE,KS
67356,LABETTE,OSWEGO,KS
66215,JOHNSON,OVERLAND PARK,KS
67661,PHILLIPS,PHILLIPSBURG,KS
67124,PRATT,PRATT,KS
67730,RAWLINS,ATWOOD,KS
66207,JOHNSON,OVERLAND PARK,KS
66935,REPUBLIC,BELLEVILLE,KS
67663,ROOKS,PLAINVILLE,KS
67548,RUSH,LA CROSSE,KS
67665,RUSSELL,RUSSELL,KS
66534,NEMAHA,SABETHA,KS
66048,LEAVENWORTH,LEAVENWORTH,KS
67401,SALINE,SALINA,KS
67870,HASKELL,SATANTA,KS
67361,CHAUTAUQUA,SEDAN,KS
67901,SEWARD,LIBERAL,KS
66762,CRAWFORD,PITTSBURG,KS
67212,SEDGWICK,WICHITA,KS
67220,SEDGWICK,WICHITA,KS
67801,FORD,DODGE CITY,KS
67861,WICHITA,LEOTI,KS
59725,BEAVERHEAD,DILLON,MT
59068,CARBON,RED LODGE,MT
59034,BIG HORN,HARDIN,MT
59520,CHOUTEAU,BIG SANDY,MT
59716,GALLATIN,BIG SKY,MT
59457,FERGUS,LEWISTOWN,MT
59859,SANDERS,PLAINS,MT
59711,DEER LODGE,ANACONDA,MT
59804,MISSOULA,MISSOULA,MT
59324,CARTER,EKALAKA,MT
59263,DANIELS,SCOBEY,MT
59722,POWELL,DEER LODGE,MT
59313,FALLON,BAKER,MT
59337,GARFIELD,JORDAN,MT
59330,DAWSON,GLENDIVE,MT
59858,GRANITE,PHILIPSBURG,MT
59522,LIBERTY,CHESTER,MT
59047,PARK,LIVINGSTON,MT
59729,MADISON,ENNIS,MT
59474,TOOLE,SHELBY,MT
59215,MCCONE,CIRCLE,MT
59872,MINERAL,SUPERIOR,MT
59442,CHOUTEAU,FORT BENTON,MT
59645,MEAGHER,WHITE SULPHUR,MT
59937,FLATHEAD,WHITEFISH,MT
59201,ROOSEVELT,WOLF POINT,MT
59538,PHILLIPS,MALTA,MT
59011,SWEET GRASS,BIG TIMBER,MT
59425,PONDERA,CONRAD,MT
59349,PRAIRIE,TERRY,MT
59218,ROOSEVELT,CULBERTSON,MT
59327,ROSEBUD,FORSYTH,MT
59254,SHERIDAN,PLENTYWOOD,MT
59604,LEWIS AND CLARK,HELENA,MT
59270,RICHLAND,SIDNEY,MT
59864,LAKE,RONAN,MT
59860,LAKE,POLSON,MT
59601,LEWIS AND CLARK,HELENA,MT
59019,STILLWATER,COLUMBUS,MT
59036,WHEATLAND,HARLOWTON,MT
38635,MARSHALL,HOLLY SPRINGS,MS
38829,PRENTISS,BOONEVILLE,MS
38916,CALHOUN,CALHOUN CITY,MS
38671,DESOTO,SOUTHAVEN,MS
39705,LOWNDES,COLUMBUS,MS
38652,UNION,NEW ALBANY,MS
39652,PIKE,MAGNOLIA,MS
38732,BOLIVAR,CLEVELAND,MS
39232,RANKIN,JACKSON,MS
38655,LAFAYETTE,OXFORD,MS
39150,CLAIBORNE,PORT GIBSON,MS
39452,GEORGE,LUCEDALE,MS
39095,HOLMES,LEXINGTON,MS
39474,JEFFERSON DAVIS,PRENTISS,MS
39328,KEMPER,DEKALB,MS
39747,MONTGOMERY,KILMICHAEL,MS
39601,LINCOLN,BROOKHAVEN,MS
39365,NEWTON,UNION,MS
39111,SIMPSON,MAGEE,MS
39204,HINDS,JACKSON,MS
39121,ADAMS,NATCHEZ,MS
39296,RANKIN,FLOWOOD,MS
39183,WARREN,VICKSBURG,MS
38654,DESOTO,OLIVE BRANCH,MS
67058,HARPER,HARPER,KS
39202,HINDS,JACKSON,MS
38821,MONROE,AMORY,MS
38801,LEE,TUPELO,MS
38804,LEE,TUPELO,MS
38668,TATE,SENATOBIA,MS
38771,SUNFLOWER,RULEVILLE,MS
38614,COAHOMA,CLARKSDALE,MS
39341,NOXUBEE,MACON,MS
39564,JACKSON,OCEAN SPRINGS,MS
39759,OKTIBBEHA,STARKVILLE,MS
39521,HANCOCK,BAY ST. LOUIS,MS
39038,HUMPHREYS,BELZONI,MS
39153,SMITH,RALEIGH,MS
39470,PEARL RIVER,POPLARVILLE,MS
66547,POTTAWATOMIE,WAMEGO,KS
43232,FRANKLIN,COLUMBUS,OH
44236,SUMMIT,HUDSON,OH
39476,PERRY,RICHTON,MS
38863,PONTOTOC,PONTOTOC,MS
38646,QUITMAN,MARKS,MS
39074,SCOTT,FOREST,MS
39117,SCOTT,MORTON,MS
39211,HINDS,JACKSON,MS
39159,SHARKEY,ROLLING FORK,MS
39114,SIMPSON,MENDENHALL,MS
39581,JACKSON,PASCAGOULA,MS
39441,JONES,LAUREL,MS
38751,SUNFLOWER,INDIANOLA,MS
38921,TALLAHATCHIE,CHARLESTON,MS
38967,MONTGOMERY,WINONA,MS
38901,GRENADA,GRENADA,MS
39667,WALTHALL,TYLERTOWN,MS
39367,WAYNE,WAYNESBORO,MS
38965,YALOBUSHA,WATER VALLEY,MS
72761,BENTON,SILOAM SPRINGS,AR
72031,VAN BUREN,CLINTON,AR
72112,JACKSON,NEWPORT,AR
72956,CRAWFORD,VAN BUREN,AR
85375,MARICOPA,SUN CITY WEST,AZ
86040,COCONINO,PAGE,AZ
85755,PIMA,ORO VALLEY,AZ
85542,GILA,PERIDOT,AZ
72032,FAULKNER,CONWAY,AR
85222,PINAL,CASA GRANDE,AZ
80487,ROUTT,STEAMBOAT SPRINGS,CO
80045,ADAMS,AURORA,CO
81601,GARFIELD,GLENWOOD SPRINGS,CO
96793,MAUI,WAILUKU,HI
67045,GREENWOOD,EUREKA,KS
67831,CLARK,ASHLAND,KS
67003,HARPER,ANTHONY,KS
66044,DOUGLAS,LAWRENCE,KS
63026,ST. LOUIS,FENTON,MO
39649,PIKE,MCCOMB,MS
39773,CLAY,WEST POINT,MS
38606,PANOLA,BATESVILLE,MS
39120,ADAMS,NATCHEZ,MS
82901,SWEETWATER,ROCK SPRINGS,WY
77055,HARRIS,HOUSTON,TX
78401,NUECES,CORPUS CHRISTI,TX
77619,JEFFERSON,GROVES,TX
43953,JEFFERSON,WINTERSVILLE,OH
59422,TETON,CHOTEAU,MT
59072,MUSSELSHELL,ROUNDUP,MT
59427,GLACIER,CUT BANK,MT
59840,RAVALLI,HAMILTON,MT
59255,ROOSEVELT,POPLAR,MT
59301,CUSTER,MILES CITY,MT
59806,MISSOULA,MISSOULA,MT
28203,MECKLENBURG,CHARLOTTE,NC
58501,BURLEIGH,BISMARCK,ND
11772,SUFFOLK,PATCHOGUE,NY
13326,OTSEGO,COOPERSTOWN,NY
11219,KINGS,BROOKLYN,NY
10301,RICHMOND,STATEN ISLAND,NY
12518,ORANGE,CORNWALL,NY
81611,PITKIN,ASPEN,CO
80528,LARIMER,FORT COLLINS,CO
80304,BOULDER,BOULDER,CO
80906,EL PASO,COLORADO SPRINGS,CO
80228,JEFFERSON,LAKEWOOD,CO
80923,EL PASO,COLORADO SPRINGS,CO
81212,FREMONT,CANON CITY,CO
80112,ARAPAHOE,CENTENNIAL,CO
29414,CHARLESTON,CHARLESTON,SC
29464,CHARLESTON,MOUNT PLEASANT,SC
29550,DARLINGTON,HARTSVILLE,SC
80204,DENVER,DENVER,CO
81521,MESA,FRUITA,CO
80236,DENVER,DENVER,CO
80701,MORGAN,FORT MORGAN,CO
80113,ARAPAHOE,ENGLEWOOD,CO
80723,MORGAN,BRUSH,CO
80230,DENVER,DENVER,CO
80910,EL PASO,COLORADO SPRINGS,CO
57301,DAVISON,MITCHELL,SD
98104,KING,SEATTLE,WA
98105,KING,SEATTLE,WA
98372,PIERCE,PUYALLUP,WA
98004,KING,BELLEVUE,WA
98204,SKAGIT,SEDRO-WOOLLEY,WA
99301,FRANKLIN,PASCO,WA
80517,LARIMER,ESTES PARK,CO
80026,BOULDER,LAFAYETTE,CO
81650,GARFIELD,RIFLE,CO
81230,GUNNISON,GUNNISON,CO
80731,PHILLIPS,HAXTUN,CO
80810,CHEYENNE,CHEYENNE WELLS,CO
80033,JEFFERSON,WHEAT RIDGE,CO
81401,MONTROSE,MONTROSE,CO
80206,DENVER,DENVER,CO
80601,ADAMS,BRIGHTON,CO
80524,LARIMER,FORT COLLINS,CO
81052,PROWERS,LAMAR,CO
81132,RIO GRANDE,DEL NORTE,CO
81140,CONEJOS,LA JARA,CO
80123,ARAPAHOE,LITTLETON,CO
80737,SEDGWICK,JULESBURG,CO
80124,DOUGLAS,LONE TREE,CO
81073,BACA,SPRINGFIELD,CO
81321,MONTEZUMA,CORTEZ,CO
81089,HUERFANO,WALSENBURG,CO
80023,BROOMFIELD,WESTMINSTER,CO
80443,SUMMIT,FRISCO,CO
80751,LOGAN,STERLING,CO
80863,TELLER,WOODLAND PARK,CO
80920,EL PASO,COLORADO SPRINGS,CO
81657,EAGLE,VAIL,CO
25702,CABELL,HUNTINGTON,WV
26175,TYLER,SISTERSVILLE,WV
82501,FREMONT,RIVERTON,WY
82435,PARK,POWELL,WY
83001,TETON,JACKSON,WY
82072,ALBANY,LARAMIE,WY
80759,YUMA,YUMA,CO
45238,HAMILTON,CINCINNATI,OH
89147,CLARK,LAS VEGAS,NV
89032,CLARK,LAS VEGAS,NV
44836,SANDUSKY,GREEN SPRINGS,OH
39051,LEAKE,CARTHAGE,MS
30680,BARROW,WINDER,GA
31062,BALDWIN,MILLEDGEVILLE,GA
31791,WORTH,SYLVESTER,GA
28422,BRUNSWICK,BOLIVIA,NC
28732,HENDERSON,HENDERSONVILLE,NC
85345,MARICOPA,PEORIA,AZ
54736,PEPIN,DURAND,WI
54001,POLK,AMERY,WI
99801,JUNEAU,JUNEAU,AK
65212,BOONE,COLUMBIA,MO
80021,JEFFERSON,BROOMFIELD,CO
81641,RIO BLANCO,MEEKER,CO
33334,BROWARD,OAKLAND PARK,FL
32935,BREVARD,MELBOURNE,FL
53403,RACINE,RACINE,WI
53405,RACINE,RACINE,WI
53014,CALUMET,CHILTON,WI
33637,HILLSBOROUGH,TAMPA,FL
22402,STAUNTON,STAUNTON,VA
23803,DINWIDDIE,PETERSBURG,VA
66622,SHAWNEE,TOPEKA,KS
30136,GWINNETT,DULUTH,GA
30152,COBB,KENNESAW,GA
31635,LANIER,LAKELAND,GA
77630,ORANGE,ORANGE,TX
76692,HILL,WHITNEY,TX
79401,LUBBOCK,LUBBOCK,TX
77643,JEFFERSON,PORT ARTHUR,TX
79602,TAYLOR,ABILENE,TX
77328,LIBERTY,CLEVELAND,TX
78732,TRAVIS,AUSTIN,TX
70769,ASCENSION,PRAIRIEVILLE,LA
76110,TARRANT,FORT WORTH,TX
76226,DENTON,ARGYLE,TX
32746,SEMINOLE,LAKE MARY,FL
36278,RANDOLPH,WEDOWEE,AL
44321,SUMMIT,COPLEY,OH
60045,LAKE,LAKE FOREST,IL
65202,BOONE,COLUMBIA,MO
29910,BEAUFORT,BLUFFTON,SC
39744,WEBSTER,EUPORA,MS
38852,TISHOMINGO,IUKA,MS
20904,MONTGOMERY,SILVER SPRING,MD
13219,ONONDAGA,SYRACUSE,NY
11430,QUEENS,JAMAICA,NY
14202,ERIE,BUFFALO,NY
10980,ROCKLAND,STONY POINT,NY
10028,NEW YORK,NEW YORK,NY
11758,NASSAU,MASSAPEQUA,NY
10012,NEW YORK,NEW YORK,NY
11216,KINGS,BROOKLYN,NY
11730,SUFFOLK,EAST ISLIP,NY
11208,KINGS,BROOKLYN,NY
11423,QUEENS,HOLLIS,NY
11717,SUFFOLK,BRENTWOOD,NY
10014,NEW YORK,NEW YORK,NY
11415,QUEENS,KEW GARDENS,NY
11570,NASSAU,ROCKVILLE CENTRE,NY
11939,SUFFOLK,EAST MARION,NY
10950,ORANGE,MONROE,NY
10009,NEW YORK,NEW YORK,NY
11563,NASSAU,LYNBROOK,NY
10573,WESTCHESTER,PORT CHESTER,NY
11221,KINGS,BROOKLYN,NY
92591,ALBANY,TEMECULA,CA
11225,KINGS,BROOKLYN,NY
11757,SUFFOLK,LINDENHURST,NY
13039,ONONDAGA,CICERO,NY
11733,SUFFOLK,SETAUKET,NY
14623,MONROE,HENRIETTA,NY
13027,ONONDAGA,BALDWINSVILLE,NY
13088,ONONDAGA,LIVERPOOL,NY
10454,BRONX,BRONX,NY
10510,WESTCHESTER,BRIACLIFF MANOR,NY
11223,KINGS,BROOKLYN,NY
12804,WARREN,QUEENSBURY,NY
13802,BROOME,MAINE,NY
11211,KINGS,BROOKLYN,NY
11378,QUEENS,MASPETH,NY
11207,KINGS,BROOKLYN,NY
10801,WESTCHESTER,NEW ROCHELLE,NY
11361,QUEENS,BAYSIDE,NY
10452,BRONX,BRONX,NY
10994,ROCKLAND,WEST NYACK,NY
13036,OSWEGO,CENTRAL SQUARE,NY
11764,SUFFOLK,MILLER PLACE,NY
10598,WESTCHESTER,YORKTOWN HEIGHTS,NY
14423,LIVINGSTON,CALEDONIA,NY
11558,NASSAU,ISLAND PARK,NY
10590,WESTCHESTER,SOUTH SALEM,NY
13316,ONEIDA,CAMDEN,NY
10312,RICHMOND,STATEN ISLAND,NY
10024,NEW YORK,NEW YORK,NY
11550,NASSAU,HEMPSTEAD,NY
14226,ERIE,AMHERST,NY
13035,MADISON,CAZENOVIA,NY
14609,MONROE,ROCHESTER,NY
12561,ULSTER,NEW PALTZ,NY
10940,ORANGE,MIDDLETOWN,NY
11103,QUEENS,ASTORIA,NY
11778,SUFFOLK,ROCKY POINT,NY
10018,NEW YORK,NEW YORK,NY
13368,LEWIS,LYONS FALLS,NY
12566,ORANGE,PINE BUSH,NY
11050,NASSAU,PORT WASHINGTON,NY
14559,MONROE,SPENCERPORT,NY
94559,ALBANY,NAPA,CA
12015,GREENE,ATHENS,NY
12197,OTSEGO,WORCESTER,NY
11435,QUEENS,JAMAICA,NY
12110,ALBANY,LATHAM,NY
10965,ROCKLAND,PEARL RIVER,NY
11731,SUFFOLK,E NORTHPORT,NY
11692,QUEENS,ARVENE,NY
12508,DUTCHESS,BEACON,NY
12154,RENSSELAER,SCHAGHTICOKE,NY
11222,KINGS,BROOKLYN,NY
11581,NASSAU,VALLEY STREAM,NY
12305,SCHENECTADY,SCHENECTADY,NY
14551,WAYNE,SODUS,NY
11954,SUFFOLK,MONTAUK,NY
11434,QUEENS,JAMAICA,NY
12845,WARREN,LAKE GEORGE,NY
12847,HAMILTON,LONG LAKE,NY
11755,SUFFOLK,LAKE GROVE,NY
11741,SUFFOLK,HOLBROOK,NY
13754,DELAWARE,DEPOSIT,NY
10606,WESTCHESTER,WHITE PLAINS,NY
11101,QUEENS,LONG ISLAND CITY,NY
13624,JEFFERSON,CLAYTON,NY
11976,SUFFOLK,WATER MILL,NY
12065,SARATOGA,CLIFTON PARK,NY
14441,YATES,DRESDEN,NY
14738,CHAUTAUQUA,FREWSBURG,NY
11238,KINGS,BROOKLYN,NY
11576,NASSAU,ROSLYN,NY
14422,GENESEE,BYRON,NY
10013,NEW YORK,NEW YORK,NY
12306,SCHENECTADY,ROTTERDAM,NY
12189,ALBANY,WATERVLIET,NY
12158,ALBANY,SELKIRK,NY
11232,KINGS,BROOKLYN,NY
95425,ALBANY,CLOVERDALE,CA
12828,WASHINGTON,FORT EDWARD,NY
11754,SUFFOLK,KINGS PARK,NY
12528,ULSTER,HIGHLAND,NY
11944,SUFFOLK,GREENPORT,NY
12944,CLINTON,KEESEVILLE,NY
11368,QUEENS,CORONA,NY
10040,NEW YORK,NEW YORK,NY
11566,NASSAU,NORTH MERRICK,NY
11106,QUEENS,ASTORIA,NY
10562,WESTCHESTER,OSSINING,NY
10458,BRONX,BRONX,NY
14891,SCHUYLER,WATKINS GLEN,NY
11358,QUEENS,FLUSHING,NY
11725,SUFFOLK,COMMACK,NY
10166,NEW YORK,NEW YORK,NY
14748,CATTARAUGUS,KILL BUCK,NY
11372,QUEENS,JACKSON HEIGHTS,NY
14624,MONROE,GATES,NY
14525,GENESEE,PAVILION,NY
11590,NASSAU,WESTBURY,NY
12571,DUTCHESS,RED HOOK,NY
10307,RICHMOND,STATEN ISLAND,NY
11003,NASSAU,ELMONT,NY
11950,SUFFOLK,MASTIC,NY
12822,SARATOGA,CORINTH,NY
10453,BRONX,BRONX,NY
13090,ONONDAGA,LIVERPOOL,NY
10464,BRONX,BRONX,NY
14731,CATTARAUGUS,ELLICOTTVILLE,NY
12701,SULLIVAN,MONTICELLO,NY
11433,QUEENS,JAMAICA,NY
10017,NEW YORK,NEW YORK,NY
12406,DELAWARE,MIDDLETOWN,NY
10941,ORANGE,MIDDLETOWN,NY
10465,BRONX,BRONX,NY
11224,KINGS,BROOKLYN,NY
13031,ONONDAGA,CAMILLUS,NY
14068,ERIE,AMHERST,NY
11001,NASSAU,FLORAL PARK,NY
10475,BRONX,BRONX,NY
14468,MONROE,HILTON,NY
11784,SUFFOLK,SELDEN,NY
14075,ERIE,HAMBURG,NY
12182,RENSSELAER,TROY,NY
14589,WAYNE,WILLIAMSON,NY
11379,QUEENS,MIDDLE VILLAGE,NY
14590,WAYNE,WOLCOTT,NY
94607,ALBANY,OAKLAND,CA
10022,NEW YORK,NEW YORK,NY
95684,ALBANY,SOMERSET,CA
10002,NEW YORK,NEW YORK,NY
13102,TOMPKINS,MCLEAN,NY
12164,HAMILTON,SPECULATOR,NY
10566,WESTCHESTER,PEEKSKILL,NY
12009,ALBANY,ALTAMONT,NY
14532,ONTARIO,PHELPS,NY
11218,KINGS,BROOKLYN,NY
11226,KINGS,BROOKLYN,NY
14150,ERIE,TONAWANDA,NY
11596,NASSAU,WILLISTON PARK,NY
14612,MONROE,ROCHESTER,NY
95492,ALBANY,WINDSOR,CA
14450,MONROE,FAIRPORT,NY
11418,QUEENS,RICHMOND HILL,NY
10033,NEW YORK,NEW YORK,NY
11365,QUEENS,FLUSHING,NY
11520,NASSAU,FREEPORT,NY
13439,OTSEGO,RICHFIELD SPRINGS,NY
11366,QUEENS,FLUSHING,NY
12147,ALBANY,RENSSELAERVILLE,NY
13340,ONEIDA,ROME,NY
11249,KINGS,BROOKLYN,NY
10455,BRONX,BRONX,NY
11801,NASSAU,HICKSVILLE,NY
12870,ESSEX,SCHROON LAKE,NY
12205,ALBANY,COLONIE,NY
13118,CAYUGA,MORAVIA,NY
97114,ALBANY,DAYTON,OR
10523,WESTCHESTER,ELMSFORD,NY
12020,SARATOGA,MALTA,NY
11971,SUFFOLK,SOUTHOLD,NY
13480,ONEIDA,WATERVILLE,NY
13054,ONEIDA,DURHAMVILLE,NY
14221,ERIE,WILLIAMSVILLE,NY
10552,WESTCHESTER,MOUNT VERNON,NY
11364,QUEENS,BAYSIDE,NY
12786,SULLIVAN,WHITE LAKE,NY
14469,ONTARIO,BLOOMFIELD,NY
10977,ROCKLAND,SPRING VALLEY,NY
12524,DUTCHESS,FISHKILL,NY
78671,ALBANY,STONEWALL,TX
13691,JEFFERSON,THERESA,NY
12919,CLINTON,CHAMPLAIN,NY
11385,QUEENS,GLENDALE,NY
10538,WESTCHESTER,LARCHMONT,NY
13078,ONONDAGA,JAMESVILLE,NY
12569,DUTCHESS,PLEASANT VALLEY,NY
11356,QUEENS,COLLEGE POINT,NY
12157,SCHOHARIE,SCHOHARIE,NY
14903,CHEMUNG,ELMIRA,NY
13224,ONONDAGA,SYRACUSE,NY
11109,QUEENS,LONG ISLAND CITY,NY
13144,OSWEGO,RICHLAND,NY
95436,ALBANY,FORESTVILLE,CA
11713,SUFFOLK,BELLPORT,NY
14541,SENECA,ROMULUS,NY
12095,FULTON,JOHNSTOWN,NY
10803,WESTCHESTER,PELHAM,NY
11792,SUFFOLK,WADING RIVER,NY
10954,ROCKLAND,NANUET,NY
14580,MONROE,WEBSTER,NY
12037,COLUMBIA,CHATHAM,NY
12054,ALBANY,DELMAR,NY
12581,DUTCHESS,STANDFORDVILLE,NY
13827,TIOGA,OWEGO,NY
14168,CATTARAUGUS,VERSAILLES,NY
10462,BRONX,BRONX,NY
14619,MONROE,ROCHESTER,NY
10302,RICHMOND,STATEN ISLAND,NY
12590,DUTCHESS,WAPPINGERS FALLS,NY
11779,SUFFOLK,LAKE RONKONKOMA,NY
10463,BRONX,BRONX,NY
10546,WESTCHESTER,MILLWOOD,NY
10030,NEW YORK,NEW YORK,NY
12206,ALBANY,ALBANY,NY
11210,KINGS,BROOKLYN,NY
14821,STEUBEN,CAMPBELL,NY
14428,MONROE,CHURCHVILLE,NY
14052,ERIE,EAST AURORA,NY
12516,COLUMBIA,COPAKE,NY
10570,WESTCHESTER,PLEASANTVILLE,NY
94515,ALBANY,CALISTOGA,CA
11233,KINGS,BROOKLYN,NY
10580,WESTCHESTER,RYE,NY
11205,KINGS,BROOKLYN,NY
11572,NASSAU,OCEANSIDE,NY
13041,ONONDAGA,CLAY,NY
11217,KINGS,BROOKLYN,NY
12965,ST LAWRENCE,HOPKINTON,NY
11797,NASSAU,WOODBURY,NY
11214,KINGS,BROOKLYN,NY
14032,ERIE,CLARENCE,NY
12090,RENSSELAER,HOOSICK FALLS,NY
12458,ULSTER,NAPANOCH,NY
11769,SUFFOLK,OAKDALE,NY
10704,WESTCHESTER,YONKERS,NY
11204,KINGS,BROOKLYN,NY
12789,SULLIVAN,WOODRIDGE,NY
14521,SENECA,OVID,NY
13037,MADISON,CHITTENANGO,NY
93446,ALBANY,PASO ROBLES,CA
12803,SARATOGA,SOUTH GLENS FALLS,NY
11786,SUFFOLK,SHOREHAM,NY
11710,NASSAU,BELLMORE,NY
10065,NEW YORK,NEW YORK,NY
10005,NEW YORK,NEW YORK,NY
14223,ERIE,TONAWANDA,NY
14712,CHAUTAUQUA,BEMUS POINT,NY
11357,QUEENS,WHITESTONE,NY
94107,ALBANY,SAN FRANCISCO,CA
10007,NEW YORK,NEW YORK,NY
12425,ULSTER,ELLENVILLE,NY
11421,QUEENS,WOODHAVEN,NY
93451,ALBANY,SAN MIGUEL,CA
11231,KINGS,BROOKLYN,NY
10026,NEW YORK,NEW YORK,NY
12209,ALBANY,ALBANY,NY
10962,ROCKLAND,ORANGEBURG,NY
12594,DUTCHESS,DOVER,NY
14063,CHAUTAUQUA,FREDONIA,NY
10473,BRONX,BRONX,NY
12726,SULLIVAN,COCHECTON,NY
13205,ONONDAGA,SYRACUSE,NY
10460,BRONX,BRONX,NY
14207,ERIE,BUFFALO,NY
10006,NEW YORK,NEW YORK,NY
10281,NEW YORK,NEW YORK,NY
11010,NASSAU,FRANKLIN SQUARE,NY
14204,ERIE,BUFFALO,NY
11374,QUEENS,REGO PARK,NY
11729,SUFFOLK,DEER PARK,NY
49686,ALBANY,TRAVERSE CITY,MI
10023,NEW YORK,NEW YORK,NY
10309,RICHMOND,STATEN ISLAND,NY
10075,NEW YORK,NEW YORK,NY
12929,CLINTON,DANNEMORA,NY
14467,MONROE,HENRIETTA,NY
10027,NEW YORK,NEW YORK,NY
11972,SUFFOLK,SPEONK,NY
13679,JEFFERSON,REDWOOD,NY
12586,ORANGE,WALDEN,NY
11105,QUEENS,ASTORIA,NY
14872,CHEMUNG,PINE VALLEY,NY
11545,NASSAU,GLEN HEAD,NY
11354,QUEENS,FLUSHING,NY
14757,CHAUTAUQUA,MAYVILLE,NY
13334,MADISON,EATON,NY
94508,ALBANY,ANGWIN,CA
10710,WESTCHESTER,YONKERS,NY
14219,ERIE,HAMBURG,NY
12533,DUTCHESS,HOPEWELL JUNCTION,NY
11552,NASSAU,WEST HEMPSTEAD,NY
14414,LIVINGSTON,AVON,NY
11798,SUFFOLK,WHEATLEY HEIGHTS,NY
11236,KINGS,BROOKLYN,NY
14616,MONROE,ROCHESTER,NY
11788,SUFFOLK,HAUPPAUGE,NY
11937,SUFFOLK,EAST HAMPTON,NY
13477,ONEIDA,VERNON CENTER,NY
99201,ALBANY,SPOKANE,WA
10607,WESTCHESTER,WHITE PLAINS,NY
11693,QUEENS,ROCKAWAY BEACH,NY
11220,KINGS,BROOKLYN,NY
11429,QUEENS,QUEENS VILLAGE,NY
10953,ORANGE,MOUNTAINVILLE,NY
13902,BROOME,BINGHAMTON,NY
14845,CHEMUNG,HORSEHEADS,NY
12144,RENSSELAER,RENSSELAER,NY
11417,QUEENS,OZONE PARK,NY
14201,ERIE,BUFFALO,NY
13849,OTSEGO,UNADILLA,NY
13830,CHENANGO,OXFORD,NY
11104,QUEENS,SUNNYSIDE,NY
14816,CHEMUNG,BREESPORT,NY
10472,BRONX,BRONX,NY
10509,PUTNAM,BREWSTER,NY
12529,COLUMBIA,HILLSDALE,NY
12721,ORANGE,BLOOMINGBURG,NY
97115,ALBANY,DUNDEE,OR
13208,ONONDAGA,SYRACUSE,NY
14212,ERIE,BUFFALO,NY
13905,BROOME,BINGHAMTON,NY
14822,ALLEGANY,CANASERAGA,NY
13658,ST LAWRENCE,LISBON,NY
13662,ST LAWRENCE,MASSENA,NY
12942,ESSEX,KEENE,NY
14615,MONROE,ROCHESTER,NY
13660,ST LAWRENCE,MADRID,NY
14502,WAYNE,MACEDON,NY
11965,SUFFOLK,SHELTER ISLAND HGTS,NY
10031,NEW YORK,NEW YORK,NY
11735,NASSAU,FARMINGDALE,NY
12465,ULSTER,PINE HILL,NY
10526,WESTCHESTER,GOLDENS BRIDGE,NY
11377,QUEENS,WOODSIDE,NY
13304,ONEIDA,BARNEVELD,NY
12603,DUTCHESS,POUGHKEEPSIE,NY
12833,SARATOGA,GREENFIELD CENTER,NY
12025,FULTON,BROADALBIN,NY
11967,SUFFOLK,SHIRLEY,NY
13327,LEWIS,CROGHAN,NY
13069,OSWEGO,FULTON,NY
12210,ALBANY,ALBANY,NY
11793,NASSAU,WANTAGH,NY
13493,OSWEGO,WILLIAMSTOWN,NY
13617,ST LAWRENCE,CANTON,NY
13202,ONONDAGA,SYRACUSE,NY
11579,NASSAU,SEA CLIFF,NY
12749,SULLIVAN,KAUNEONGA LAKE,NY
14478,YATES,KEUKA PARK,NY
14526,MONROE,PENFIELD,NY
12563,PUTNAM,PATTERSON,NY
11770,SUFFOLK,OCEAN BEACH,NY
12549,ORANGE,MONTGOMERY,NY
14572,STEUBEN,WAYLAND,NY
11021,NASSAU,GREAT NECK,NY
10474,BRONX,BRONX,NY
12414,GREENE,CATSKILL,NY
13748,BROOME,CONKLIN,NY
12760,DELAWARE,LONG EDDY,NY
14882,TOMPKINS,LANSING,NY
11952,SUFFOLK,MATTITUCK,NY
10925,ORANGE,GREENWOOD LAKE,NY
11753,NASSAU,JERICHO,NY
12992,CLINTON,WEST CHAZY,NY
13619,JEFFERSON,CARTHAGE,NY
13017,MADISON,CHITTENANGO,NY
11514,NASSAU,CARLE PLACE,NY
10974,ROCKLAND,SLOATSBURG,NY
14769,CHAUTAUQUA,PORTLAND,NY
13809,CHENANGO,MOUNT UPTON,NY
10128,NEW YORK,NEW YORK,NY
14411,ORLEANS,ALBION,NY
14608,MONROE,ROCHESTER,NY
13354,ONEIDA,HOLLAND PATENT,NY
11722,SUFFOLK,CENTRAL ISLIP,NY
10989,ROCKLAND,VALLEY COTTAGE,NY
10314,RICHMOND,STATEN ISLAND,NY
12733,SULLIVAN,FALLSBURG,NY
10543,WESTCHESTER,MAMARONECK,NY
14724,CHAUTAUQUA,CLYMER,NY
13760,BROOME,ENDICOTT,NY
11560,NASSAU,LOCUST VALLEY,NY
13360,HAMILTON,INLET,NY
13160,CAYUGA,UNION SPRINGS,NY
11704,SUFFOLK,W BABYLON,NY
14564,ONTARIO,VICTOR,NY
10533,WESTCHESTER,IRVINGTON,NY
14216,ERIE,BUFFALO,NY
12962,CLINTON,MORRISONVILLE,NY
11762,NASSAU,MASSAPEQUA PARK,NY
14729,CATTARAUGUS,EAST OTTO,NY
12776,SULLIVAN,ROSCOE,NY
14818,SCHUYLER,BURDETT,NY
10310,RICHMOND,STATEN ISLAND,NY
13166,CAYUGA,WEEDSPORT,NY
11726,SUFFOLK,COPIAGUE,NY
10020,NEW YORK,NEW YORK,NY
14454,LIVINGSTON,GENESEO,NY
14144,RENSSELAER,RENSSELAER,NY
12108,HAMILTON,LAKE PLEASANT,NY
12957,FRANKLIN,MOIRA,NY
14543,MONROE,RUSH,NY
10306,RICHMOND,STATEN ISLAND,NY
14006,ERIE,ANGOLA,NY
10922,ORANGE,FORT MONTGOMERY,NY
13350,HERKIMER,HERKIMER,NY
11940,SUFFOLK,E MORICHES,NY
14893,SCHUYLER,WAYNE,NY
11557,NASSAU,HEWLETT,NY
14874,STEUBEN,PULTENEY,NY
13646,ST LAWRENCE,HAMMOND,NY
12783,SULLIVAN,SWAN LAKE,NY
11518,NASSAU,EAST ROCKAWAY,NY
14211,ERIE,BUFFALO,NY
12538,DUTCHESS,HYDE PARK,NY
93927,ALBANY,GREENFIELD,CA
13068,TOMPKINS,FREEVILLE,NY
12547,ULSTER,MILTON,NY
14167,WYOMING,VARYSBURG,NY
13339,MONTGOMERY,FORT PLAIN,NY
10505,WESTCHESTER,BALDWIN PLACE,NY
14870,STEUBEN,PAINTED POST,NY
11747,SUFFOLK,MELVILLE,NY
12502,COLUMBIA,ANCRAM,NY
14012,NIAGARA,BARKER,NY
11419,QUEENS,RICHMOND HILL,NY
93455,ALBANY,SANTA MARIA,CA
14210,ERIE,BUFFALO,NY
12477,ULSTER,SAUGERTIES,NY
13732,TIOGA,APALACHIN,NY
11598,NASSAU,WOODMERE,NY
12758,SULLIVAN,LIVINGSTON MANOR,NY
10805,WESTCHESTER,NEW ROCHELLE,NY
14889,CHEMUNG,VAN ETTEN,NY
11977,SUFFOLK,WESTHAMPTON,NY
49408,ALBANY,FENNVILLE,MI
13324,HERKIMER,COLD BROOK,NY
11935,SUFFOLK,CUTCHOGUE,NY
14516,WAYNE,HURON,NY
14837,YATES,DUNDEE,NY
14004,ERIE,ALDEN,NY
12986,FRANKLIN,TUPPER LAKE,NY
12211,ALBANY,LOUDONVILLE,NY
14519,WAYNE,ONTARIO,NY
12589,ULSTER,WALLKILL,NY
10541,PUTNAM,MAHOPAC,NY
13204,ONONDAGA,SYRACUSE,NY
13424,ONEIDA,ORISKANY,NY
13165,SENECA,WATERLOO,NY
13206,ONONDAGA,SYRACUSE,NY
10303,RICHMOND,STATEN ISLAND,NY
12525,ULSTER,GARDINER,NY
11228,KINGS,BROOKLYN,NY
10518,WESTCHESTER,CROSS RIVER,NY
13148,SENECA,SENECA FALLS,NY
94710,ALBANY,BERKELEY,CA
14136,CHAUTAUQUA,SILVER CREEK,NY
10705,WESTCHESTER,YONKERS,NY
12775,SULLIVAN,ROCK HILL,NY
14530,WYOMING,PERRY,NY
12307,SCHENECTADY,SCHENECTADY,NY
12203,ALBANY,ALBANY,NY
93924,ALBANY,CARMEL VALLEY,CA
12567,DUTCHESS,PINE PLAINS,NY
14043,ERIE,DEPEW,NY
10470,BRONX,BRONX,NY
14548,ONTARIO,SHORTSVILLE,NY
11705,SUFFOLK,BAYPORT,NY
12466,ULSTER,PORT EWEN,NY
13495,ONEIDA,YORKVILLE,NY
14174,NIAGARA,YOUNGSTOWN,NY
10603,WESTCHESTER,WHITE PLAINS,NY
14145,WYOMING,STRYKERSVILLE,NY
95442,ALBANY,GLEN ELLEN,CA
12168,RENSSELAER,STEPHENTOWN,NY
13651,JEFFERSON,HENDERSON HARBOR,NY
14001,ERIE,AKRON,NY
14722,CHAUTAUQUA,CHAUTAUQUA,NY
14304,NIAGARA,NIAGARA FALLS,NY
12207,ALBANY,ALBANY,NY
12019,SARATOGA,CLIFTON PARK,NY
11931,SUFFOLK,AQUEBOGUE,NY
10004,NEW YORK,NEW YORK,NY
11961,SUFFOLK,RIDGE,NY
12790,SULLIVAN,WURTSBORO,NY
11946,SUFFOLK,HAMPTON BAYS,NY
14720,CHAUTAUQUA,CELORON,NY
12468,GREENE,PRATTSVILLE,NY
10976,ROCKLAND,SPARKILL,NY
12918,CLINTON,CADYVILLE,NY
14814,CHEMUNG,BIG FLATS,NY
13066,ONONDAGA,FAYETTEVILLE,NY
14416,GENESEE,BERGEN,NY
10506,WESTCHESTER,BEDFORD,NY
13057,ONONDAGA,EAST SYRACUSE,NY
12835,SARATOGA,HADLEY,NY
10964,ROCKLAND,PALISADES,NY
13648,LEWIS,HARRISVILLE,NY
13212,ONONDAGA,SYRACUSE,NY
12831,SARATOGA,GANSEVOORT,NY
11776,SUFFOLK,PORT JEFFERSON STATIO,NY
13667,ST LAWRENCE,NORFOLK,NY
14807,STEUBEN,ARKPORT,NY
11553,NASSAU,UNIONDALE,NY
11756,NASSAU,LEVITTOWN,NY
12582,DUTCHESS,STORMVILLE,NY
10927,ROCKLAND,HAVERSTRAW,NY
12042,GREENE,CLIMAX,NY
12498,ULSTER,WOODSTOCK,NY
12568,ULSTER,PLATTEKILL,NY
13325,LEWIS,CONSTABLEVILLE,NY
14750,CHAUTAUQUA,LAKEWOOD,NY
14470,ORLEANS,HOLLEY,NY
14228,ERIE,AMHERST,NY
13850,BROOME,VESTAL,NY
11428,QUEENS,QUEENS VILLAGE,NY
10983,ROCKLAND,TAPPAN,NY
10308,RICHMOND,STATEN ISLAND,NY
94562,ALBANY,OAKVILLE,CA
97113,ALBANY,CORNELIUS,OR
10469,BRONX,BRONX,NY
11746,SUFFOLK,HUNTINGTON STATION,NY
14618,MONROE,ROCHESTER,NY
14031,ERIE,CLARENCE,NY
11516,NASSAU,CEDARHURST,NY
97862,ALBANY,MILTON FREEWATER,OR
12504,DUTCHESS,ANNANDALE-ON-HUDSON,NY
11412,QUEENS,ST ALBANS,NY
14604,MONROE,ROCHESTER,NY
11436,QUEENS,S OZONE PARK,NY
14305,NIAGARA,NIAGARA FALLS,NY
12933,CLINTON,ELLENBURG,NY
13032,MADISON,CANASTOTA,NY
95251,ALBANY,VALLECITO,CA
11933,SUFFOLK,BAITING HOLLOW,NY
14534,MONROE,PITTSFORD,NY
11371,ALBANY,FLUSHING,NY
14813,ALLEGANY,BELMONT,NY
12431,GREENE,FREEHOLD,NY
13074,OSWEGO,HANNIBAL,NY
10913,ROCKLAND,BLAUVELT,NY
10589,WESTCHESTER,SOMERS,NY
11951,SUFFOLK,MASTIC BEACH,NY
14605,MONROE,ROCHESTER,NY
11783,NASSAU,SEAFORD,NY
13343,LEWIS,GLENFIELD,NY
98072,ALBANY,WOODINVILLE,WA
10282,NEW YORK,NEW YORK,NY
11934,SUFFOLK,CENTER MORICHES,NY
11420,QUEENS,JAMAICA,NY
14510,LIVINGSTON,MOUNT MORRIS,NY
13812,TIOGA,NICHOLS,NY
12436,GREENE,HAINES FALLS,NY
12791,SULLIVAN,YOUNGSVILLE,NY
10105,NEW YORK,NEW YORK,NY
14512,ONTARIO,NAPLES,NY
93447,ALBANY,PASO ROBLES,CA
10520,WESTCHESTER,CROTON ON HUDSON,NY
11727,SUFFOLK,CORAM,NY
10604,WESTCHESTER,WEST HARRISON,NY
97111,ALBANY,CARLTON,OR
11703,SUFFOLK,NORTH BABYLON,NY
14086,ERIE,LANCASTER,NY
10931,ROCKLAND,HILLBURN,NY
12047,ALBANY,COHOES,NY
97370,ALBANY,PHILOMATH,OR
11716,SUFFOLK,BOHEMIA,NY
12061,RENSSELAER,EAST GREENBUSH,NY
11565,NASSAU,MALVERNE,NY
14072,ERIE,GRAND ISLAND,NY
54201,ALBANY,ALGOMA,WI
12583,DUTCHESS,TIVOLI,NY
12754,SULLIVAN,LIBERTY,NY
13052,MADISON,DE RUYTER,NY
11370,QUEENS,JACKSON HEIGHTS,NY
14480,LIVINGSTON,LAKEVILLE,NY
10530,WESTCHESTER,HARTSDALE,NY
14024,WYOMING,BLISS,NY
11702,SUFFOLK,BABYLON,NY
14070,ERIE,GOWANDA,NY
10459,BRONX,BRONX,NY
12878,WARREN,STONY CREEK,NY
12486,ULSTER,TILLSON,NY
11978,SUFFOLK,WESTHAMPTON BEACH,NY
14030,ERIE,CHAFFEE,NY
14730,CATTARAUGUS,EAST RANDOLPH,NY
12186,ALBANY,VOORHEESVILLE,NY
13862,BROOME,WHITNEY POINT,NY
12170,SARATOGA,STILLWATER,NY
13459,SCHOHARIE,SHARON SPRINGS,NY
14711,ALLEGANY,BELFAST,NY
10952,ROCKLAND,AIRMONT,NY
95469,ALBANY,POTTER VALLEY,CA
12077,ALBANY,GLENMONT,NY
13207,ONONDAGA,SYRACUSE,NY
10928,ORANGE,HIGHLAND FALLS,NY
14886,TOMPKINS,TRUMANSBURG,NY
11416,QUEENS,OZONE PARK,NY
11958,SUFFOLK,PECONIC,NY
11751,SUFFOLK,ISLIP,NY
11230,KINGS,BROOKLYN,NY
12542,ULSTER,MARLBORO,NY
11763,SUFFOLK,MEDFORD,NY
13053,TOMPKINS,DRYDEN,NY
14172,NIAGARA,WILSON,NY
11362,QUEENS,DOUGLASTON,NY
13335,OTSEGO,EDMESTON,NY
12564,DUTCHESS,PAWLING,NY
10514,WESTCHESTER,CHAPPAQUA,NY
14051,ERIE,EAST AMHERST,NY
10547,WESTCHESTER,MOHEGAN LAKE,NY
14206,ERIE,BUFFALO,NY
10471,BRONX,BRONX,NY
11413,QUEENS,LAURELTON,NY
13494,ONEIDA,WOODGATE,NY
10516,PUTNAM,COLD SPRING,NY
14506,MONROE,MENDON,NY
14878,SCHUYLER,ROCK STREAM,NY
14733,CHAUTAUQUA,FALCONER,NY
14105,NIAGARA,MIDDLEPORT,NY
13312,LEWIS,BRANTINGHAM,NY
14445,MONROE,EAST ROCHESTER,NY
95449,ALBANY,HOPLAND,CA
12501,DUTCHESS,AMENIA,NY
10956,ROCKLAND,NEW CITY,NY
11782,SUFFOLK,SAYVILLE,NY
13033,CAYUGA,CATO,NY
10706,WESTCHESTER,HASTINGS ON HUDSON,NY
12916,FRANKLIN,BRUSHTON,NY
92924,ALBANY,CARMEL VALLEY,CA
12423,GREENE,E DURHAM,NY
12732,SULLIVAN,ELDRED,NY
12474,DELAWARE,ROXBURY,NY
10987,ORANGE,TUXEDO PARK,NY
12852,ESSEX,NEWCOMB,NY
14756,CHAUTAUQUA,MAPLE SPRINGS,NY
11369,QUEENS,EAST ELMHURST,NY
11795,SUFFOLK,WEST ISLIP,NY
14808,STEUBEN,N COHOCTON,NY
14902,CHEMUNG,ELMIRA,NY
11422,QUEENS,ROSEDALE,NY
10171,NEW YORK,NEW YORK,NY
11963,SUFFOLK,SAG HARBOR,NY
14838,CHEMUNG,ERIN,NY
14860,SENECA,LODI,NY
11694,QUEENS,ROCKAWAY PARK,NY
14610,MONROE,ROCHESTER,NY
10920,ROCKLAND,CONGERS,NY
12846,WARREN,LAKE LUZERNE,NY
13408,MADISON,MORRISVILLE,NY
12404,ULSTER,ACCORD,NY
11360,QUEENS,BAYSIDE,NY
14613,MONROE,ROCHESTER,NY
11752,SUFFOLK,ISLIP TERRACE,NY
14617,MONROE,IRONDEQUOIT,NY
14894,CHEMUNG,WELLSBURG,NY
14753,CATTARAUGUS,LIMESTONE,NY
10583,WESTCHESTER,SCARSDALE,NY
11980,SUFFOLK,YAPHANK,NY
10918,ORANGE,CHESTER,NY
13209,ONONDAGA,SOLVAY,NY
12722,SULLIVAN,BURLINGHAM,NY
14880,ALLEGANY,SCIO,NY
14227,ERIE,CHEEKTOWAGA,NY
14904,CHEMUNG,ELMIRA,NY
12522,DUTCHESS,DOVER PLAINS,NY
95452,ALBANY,KENWOOD,CA
11771,NASSAU,OYSTER BAY,NY
93101,ALBANY,SANTA BARBARA,CA
11724,SUFFOLK,COLD SPRING HARBOR,NY
97101,ALBANY,AMITY,OR
10039,NEW YORK,NEW YORK,NY
95012,ALBANY,CASTROVILLE,CA
10178,NEW YORK,NEW YORK,NY
13143,WAYNE,RED CREEK,NY
14606,MONROE,GATES,NY
13357,HERKIMER,LLION,NY
11742,SUFFOLK,HOLTSVILLE,NY
12832,WASHINGTON,GRANVILLE,NY
14782,CHAUTAUQUA,SINCLAIRVILLE,NY
12136,COLUMBIA,OLD CHATHAM,NY
12472,ULSTER,ROSENDALE,NY
13605,JEFFERSON,ADAMS,NY
12885,WARREN,WARRENSBURG,NY
10968,ROCKLAND,PIERMONT,NY
14026,ERIE,BOWMANSVILLE,NY
12592,DUTCHESS,WASSAIC,NY
13323,ONEIDA,CLINTON,NY
10594,WESTCHESTER,THORNWOOD,NY
13159,ONONDAGA,TULLY,NY
14059,ERIE,ELMA,NY
12580,DUTCHESS,STAATSBURG,NY
13407,HERKIMER,MOHAWK,NY
10576,WESTCHESTER,POUND RIDGE,NY
10504,WESTCHESTER,ARMONK,NY
12496,GREENE,WINDHAM,NY
12302,SCHENECTADY,GLENVILLE,NY
77808,ALBANY,BRYAN,TX
12969,FRANKLIN,OWLS HEAD,NY
10168,NEW YORK,NEW YORK,NY
11932,SUFFOLK,AMAGANSETT,NY
10930,ORANGE,HIGHLAND MILLS,NY
14218,ERIE,LACKAWANNA,NY
12960,ESSEX,MORIAH,NY
12198,RENSSELAER,WYNANTSKILL,NY
12140,RENSSELAER,POESTENKILL,NY
94573,ALBANY,RUTHERFORD,CA
13313,ONEIDA,BRIDGEWATER,NY
14847,SENECA,INTERLAKEN,NY
13034,CAYUGA,CAYUGA,NY
12196,RENSSELAER,WEST SAND LAKE,NY
12817,WARREN,CHESTERTOWN,NY
13833,BROOME,PORT CRANE,NY
12816,WASHINGTON,CAMBRIDGE,NY
10111,NEW YORK,NEW YORK,NY
12068,MONTGOMERY,FONDA,NY
93960,ALBANY,SOLEDAD,CA
11042,NASSAU,NEW HYDE PARK,NY
11411,QUEENS,CAMBRIA HEIGHTS,NY
12457,ULSTER,MOUNT TREMPER,NY
10921,ORANGE,FLORIDA,NY
12759,SULLIVAN,LOCH SHELDRAKE,NY
21915,ALBANY,CHESAPEAKE CITY,MD
12809,WASHINGTON,ARGYLE,NY
12303,SCHENECTADY,SCHENECTADY,NY
13108,ONONDAGA,MARCELLUS,NY
11780,SUFFOLK,SAINT JAMES,NY
13668,ST LAWRENCE,NORWOOD,NY
11575,NASSAU,ROOSEVELT,NY
12839,WASHINGTON,HUDSON FALLS,NY
14873,STEUBEN,PRATTSBURG,NY
13332,MADISON,EARLVILLE,NY
13478,ONEIDA,VERONA,NY
14125,GENESEE,OAKFIELD,NY
11953,SUFFOLK,MIDDLE ISLAND,NY
14505,WAYNE,MARION,NY
12520,ORANGE,CORNWALL ON HUDSON,NY
14514,MONROE,NORTH CHILI,NY
12993,ESSEX,WADHAMS,NY
10507,WESTCHESTER,BEDFORD HILLS,NY
12440,ULSTER,HIGH FALLS,NY
93022,ALBANY,OAK VIEW,CA
12022,RENSSELAER,BERLIN,NY
10588,WESTCHESTER,SHRUB OAK,NY
14625,MONROE,ROCHESTER,NY
49674,ALBANY,OMENA,MI
13152,ONONDAGA,SKANEATELES,NY
10119,NEW YORK,NEW YORK,NY
13670,ST LAWRENCE,OSWEGATCHIE,NY
94567,ALBANY,POPE VALLEY,CA
13040,CORTLAND,CINCINNATUS,NY
13320,OTSEGO,CHERRY VALLEY,NY
10535,WESTCHESTER,JEFFERSON VALLEY,NY
14055,ERIE,EAST CONCORD,NY
14775,CHAUTAUQUA,RIPLEY,NY
13329,HERKIMER,DOLGEVILLE,NY
94503,ALBANY,AMERICAN CANYON,CA
12930,FRANKLIN,DICKINSON CENTER,NY
14779,CATTARAUGUS,SALAMANCA,NY
13694,ST LAWRENCE,WADDINGTON,NY
13865,BROOME,WINDSOR,NY
14080,ERIE,HOLLAND,NY
11720,SUFFOLK,CENTEREACH,NY
13456,ONEIDA,SAUQUOIT,NY
10709,WESTCHESTER,EASTCHESTER,NY
14622,MONROE,ROCHESTER,NY
13435,ONEIDA,PROSPECT,NY
14737,CATTARAUGUS,FRANKLINVILLE,NY
12762,SULLIVAN,MONGAUP VALLEY,NY
12051,GREENE,COXSACKIE,NY
93427,ALBANY,BUELLTON,CA
12871,SARATOGA,SCHUYLERVILLE,NY
12202,ALBANY,ALBANY,NY
13026,CAYUGA,AURORA,NY
13425,ONEIDA,ORISKANY FALLS,NY
11959,SUFFOLK,QUOGUE,NY
12430,DELAWARE,FLEISCHMANNS,NY
12981,CLINTON,SARANAC,NY
99320,ALBANY,BENTON CITY,WA
12513,COLUMBIA,CLAVERACK,NY
14522,WAYNE,PALMYRA,NY
13155,CHENANGO,SOUTH OTSELIC,NY
13110,ONONDAGA,MARIETTA,NY
12422,GREENE,DURHAM,NY
13492,ONEIDA,WHITESBORO,NY
12483,ULSTER,SPRING GLEN,NY
12720,SULLIVAN,BETHEL,NY
95669,ALBANY,PLYMOUTH,CA
11947,SUFFOLK,JAMESPORT,NY
11559,NASSAU,LAWRENCE,NY
95415,ALBANY,BOONVILLE,CA
18428,ALBANY,HAWLEY,PA
14472,MONROE,HONEOYE FALLS,NY
13476,ONEIDA,VERNON,NY
12956,ESSEX,MINEVILLE,NY
11738,SUFFOLK,FARMINGVILLE,NY
10992,ORANGE,WASHINGTONVILLE,NY
14781,CHAUTAUQUA,SHERMAN,NY
12785,SULLIVAN,WESTBROOKVILLE,NY
13783,DELAWARE,HANCOCK,NY
14134,ERIE,SARDINIA,NY
13746,BROOME,CHENANGO FORKS,NY
14812,CHEMUNG,BEAVER DAMS,NY
97060,ALBANY,TROUTDALE,OR
14009,WYOMING,ARCADE,NY
14011,WYOMING,ATTICA,NY
12546,DUTCHESS,MILLERTON,NY
14482,GENESEE,LEROY,NY
12553,ORANGE,NEW WINDSOR,NY
86322,ALBANY,CAMP VERDE,AZ
12085,ALBANY,GUILDERLAND CENTER,NY
10407,BRONX,BRONX,NY
14560,LIVINGSTON,SPRINGWATER,NY
14614,MONROE,ROCHESTER,NY
14487,LIVINGSTON,LIVONIA,NY
12585,DUTCHESS,UNION VALE,NY
13142,OSWEGO,PULASKI,NY
13131,OSWEGO,PARISH,NY
10280,NEW YORK,NEW YORK,NY
14208,ERIE,BUFFALO,NY
13647,ST LAWRENCE,HANNAWA FALLS,NY
13470,FULTON,STRATFORD,NY
13454,HERKIMER,SALISBURY CENTER,NY
11096,NASSAU,INWOOD,NY
12060,COLUMBIA,EAST CHATHAM,NY
14067,NIAGARA,GASPORT,NY
11948,SUFFOLK,LAUREL,NY
13903,BROOME,BINGHAMTON,NY
14101,CATTARAUGUS,MACHIAS,NY
12972,CLINTON,PERU,NY
13680,ST LAWRENCE,RENSSELAER FALLS,NY
12788,SULLIVAN,WOODBOURNE,NY
14770,CATTARAUGUS,PORTVILLE,NY
95247,ALBANY,MURPHYS,CA
12464,ULSTER,PHOENICIA,NY
14739,ALLEGANY,FRIENDSHIP,NY
94599,ALBANY,YOUNTVILLE,CA
11766,SUFFOLK,MOUNT SINAI,NY
13733,CHENANGO,BAINBRIDGE,NY
10118,NEW YORK,NEW YORK,NY
11709,NASSAU,BAYVILLE,NY
14303,NIAGARA,NIAGARA FALLS,NY
14784,CHAUTAUQUA,STOCKTON,NY
14883,TIOGA,SPENCER,NY
11363,QUEENS,DOUGLASTON,NY
12747,SULLIVAN,HURLEYVILLE,NY
11749,SUFFOLK,ISLANDIA,NY
10917,ORANGE,CENTRAL VALLEY,NY
12967,ST LAWRENCE,N LAWRENCE,NY
14036,GENESEE,CORFU,NY
14481,LIVINGSTON,LEICESTER,NY
13157,ONEIDA,SYLVAN BEACH,NY
12167,DELAWARE,STAMFORD,NY
10923,ROCKLAND,GARNERVILLE,NY
93460,ALBANY,SANTA YNEZ,CA
95451,ALBANY,KELSEYVILLE,CA
81526,ALBANY,PALISADE,CO
10577,WESTCHESTER,PURCHASE,NY
12143,ALBANY,RAVENA,NY
11718,SUFFOLK,BRIGHTWATERS,NY
13309,ONEIDA,BOONVILLE,NY
12485,GREENE,TANNERSVILLE,NY
13321,ONEIDA,CLARK MILLS,NY
12493,ULSTER,WEST PARK,NY
11732,NASSAU,EAST NORWICH,NY
95470,ALBANY,REDWOOD VALLEY,CA
14517,LIVINGSTON,NUNDA,NY
97361,ALBANY,MONMOUTH,OR
14418,YATES,BRANCHPORT,NY
14951,WYOMING,WYOMING,NY
96092,ALBANY,VINA,CA
93908,ALBANY,SALINAS,CA
14772,CATTARAUGUS,RANDOLPH,NY
13649,ST LAWRENCE,HELENA,NY
13461,ONEIDA,SHERRILL,NY
12152,ONONDAGA,SKANEATELES,NY
11023,NASSAU,GREAT NECK,NY
95742,ALBANY,RANCHO CORDOVA,CA
14840,STEUBEN,HAMMONDSPORT,NY
12851,ESSEX,MINERVA,NY
90058,ALBANY,VERNON,CA
13322,HERKIMER,CLAYVILLE,NY
14138,CATTARAUGUS,SOUTH DAYTON,NY
14809,STEUBEN,AVOCA,NY
12719,SULLIVAN,BARRYVILLE,NY
13841,CHENANGO,SMITHVILLE FLATS,NY
11759,SUFFOLK,KINGS PARK,NY
13730,CHENANGO,AFTON,NY
12018,RENSSELAER,AVERILL PARK,NY
13787,BROOME,HARPURSVILLE,NY
14586,MONROE,WEST HENRIETTA,NY
95220,ALBANY,ACAMPO,NY
14433,WAYNE,CLYDE,NY
93648,ALBANY,PARLIER,CA
11367,QUEENS,FLUSHING,NY
12578,DUTCHESS,SALT POINT,NY
12188,SARATOGA,WATERFORD,NY
14869,SCHUYLER,ODESSA,NY
13138,ONONDAGA,POMPEY,NY
12860,WARREN,POTTERSVILLE,NY
12958,CLINTON,MOOERS,NY
13835,TIOGA,RICHFORD,NY
13156,CAYUGA,STERLING,NY
13775,DELAWARE,FRANKLIN,NY
14489,WAYNE,LYONS,NY
14820,STEUBEN,CAMERON MILLS,NY
12159,ALBANY,SLINGERLANDS,NY
13342,OTSEGO,GARRATTSVILLE,NY
13141,ALBANY,PREBLE,NY
13673,JEFFERSON,PHILADELPHIA,NY
13606,JEFFERSON,ADAMS CENTER,NY
14825,CHEMUNG,CHEMUNG,NY
12950,ESSEX,LEWIS,NY
11020,NASSAU,GREAT NECK,NY
14504,ONTARIO,MANCHESTER,NY
12461,ULSTER,OLIVEBRIDGE,NY
97456,ALBANY,MONROE,OR
56320,ALBANY,COLD SPRING,MN
12123,RENSSELAER,NASSAU,NY
98831,ALBANY,MANSON,WA
11697,QUEENS,ROCKAWAY POINT,NY
13491,HERKIMER,WEST WINFIELD,NY
12034,RENSSELAER,JOHNSONVILLE,NY
12413,GREENE,CAIRO,NY
12192,GREENE,WEST COXSACKIE,NY
13490,ONEIDA,WESTMORELAND,NY
13685,JEFFERSON,SACKETS HARBOR,NY
14709,ALLEGANY,ANGELICA,NY
12066,ALBANY,ESPERANCE,NY
54562,ALBANY,THREE LAKES,WI
98148,ALBANY,SEATAC,WA
10272,NEW YORK,NEW YORK,NY
13084,ONONDAGA,LAFAYETTE,NY
12602,DUTCHESS,POUGHKEEPSIE,NY
12473,GREENE,ROUND TOP,NY
11962,SUFFOLK,SAGAPONACK,NY
11509,NASSAU,ATLANTIC BEACH,NY
12966,FRANKLIN,NORTH BANGOR,NY
14047,ERIE,DERBY,NY
14802,ALLEGANY,ALFRED,NY
12470,GREENE,PURLING,NY
11975,SUFFOLK,WAINSCOTT,NY
12985,CLINTON,SCHUYLER FALLS,NY
10926,ORANGE,HARRIMAN,NY
14871,CHEMUNG,PINE CITY,NY
22959,ALBANY,NORTH GARDEN,VA
13417,ONEIDA,NEW YORK MILLS,NY
13030,ONONDAGA,BRIDGEPORT,NY
12887,WASHINGTON,WHITEHALL,NY
14706,CATTARAUGUS,ALLEGANY,NY
13420,HERKIMER,OLD FORGE,NY
23950,ALBANY,LACROSSE,VA
14056,GENESEE,EAST PEMBROKE,NY
13471,ONEIDA,TABERG,NY
13114,OSWEGO,MEXICO,NY
12763,SULLIVAN,MOUNTAIN DALE,NY
12052,RENSSELAER,CROPSEYVILLE,NY
14425,ONTARIO,FARMINGTON,NY
12521,COLUMBIA,CRARYVILLE,NY
12903,CLINTON,PLATTSBURGH,NY
13214,ONONDAGA,DEWITT,NY
98903,ALBANY,YAKIMA,WA
13140,CAYUGA,PORT BYRON,NY
12033,RENSSELAER,CASTLETON,NY
13044,OSWEGO,CONSTANTIA,NY
14803,ALLEGANY,ALFRED STATION,NY
11239,KINGS,BROOKLYN,NY
12083,GREENE,GREENVILLE,NY
12118,SARATOGA,MECHANICVILLE,NY
10578,WESTCHESTER,PURDY'S,NY
10969,ORANGE,PINE ISLAND,NY
13736,TIOGA,BERKSHIRE,NY
14435,LIVINGSTON,CONESUS,NY
13742,DELAWARE,CADOSIA,NY
13437,OSWEGO,REDFIELD,NY
13909,ONONDAGA,LIVERPOOL,NY
13301,ONEIDA,ALDER CREEK,NY
12134,FULTON,NORTHVILLE,NY
12915,FRANKLIN,BRAINARDSVILLE,NY
13348,OTSEGO,HARTWICK,NY
12526,COLUMBIA,GERMANTOWN,NY
14132,NIAGARA,SANBORN,NY
13452,MONTGOMERY,ST JOHNSVILLE,NY
95466,ALBANY,PHILO,CA
12834,WASHINGTON,GREENWICH,NY
14085,ERIE,LAKEVIEW,NY
13796,OTSEGO,LAURENS,NY
13795,BROOME,KIRKWOOD,NY
13804,DELAWARE,MASONVILLE,NY
10502,WESTCHESTER,ARDSLEY,NY
98290,ALBANY,SNOHOMISH,WA
14111,ERIE,NORTH COLLINS,NY
12122,SCHOHARIE,MIDDLEBURGH,NY
13409,MADISON,MUNNSVILLE,NY
12177,MONTGOMERY,TRIBES HILL,NY
14823,STEUBEN,CANISTEO,NY
14515,MONROE,NORTH GREECE,NY
11930,SUFFOLK,AMAGANSETT,NY
13654,ST LAWRENCE,HEUVELTON,NY
14571,ORLEANS,WATERPORT,NY
13808,OTSEGO,MORRIS,NY
12492,GREENE,WEST KILL,NY
95694,ALBANY,WINTERS,CA
12920,FRANKLIN,CHATEAUGAY,NY
98953,ALBANY,ZILLAH,WA
13803,CORTLAND,MARATHON,NY
12484,ULSTER,STONE RIDGE,NY
12814,WARREN,BOLTON LANDING,NY
13755,DELAWARE,DOWNSVILLE,NY
11955,SUFFOLK,MORICHES,NY
12449,ULSTER,LAKE KATRINE,NY
96760,ALBANY,KULA,HI
14037,WYOMING,COWLESVILLE,NY
10707,WESTCHESTER,TUCKAHOE,NY
12917,FRANKLIN,BURKE,NY
13731,DELAWARE,ANDES,NY
13111,CAYUGA,MARTVILLE,NY
13060,ONONDAGA,ELBRIDGE,NY
14879,STEUBEN,SAVONA,NY
14892,CHEMUNG,WAVERLY,NY
10919,ORANGE,CIRCLEVILLE,NY
12540,DUTCHESS,LAGRANGEVILLE,NY
14841,SCHUYLER,HECTOR,NY
12545,DUTCHESS,MILLBROOK,NY
12149,SCHOHARIE,RICHMONDVILLE,NY
98673,ALBANY,WISHRAM,WA
98930,ALBANY,GRANDVIEW,WA
10579,PUTNAM,PUTNAM VALLEY,NY
11964,SUFFOLK,SHELTER ISLAND,NY
13743,TIOGA,CANDOR,NY
13806,DELAWARE,MERIDALE,NY
12446,ULSTER,KERHONKSON,NY
97007,ALBANY,BEAVERTON,OR
10916,ORANGE,CAMPBELL HALL,NY
12160,SCHOHARIE,SLOANSVILLE,NY
49101,ALBANY,BARODA,MI
13315,OTSEGO,BURLINGTON FLATS,NY
14170,ERIE,WEST FALLS,NY
12734,SULLIVAN,FERNDALE,NY
12072,MONTGOMERY,FULTONVILLE,NY
11986,SUFFOLK,SOUTHAMPTON,NY
14585,ONTARIO,WEST BLOOMFIELD,NY
13428,MONTGOMERY,PALATINE BRIDGE,NY
14062,CHAUTAUQUA,FORESTVILLE,NY
13608,JEFFERSON,ANTWERP,NY
12974,ESSEX,PORT HENRY,NY
12996,ESSEX,WILLSBORO,NY
12517,COLUMBIA,COPAKE FALLS,NY
93103,ALBANY,SANTA BARBARA,CA
13029,ONONDAGA,BREWERTON,NY
14466,ONTARIO,HEMLOCK,NY
97148,ALBANY,YAMHILL,OR
13825,OTSEGO,OTEGO,NY
14885,STEUBEN,TROUPSBURG,NY
13080,ONONDAGA,JORDAN,NY
12036,OTSEGO,CHARLOTTEVILLE,NY
12764,SULLIVAN,NARROWSBURG,NY
12750,SULLIVAN,KENOZA LAKE,NY
12075,COLUMBIA,GHENT,NY
13081,CAYUGA,KING FERRY,NY
13634,JEFFERSON,DEXTER,NY
13777,BROOME,GLEN AUBREY,NY
13101,CORTLAND,MCGRAW,NY
49450,ALBANY,PULLMAN,MI
13750,DELAWARE,DAVENPORT,NY
12753,SULLIVAN,LEWBEACH,NY
11719,SUFFOLK,BROOKHAVEN,NY
12442,GREENE,HUNTER,NY
12827,WASHINGTON,FORT ANN,NY
10165,NEW YORK,NEW YORK,NY
12027,SARATOGA,BURNT HILLS,NY
12184,COLUMBIA,VALATIE,NY
13402,MADISON,MADISON,NY
12029,COLUMBIA,CANAAN,NY
13843,CHENANGO,SOUTH NEW BERLIN,NY
12725,ULSTER,CLARYVILLE,NY
14025,ERIE,BOSTON,NY
95603,ALBANY,AUBURN,CA
95409,ALBANY,SANTA ROSA,CA
14783,CATTARAUGUS,STEAMBURG,NY
10177,NEW YORK,NEW YORK,NY
12092,SCHOHARIE,HOWES CAVE,NY
13355,MADISON,HUBBARDVILLE,NY
13317,MONTGOMERY,CANAJOHARIE,NY
13135,OSWEGO,PHOENIX,NY
12541,COLUMBIA,LIVINGSTON,NY
13734,TIOGA,BARTON,NY
11794,SUFFOLK,STONY BROOK,NY
14471,ONTARIO,HONEOYE,NY
11577,NASSAU,ROSLYN HEIGHTS,NY
13460,CHENANGO,SHERBURNE,NY
11569,NASSAU,POINT LOOKOUT,NY
14058,GENESEE,ELBA,NY
11949,SUFFOLK,MANORVILLE,NY
14736,CHAUTAUQUA,FINDLEY LAKE,NY
11956,SUFFOLK,NEW SUFFOLK,NY
97119,ALBANY,GASTON,OR
13145,OSWEGO,SANDY CREEK,NY
10121,NEW YORK,NEW YORK,NY
13328,ONEIDA,DEANSBORO,NY
13082,MADISON,KIRKVILLE,NY
12980,FRANKLIN,ST REGIS FALLS,NY
97202,ALBANY,PORTLAND,OR
97501,ALBANY,MEDFORD,OR
14723,CHAUTAUQUA,CHERRY CREEK,NY
11942,SUFFOLK,EAST QUOQUE,NY
13162,ONEIDA,VERONA BEACH,NY
12997,ESSEX,WILMINGTON,NY
13092,CAYUGA,LOCKE,NY
14429,ORLEANS,CLARENDON,NY
14098,ORLEANS,LYNDONVILLE,NY
14755,CATTARAUGUS,LITTLE VALLEY,NY
14173,CATTARAUGUS,YORKSHIRE,NY
63332,ALBANY,AUGUSTA,MO
12117,FULTON,MAYFIELD,NY
12853,WARREN,NORTH CREEK,NY
13072,MADISON,GEORGETOWN,NY
24484,ALBANY,WARM SPRINGS,VA
12746,ORANGE,HUGUENOT,NY
14033,ERIE,COLDEN,NY
14143,GENESEE,STAFFORD,NY
59875,ALBANY,VICTOR,MT
14040,WYOMING,DARIEN CENTER,NY
12523,COLUMBIA,ELIZAVILLE,NY
14853,TOMPKINS,ITHACA,NY
12856,WARREN,NORTH RIVER,NY
12190,HAMILTON,WELLS,NY
13811,TIOGA,NEWARK VALLEY,NY
14427,WYOMING,CASTILE,NY
13337,OTSEGO,FLY CREEK,NY
92075,ALBANY,SOLANA BEACH,CA
95407,ALBANY,SANTA ROSA,CA
13158,CORTLAND,TRUXTON,NY
14556,LIVINGSTON,GROVELAND,NY
14735,ALLEGANY,FILLMORE,NY
14842,YATES,HIMROD,NY
12913,ESSEX,BLOOMINGDALE,NY
11740,SUFFOLK,GREENLAWN,NY
12116,OTSEGO,MARYLAND,NY
12173,COLUMBIA,STUYVESANT,NY
10524,PUTNAM,GARRISON,NY
14715,ALLEGANY,BOLIVAR,NY
11767,SUFFOLK,NESCONSET,NY
13861,OTSEGO,WEST ONEONTA,NY
14546,MONROE,SCOTTSVILLE,NY
94956,ALBANY,POINT REYES STATION,CA
12548,ULSTER,MODENA,NY
10560,WESTCHESTER,NORTH SALEM,NY
10511,WESTCHESTER,BUCHANAN,NY
95494,ALBANY,YORKVILLE,CA
13077,CORTLAND,HOMER,NY
12815,WARREN,BRANT LAKE,NY
12952,CLINTON,DANNEMORA,NY
12487,ULSTER,ULSTER PARK,NY
11941,SUFFOLK,EASTPORT,NY
14140,ERIE,SPRINGBROOK,NY
12427,GREENE,ELKA PARK,NY
13319,ONEIDA,CHADWICKS,NY
12961,ESSEX,MORIAH CENTER,NY
13116,ONONDAGA,MINOA,NY
12768,SULLIVAN,PARKSVILLE,NY
95454,ALBANY,LAYTONVILLE,CA
13473,LEWIS,TURIN,NY
12056,SCHENECTADY,PRINCETOWN,NY
12074,SARATOGA,GALWAY,NY
13813,BROOME,NINEVEH,NY
95612,ALBANY,CLARKSBURG,CA
11804,NASSAU,OLD BETHPAGE,NY
14555,WAYNE,SODUS POINT,NY
13063,ONONDAGA,FABIUS,NY
12106,COLUMBIA,KINDERHOOK,NY
13071,CAYUGA,GENOA,NY
13788,DELAWARE,HOBART,NY
13650,JEFFERSON,HENDERSON,NY
95618,ALBANY,DIAMOND SPRINGS,CA
94952,ALBANY,PETALUMA,CA
10519,WESTCHESTER,CROTON FALLS,NY
12076,SCHOHARIE,GILBOA,NY
13290,ONONDAGA,SYRACUSE,NY
44057,ALBANY,MADISON TOWNSHIP,OH
93441,ALBANY,LOS OLIVOS,CA
10988,ORANGE,UNIONVILLE,NY
12059,ALBANY,EAST BERNE,NY
12855,ESSEX,NORTH HUDSON,NY
93002,ALBANY,JACKSON,WY
13652,ST LAWRENCE,HERMON,NY
95030,ALBANY,LOS GATOS,CA
12451,GREENE,LEEDS,NY
11957,SUFFOLK,ORIENT,NY
95037,ALBANY,MORGAN HILL,CA
14836,LIVINGSTON,DALTON,NY
12155,OTSEGO,SCHENEVUS,NY
11789,SUFFOLK,SOUND BEACH,NY
13331,HERKIMER,EAGLE BAY,NY
12979,CLINTON,ROUSES POINT,NY
95060,ALBANY,SANTA CRUZ,CA
12094,RENSSELAER,JOHNSONVILLE,NY
10540,WESTCHESTER,LINCOLNDALE,NY
12841,WASHINGTON,HULETTS LANDING,NY
13314,MADISON,BROOKFIELD,NY
11272,QUEENS,JACKSON HEIGHTS,NY
13094,ONONDAGA,LYSANDER,NY
97371,ALBANY,RICKREALL,OR
14747,CHAUTAUQUA,KENNEDY,NY
12481,ULSTER,SHOKAN,NY
12435,ULSTER,GREENFIELD PARK,NY
10804,WESTCHESTER,NEW ROCHELLE,NY
13153,ONONDAGA,SKANEATELES FALLS,NY
10176,NEW YORK,NEW YORK,NY
11970,SUFFOLK,S JAMESPORT,NY
12494,ULSTER,WEST SHOKAN,NY
94566,ALBANY,PLEASANTON,CA
14131,NIAGARA,RANSOMVILLE,NY
10692,ROCKLAND,ORANGEBURG,NY
83607,ALBANY,CALDWELL,ID
13305,LEWIS,BEAVER FALLS,NY
14897,ALLEGANY,WHITESVILLE,NY
12945,FRANKLIN,LAKE CLEAR,NY
13612,JEFFERSON,BLACK RIVER,NY
33030,ALBANY,HOMESTEAD,FL
13438,ONEIDA,REMSEN,NY
22645,ALBANY,MIDDLETOWN,VA
13611,JEFFERSON,BELLEVILLE,NY
93923,ALBANY,CARMEL,CA
13797,BROOME,LISLE,NY
14826,STEUBEN,COHOCTON,NY
14083,WYOMING,JAVA VILLAGE,NY
20132,ALBANY,HILLSBORO,VA
12812,HAMILTON,BLUE MOUNTAIN LAKE,NY
79404,ALBANY,LUBBOCK,TX
22923,ALBANY,BARBOURSVILLE,VA
14146,ERIE,SWORMVILLE,NY
12537,DUTCHESS,HUGHSONVILLE,NY
12183,ALBANY,GREEN ISLAND,NY
11005,QUEENS,FLORAL PARK,NY
12514,DUTCHESS,CLINTON CORNERS,NY
59802,ALBANY,MISSOULA,MT
90031,ALBANY,LOS ANGELES,CA
10915,ORANGE,BULLVILLE,NY
13778,CHENANGO,GREENE,NY
14126,NIAGARA,OLCOTT,NY
12193,ALBANY,WESTERLO,NY
13479,ONEIDA,WASHINGTON MILLS,NY
14804,ALLEGANY,ALMOND,NY
12443,ULSTER,HURLEY,NY
12837,WASHINGTON,HAMPTON,NY
13411,CHENANGO,NEW BERLIN,NY
14806,ALLEGANY,ANDOVER,NY
12250,ALBANY,NEWBURGH,NY
14569,WYOMING,WARSAW,NY
12491,ULSTER,WEST HURLEY,NY
13450,OTSEGO,ROSEBOOM,NY
12441,ULSTER,HIGHMOUNT,NY
80205,ALBANY,DENVER,CO
14057,ERIE,EDEN,NY
12910,CLINTON,ALTONA,NY
11431,QUEENS,JAMAICA,NY
98042,ALBANY,KENT,WA
93432,ALBANY,CRESTON,CA
12604,DUTCHESS,POUGHKEEPSIE,NY
12752,SULLIVAN,LAKE HUNTINGTON,NY
12463,GREENE,PALENVILLE,NY
14839,STEUBEN,GREENWOOD,NY
12067,ALBANY,FEURA BUSH,NY
12849,WASHINGTON,MIDDLE GRANVILLE,NY
13637,JEFFERSON,EVANS MILLS,NY
13416,HERKIMER,NEWPORT,NY
11004,QUEENS,GLEN OAKS,NY
12912,ESSEX,AUSABLE FORKS,NY
13104,ONONDAGA,MANLIUS,NY
10503,WESTCHESTER,PELHAM,NY
12824,WARREN,DIAMOND POINT,NY
13860,DELAWARE,WEST DAVENPORT,NY
94124,ALBANY,SAN FRANCISCO,CA
14065,CATTARAUGUS,FREEDOM,NY
13303,ONEIDA,AVA,NY
13807,OTSEGO,MILFORD,NY
13472,HERKIMER,THENDARA,NY
21779,ALBANY,ROHRERSVILLE,MD
14743,CATTARAUGUS,HINSDALE,NY
17545,ALBANY,MANHEIM,PA
18066,ALBANY,NEW TRIPOLI,PA
12842,HAMILTON,INDIAN LAKE,NY
13641,JEFFERSON,FISHERS LANDING,NY
13635,ST LAWRENCE,EDWARDS,NY
94534,ALBANY,FAIRFIELD,CA
18013,ALBANY,BANGOR,PA
10973,ORANGE,SLATE HILL,NY
98951,ALBANY,WAPATO,WA
14801,STEUBEN,ADDISON,NY
14260,ERIE,AMHERST,NY
94070,ALBANY,SAN CARLOS,CA
22902,ALBANY,CHARLOTTESVILLE,VA
13112,ONONDAGA,MEMPHIS,NY
10069,NEW YORK,NEW YORK,NY
95432,ALBANY,ELK,CA
13076,OSWEGO,HASTINGS,NY
12779,SULLIVAN,S FALLSBURG,NY
10995,ROCKLAND,WEST HAVERSTRAW,NY
13338,ONEIDA,FORESTPORT,NY
44721,ALBANY,CANTON,OH
12751,SULLIVAN,KIAMESHA LAKE,NY
97140,ALBANY,SHERWOOD,OR
95033,ALBANY,LOS GATOS,CA
11775,SUFFOLK,LAKE GROVE,NY
95467,ALBANY,SONOMA,CA
13083,OSWEGO,LACONA,NY
22841,ALBANY,MT CRAWFORD,VA
13436,HAMILTON,RAQUETTE LAKE,NY
14430,MONROE,CLARKSON,NY
20106,ALBANY,AMISSVILLE,VA
12412,ULSTER,BOICEVILLE,NY
10090,ORANGE,WARWICK,NY
14716,CHAUTAUQUA,BROCTON,NY
12045,ALBANY,COEYMANS,NY
12475,ULSTER,RUBY,NY
12489,ULSTER,WAWARSING,NY
13433,LEWIS,PORT LEYDEN,NY
14464,MONROE,HAMLIN,NY
13684,ST LAWRENCE,RUSSELL,NY
12748,SULLIVAN,JEFFERSONVILLE,NY
12410,ULSTER,OLIVEREA,NY
14169,ERIE,WALES,NY
13073,TOMPKINS,GROTON,NY
12409,ULSTER,BEARSVILLE,NY
14476,ORLEANS,KENDALL,NY
12429,ULSTER,ESOPUS,NY
20124,ALBANY,CLIFTON,VA
10998,ORANGE,WESTTOWN,NY
12124,GREENE,NEW BALTIMORE,NY
13061,JEFFERSON,WATERTOWN,NY
12150,SCHENECTADY,ROTTERDAM JUNCTION,NY
13418,MADISON,NORTH BROOKFIELD,NY
10587,WESTCHESTER,SHENOROCK,NY
12792,SULLIVAN,YULAN,NY
94130,ALBANY,SAN FRANCISCO,CA
95228,ALBANY,COPPEROPOLIS,CA
13489,LEWIS,WEST LEYDEN,NY
13167,OSWEGO,WEST MONROE,NY
14005,GENESEE,ALEXANDER,NY
12727,SULLIVAN,COCHECTON CENTER,NY
14568,WAYNE,WALWORTH,NY
14042,CATTARAUGUS,DELEVAN,NY
57745,ALBANY,HILL CITY,SD
13302,OSWEGO,ALTMAR,NY
99353,ALBANY,WEST RICHLAND,WA
13632,JEFFERSON,DEPAUVILLE,NY
13697,ST LAWRENCE,WINTHROP,NY
12503,COLUMBIA,ACRAMDALE,NY
10104,NEW YORK,NEW YORK,NY
14741,CATTARAUGUS,GREAT VALLEY,NY
17502,ALBANY,BAINBRIDGE,PA
10553,WESTCHESTER,MOUNT VERNON,NY
12922,ST LAWRENCE,CHILDWOOD,NY
14139,ERIE,SOUTH WALES,NY
12850,SARATOGA,MIDDLE GROVE,NY
13745,BROOME,CHENANGO BRIDGE,NY
10963,ORANGE,OTISVILLE,NY
11721,SUFFOLK,CENTERPORT,NY
14533,LIVINGSTON,PIFFARD,NY
14102,ERIE,MARILLA,NY
11024,NASSAU,GREAT NECK,NY
14413,WAYNE,ALTON,NY
13625,ST LAWRENCE,COLTON,NY
12023,ALBANY,BERNE,NY
22949,ALBANY,LOVINGSTON,VA
12482,GREENE,SOUTH CAIRO,NY
14851,TOMPKINS,ITHACA,NY
13132,OSWEGO,PENNELLVILLE,NY
13318,ONEIDA,CASSVILLE,NY
97530,ALBANY,JACKSONVILLE,OR
12737,SULLIVAN,GLEN SPEY,NY
22940,ALBANY,FREE UNION,VA
14029,ALLEGANY,CENTERVILLE,NY
94020,ALBANY,LA HONDA,CA
13665,JEFFERSON,NATURAL BRIDGE,NY
14485,LIVINGSTON,LIMA,NY
13042,OSWEGO,CLEVELAND,NY
14113,WYOMING,NORTH JAVA,NY
12777,SULLIVAN,FORESTBURGH,NY
13310,MADISON,BOUCKVILLE,NY
81655,ALBANY,WOLCOTT,CO
12130,COLUMBIA,NIVERVILLE,NY
11715,SUFFOLK,BLUE POINT,NY
11522,NASSAU,WEST HEMPSTEAD,NY
10903,ROCKLAND,BLAUVELT,NY
12233,ALBA,ALBANY         ,NY
12228,ALBA,ALBANY         ,NY
12007,ALBA,ALCOVE         ,NY
12041,ALBA,CLARKSVILLE    ,NY
12120,ALBA,MEDUSA         ,NY
12469,ALBA,PRESTON HOLLOW ,NY
12161,ALBA,S BETHLEHEM    ,NY
14707,ALLE,ALLENTOWN      ,NY
14714,ALLE,BLACK CREEK    ,NY
14717,ALLE,CANEADEA       ,NY
14721,ALLE,CERES          ,NY
14744,ALLE,HOUGHTON       ,NY
14745,ALLE,HUME           ,NY
14774,ALLE,RICHBURG       ,NY
14073,BRON,BRONX          ,NY
13744,BROO,CASTLE CREEK   ,NY
13761,BROO,ENDICOTT       ,NY
13794,BROO,KILLAWOG       ,NY
13851,BROO,VESTAL         ,NY
14719,CATT,CATTARAGUS     ,NY
14041,CATT,DAYTON         ,NY
14766,CATT,OTTO           ,NY
14129,CATT,PERRYSBURG     ,NY
14133,CATT,SANDUSKY       ,NY
14788,CATT,WESTONS MILLS  ,NY
14171,CATT,WEST VALLEY    ,NY
13022,CAYU,AUBURN         ,NY
13139,CAYU,POPLAR RIDGE   ,NY
13147,CAYU,SCIPIO CENTER  ,NY
14710,CHAU,ASHVILLE       ,NY
14718,CHAU,CASSADAGA      ,NY
14726,CHAU,CONEWANGO VAL  ,NY
14728,CHAU,DEWITTVILLE    ,NY
14732,CHAU,ELLINGTON      ,NY
14740,CHAU,GERRY          ,NY
14767,CHAU,PANAMA         ,NY
14135,CHAU,SHERIDAN       ,NY
14785,CHAU,STOW           ,NY
14859,CHEM,LOCKWOOD       ,NY
14861,CHEM,LOWMAN         ,NY
13780,CHEN,GUILFORD       ,NY
13801,CHEN,MC DONOUGH     ,NY
13814,CHEN,N NORWICH      ,NY
13124,CHEN,N PITCHER      ,NY
13136,CHEN,PITCHER        ,NY
13832,CHEN,PLYMOUTH       ,NY
13464,CHEN,SMYRNA         ,NY
13844,CHEN,SO PLYMOUTH    ,NY
12921,CLIN,CHAZY          ,NY
12923,CLIN,CHURUBUSCO     ,NY
12924,CLIN,CLINTONVILLE   ,NY
12934,CLIN,ELLENBURG CTR  ,NY
12935,CLIN,ELLENBURG DPO  ,NY
12955,CLIN,MERRILL        ,NY
12959,CLIN,MOOERS FORK    ,NY
12050,COLU,COLUMBIAVILLE  ,NY
12544,COLU,MELLENVILLE    ,NY
12125,COLU,NEW LEBANON    ,NY
12156,COLU,SCHODACK LNDNG ,NY
12195,COLU,WEST LEBANON   ,NY
13087,CORT,LITTLE YORK    ,NY
13751,DELA,DAVENPORT      ,NY
13756,DELA,EAST BRANCH    ,NY
13757,DELA,EAST MEREDITH  ,NY
12434,DELA,GRAND GORGE    ,NY
13782,DELA,HAMDEN         ,NY
13786,DELA,HARPERSFIELD   ,NY
12459,DELA,NEW KINGSTON   ,NY
13842,DELA,S KORTRIGHT    ,NY
13846,DELA,TREADWELL      ,NY
13847,DELA,TROUT CK       ,NY
12527,DUTC,GLENHEIM       ,NY
12531,DUTC,HOLMES         ,NY
12570,DUTC,POUGHQUAG      ,NY
14010,ERIE,ATHOL SPRINGS  ,NY
14027,ERIE,BRANT          ,NY
14240,ERIE,BUFFALO        ,NY
14013,ERIE,CLARENCE       ,NY
14034,ERIE,COLLINS        ,NY
14069,ERIE,GLENWOOD       ,NY
12928,ESSE,CROWN POINT    ,NY
12941,ESSE,JAY            ,NY
12857,ESSE,OLMSTEDVILLE   ,NY
12977,ESSE,RAY BROOK      ,NY
12872,ESSE,SEVERANCE      ,NY
12914,FRAN,BOMBAY         ,NY
12926,FRAN,CONSTABLE      ,NY
12937,FRAN,FORT COVINGTON ,NY
12970,FRAN,PAUL SMITHS    ,NY
12976,FRAN,RAINBOW LAKE   ,NY
12989,FRAN,VERMONTVILLE   ,NY
12032,FULT,CAROGA LAKE    ,NY
12086,FULT,HAGAMAN        ,NY
13410,FULT,NELLISTON      ,NY
14021,GENE,BATAVIA        ,NY
12407,GREE,ASHLAND        ,NY
12058,GREE,EARLTON        ,NY
12439,GREE,E WINDHAM      ,NY
12087,GREE,HANNACROIX     ,NY
12444,GREE,JEWETT         ,NY
12139,HAMI,PISECO         ,NY
13361,HERK,JORDANVILLE    ,NY
13406,HERK,MIDDLEVILLE    ,NY
13431,HERK,POLAND         ,NY
13475,HERK,VAN HORNESVLLE ,NY
13615,JEFF,BROWNSVILLE    ,NY
13616,JEFF,CALCIUM        ,NY
13622,JEFF,CHAUMONT       ,NY
13628,JEFF,DEFERIET       ,NY
13636,JEFF,ELLISBURG      ,NY
13638,JEFF,FELTS MILLS    ,NY
13602,JEFF,FORT DRUM      ,NY
13643,JEFF,GREAT BEND     ,NY
13656,JEFF,LAFARGEVILLE   ,NY
13661,JEFF,MANNSVILLE     ,NY
13682,JEFF,RODMAN         ,NY
11263,KING,BROOKLYN       ,NY
11515,KING,BROOKLYN       ,NY
11227,KING,GLENDALE       ,NY
13620,LEWI,CASTORLAND     ,NY
13626,LEWI,COPENHAGEN     ,NY
13627,LEWI,DEER RIVER     ,NY
14462,LIVI,GRVLND STA     ,NY
14846,LIVI,HUNT           ,NY
14539,LIVI,RETSOF         ,NY
14545,LIVI,SCOTTSBURG     ,NY
14592,LIVI,YORK           ,NY
13122,MADI,NEW WOODSTOCK  ,NY
13163,MADI,WAMPSVILLE     ,NY
13484,MADI,WEST EATON     ,NY
12069,MONT,FORT HUNTER    ,NY
12070,MONT,FORT JOHNSON   ,NY
12166,MONT,SPRAKERS       ,NY
11152,NASS,FREEPORT       ,NY
11802,NASS,HICKSVILLE     ,NY
11696,NASS,INWOOD         ,NY
11571,NASS,ROCKVILLE CEN  ,NY
14008,NIAG,APPLETON       ,NY
14028,NIAG,BURT           ,NY
14095,NIAG,LOCKPORT       ,NY
14107,NIAG,MODEL CITY     ,NY
14302,NIAG,NIAGARA FALLS  ,NY
13308,ONEI,BLOSSVALE      ,NY
13363,ONEI,LEE CENTER     ,NY
13123,ONEI,NORTH BAY      ,NY
13441,ONEI,ROME           ,NY
13455,ONEI,SANGERFIELD    ,NY
13469,ONEI,STITTVILLE     ,NY
13503,ONEI,UTICA          ,NY
13504,ONEI,UTICA          ,NY
13486,ONEI,WESTERNVILLE   ,NY
13120,ONON,NEDROW         ,NY
13137,ONON,PLAINVILLE     ,NY
13218,ONON,SYRACUSE       ,NY
13024,ONON,SYRACUSE       ,NY
13217,ONON,SYRACUSE       ,NY
11320,ONON,SYRACUSE       ,NY
13201,ONON,SYRACUSE       ,NY
13220,ONON,SYRACUSE       ,NY
13164,ONON,WARNERS        ,NY
14461,ONTA,GORHAM         ,NY
14463,ONTA,HALL           ,NY
14475,ONTA,IONIA          ,NY
14547,ONTA,SENECA CASTLE  ,NY
14561,ONTA,STANLEY        ,NY
12729,ORAN,CUDDEBACKVILLE ,NY
10727,ORAN,HAVERSTRAW     ,NY
10933,ORAN,JOHNSON        ,NY
12543,ORAN,MAYBROOK       ,NY
12593,ORAN,NEW WINSOR     ,NY
12575,ORAN,ROCK TAVERN    ,NY
10975,ORAN,SOUTHFIELDS    ,NY
12780,ORAN,SPARROW BUSH   ,NY
12584,ORAN,VAILS GATE     ,NY
14452,ORLE,FANCHER        ,NY
14477,ORLE,KENT           ,NY
13028,OSWE,BERNHARD BAY   ,NY
13103,OSWE,MALLORY        ,NY
13115,OSWE,MINETTO        ,NY
12064,OTSE,EAST WORCESTER ,NY
13333,OTSE,E SPRINGFIELD  ,NY
13776,OTSE,GILBERTSVILLE  ,NY
13810,OTSE,MT VISION      ,NY
13834,OTSE,PORTLANDVILLE  ,NY
13457,OTSE,SCHUYLER LAKE  ,NY
13468,OTSE,SPRINGFLD CTR  ,NY
13485,OTSE,W EDMESTON     ,NY
13859,OTSE,WELLS BRIDGE   ,NY
13488,OTSE,WESTFORD       ,NY
12187,OTSE,WORCESTER      ,NY
10537,PUTN,LK PEEKSKILL   ,NY
10542,PUTN,MAHOPAC FALLS  ,NY
11381,QUEE,GLENDALE       ,NY
11329,QUEE,MIDDLE VILLAGE ,NY
12028,RENS,BUSKIRK        ,NY
12057,RENS,EAGLE BRIDGE   ,NY
12062,RENS,EAST NASSAU    ,NY
12063,RENS,E SCHOCACK     ,NY
12089,RENS,HOOSICK        ,NY
12121,RENS,MELROSE        ,NY
12133,RENS,N HOOSICK      ,NY
12138,RENS,PETERSBURG     ,NY
12185,RENS,VALLEY FALLS   ,NY
11156,RICH,STATEN ISLAND  ,NY
10982,ROCK,TALLMAN        ,NY
10986,ROCK,TOMKINS COVE   ,NY
12859,SARA,PORTER CORNERS ,NY
12148,SARA,REXFORD        ,NY
12863,SARA,ROCK CITY FLLS ,NY
12151,SARA,ROUND LAKE     ,NY
12008,SCHE,ALPLAUS        ,NY
12053,SCHE,DELANSON       ,NY
12137,SCHE,PATTERSONVILLE ,NY
12031,SCHO,CARLISLE       ,NY
12035,SCHO,CENTRAL BRIDGE ,NY
12071,SCHO,FULTONHAM      ,NY
12093,SCHO,JEFFERSON      ,NY
12131,SCHO,N BLENHEIM     ,NY
12175,SCHO,SUMMIT         ,NY
14805,SCHU,ALPINE         ,NY
14815,SCHU,BRADFORD       ,NY
14824,SCHU,CAYUTA         ,NY
14863,SCHU,MECKLENBURG    ,NY
14864,SCHU,MILLPORT       ,NY
14876,SCHU,READING CENTER ,NY
13065,SENE,FAYETTE        ,NY
14819,STEU,CAMERON        ,NY
14827,STEU,COOPERS PLAINS ,NY
14831,STEU,CORNING        ,NY
14855,STEU,JASPER         ,NY
14856,STEU,KANONA         ,NY
14858,STEU,LINDLEY        ,NY
14868,STEU,N CHOCTON      ,NY
14529,STEU,PERKINSVILLE   ,NY
14898,STEU,WOODHULL       ,NY
13614,STLA,BRIER HILL     ,NY
13621,STLA,CHASE MILLS    ,NY
13623,STLA,CHIPPEWA BAY   ,NY
13630,STLA,DEKALB JCT     ,NY
13639,STLA,FINE           ,NY
13645,STLA,HAILESBORO     ,NY
13672,STLA,PARISHVILLE    ,NY
13678,STLA,RAYMONDVILLE   ,NY
13687,STLA,SOUTH COLTON   ,NY
13696,STLA,WEST STOCKHOLM ,NY
11317,SUFF,BELLPORT       ,NY
11172,SUFF,COLD SPRNG HBR ,NY
11535,SUFF,FARMINGDALE    ,NY
11745,SUFF,HUNTINGTON STA ,NY
11969,SUFF,SOUTHAMPTON    ,NY
11973,SUFF,UPTON          ,NY
11796,SUFF,W SAYVILLE     ,NY
12736,SULL,FREMONT CTR    ,NY
12740,SULL,GRAHAMSVILLE   ,NY
12741,SULL,HANKINS        ,NY
12745,SULL,HORTONVILLE    ,NY
12766,SULL,NO BRANCH      ,NY
12778,SULL,SMALLWOOD      ,NY
12787,SULL,WHITE SLPHR SP ,NY
13773,TIOG,BERKSHIRE      ,NY
13726,TIOG,BERKSHIRE      ,NY
13845,TIOG,TIOGA CTR      ,NY
13864,TIOG,WILLSEYVILLE   ,NY
14817,TOMP,BROOKTONDALE   ,NY
14867,TOMP,NEW FIELD      ,NY
14881,TOMP,SLATERVLL SPGS ,NY
12515,ULST,CLINTONDALE    ,NY
12417,ULST,CONNELLY       ,NY
12432,ULST,GLASCO         ,NY
12402,ULST,KINGSTON       ,NY
12480,ULST,SHANDAKEN      ,NY
12588,ULST,WALKER VALLEY  ,NY
12495,ULST,WILLOW         ,NY
12810,WARR,ATHOL          ,NY
12811,WARR,BAKERS MILLS   ,NY
12836,WARR,HAGUE          ,NY
12843,WARR,JOHNSBURG      ,NY
12821,WASH,COMSTOCK       ,NY
12838,WASH,HARTFORD       ,NY
12854,WASH,N GRANVILLE    ,NY
12865,WASH,SALEM          ,NY
12873,WASH,SHUSHAN        ,NY
14520,WAYN,ONTARIO CENTER ,NY
13146,WAYN,SAVANNAH       ,NY
10527,WEST,GRANITE SPGS   ,NY
10480,WEST,RYE            ,NY
10596,WEST,VERPLANK       ,NY
14039,WYOM,DALE           ,NY
14066,WYOM,GAINESVILLE    ,NY
14082,WYOM,JAVA CTR       ,NY
14536,WYOM,PORTAGEVILLE   ,NY
14591,WYOM,WYOMING        ,NY
14857,YATE,LAKEMONT       ,NY
14507,YATE,MIDDLESEX      ,NY
14544,YATE,RUSHVILLE      ,NY